{"type":"Feature","properties":{"isoA2":"AD","name":"Andorra"},"geometry":{"type":"Polygon","coordinates":[[[1.40646,42.52924],[1.40976,42.54061],[1.4263,42.5618],[1.4264,42.56565],[1.41803,42.56983],[1.41927,42.57926],[1.4293,42.59539],[1.45141,42.60205],[1.46681,42.64146],[1.49844,42.64024],[1.52779,42.64854],[1.54309,42.64936],[1.59735,42.62192],[1.6083,42.61812],[1.72199,42.60986],[1.71331,42.58955],[1.72943,42.582],[1.75269,42.57668],[1.76509,42.56337],[1.73998,42.56164],[1.72168,42.54852],[1.71062,42.52774],[1.70701,42.50278],[1.6975,42.49446],[1.68634,42.49061],[1.67424,42.49051],[1.66236,42.49371],[1.65698,42.49764],[1.65037,42.4934],[1.63952,42.46643],[1.60748,42.45643],[1.54443,42.45036],[1.52821,42.43423],[1.51663,42.4295],[1.50847,42.42868],[1.4479,42.43465],[1.43643,42.44095],[1.43643,42.45348],[1.40759,42.48676],[1.43023,42.49356],[1.44997,42.50407],[1.44656,42.51989],[1.42899,42.53146],[1.40646,42.52924]]]},"source":"Natural Earth Admin 0 Countries, 1:10m, version 5.1.1","sourceUrl":"https://www.naturalearthdata.com/downloads/10m-cultural-vectors/10m-admin-0-countries/"}
