{"type":"Feature","properties":{"isoA2":"AG","name":"Antigua and Barbuda"},"geometry":{"type":"MultiPolygon","coordinates":[[[[-61.89415,17.10053],[-61.88313,17.1105],[-61.86539,17.11782],[-61.84236,17.12442],[-61.85045,17.13764],[-61.84878,17.14948],[-61.83967,17.15986],[-61.82527,17.16877],[-61.79337,17.16494],[-61.78067,17.14716],[-61.77302,17.12653],[-61.75642,17.11416],[-61.75544,17.12303],[-61.75276,17.12889],[-61.74332,17.14151],[-61.73762,17.13296],[-61.72985,17.128],[-61.72008,17.12637],[-61.70861,17.12783],[-61.7163,17.1188],[-61.72053,17.11612],[-61.72964,17.11416],[-61.72509,17.09984],[-61.71483,17.09308],[-61.70165,17.09345],[-61.6881,17.10053],[-61.68065,17.10053],[-61.67211,17.09064],[-61.66759,17.07941],[-61.69494,17.07941],[-61.68566,17.06826],[-61.67707,17.06293],[-61.67219,17.05756],[-61.67443,17.04588],[-61.6857,17.02855],[-61.69701,17.02782],[-61.70995,17.03417],[-61.72623,17.03848],[-61.734,17.03486],[-61.73436,17.02578],[-61.72964,17.00117],[-61.73713,16.98924],[-61.75353,16.99681],[-61.77685,17.01854],[-61.7836,17.01691],[-61.80407,17.00731],[-61.81786,17.00495],[-61.83869,17.00483],[-61.85171,17.00764],[-61.88366,17.02627],[-61.89037,17.03539],[-61.87922,17.06045],[-61.8828,17.07022],[-61.88244,17.0788],[-61.8662,17.08686],[-61.89415,17.10053]]],[[[-61.87385,17.69115],[-61.87304,17.71064],[-61.86937,17.70734],[-61.8662,17.69636],[-61.8601,17.68423],[-61.84423,17.66596],[-61.83894,17.65542],[-61.83922,17.64143],[-61.84317,17.62958],[-61.84317,17.62018],[-61.83145,17.61384],[-61.82649,17.63247],[-61.82502,17.65795],[-61.83121,17.68049],[-61.84919,17.69013],[-61.85643,17.70108],[-61.85167,17.72028],[-61.8378,17.72769],[-61.81786,17.70319],[-61.83145,17.69636],[-61.81823,17.69184],[-61.79727,17.6988],[-61.78429,17.69636],[-61.76818,17.68464],[-61.75426,17.66877],[-61.74328,17.65135],[-61.73591,17.63491],[-61.72875,17.60497],[-61.72777,17.58845],[-61.72964,17.57282],[-61.7364,17.55402],[-61.74328,17.55061],[-61.75357,17.5515],[-61.77066,17.54556],[-61.77697,17.56342],[-61.79475,17.57612],[-61.83894,17.59333],[-61.8518,17.58657],[-61.85729,17.60098],[-61.85936,17.64179],[-61.87385,17.69115]]],[[[-62.34826,16.93366],[-62.34728,16.93738],[-62.34306,16.9409],[-62.34446,16.93253],[-62.34707,16.93197],[-62.34826,16.93366]]]]},"source":"Natural Earth Admin 0 Countries, 1:10m, version 5.1.1","sourceUrl":"https://www.naturalearthdata.com/downloads/10m-cultural-vectors/10m-admin-0-countries/"}
