{"type":"Feature","properties":{"isoA2":"AI","name":"Anguilla"},"geometry":{"type":"MultiPolygon","coordinates":[[[[-63.16784,18.16934],[-63.14208,18.19815],[-63.13435,18.20409],[-63.12279,18.20808],[-63.09724,18.21247],[-63.08585,18.21772],[-63.06778,18.23648],[-63.05508,18.25434],[-63.0382,18.26773],[-62.984,18.27643],[-62.97265,18.27586],[-62.97289,18.26927],[-62.99291,18.23688],[-63.00056,18.22736],[-63.01154,18.22045],[-63.03767,18.21296],[-63.09952,18.17617],[-63.10237,18.18041],[-63.11384,18.18985],[-63.13683,18.17341],[-63.1505,18.16909],[-63.16784,18.16934]]],[[[-63.42797,18.59284],[-63.42882,18.60126],[-63.42357,18.60004],[-63.42797,18.59284]]],[[[-62.96001,18.27768],[-62.9561,18.2825],[-62.9582,18.28942],[-62.95068,18.29213],[-62.94767,18.29725],[-62.93381,18.29454],[-62.92568,18.28972],[-62.94496,18.2837],[-62.94736,18.28039],[-62.9567,18.27436],[-62.96001,18.27768]]],[[[-63.26263,18.28203],[-63.25357,18.28685],[-63.24561,18.28321],[-63.23604,18.28299],[-63.25203,18.27297],[-63.26147,18.27625],[-63.26263,18.28203]]],[[[-63.19221,18.26882],[-63.17949,18.26651],[-63.18701,18.26535],[-63.19221,18.26882]]],[[[-63.17429,18.26458],[-63.16909,18.26535],[-63.16832,18.26188],[-63.1741,18.26207],[-63.17429,18.26458]]]]},"source":"Natural Earth Admin 0 Countries, 1:10m, version 5.1.1","sourceUrl":"https://www.naturalearthdata.com/downloads/10m-cultural-vectors/10m-admin-0-countries/"}
