{"type":"Feature","properties":{"isoA2":"AO","name":"Angola"},"geometry":{"type":"MultiPolygon","coordinates":[[[[12.00961,-5.01963],[12.01807,-5.0086],[12.13082,-4.91293],[12.15717,-4.87055],[12.18755,-4.76803],[12.19221,-4.76348],[12.20409,-4.76348],[12.2135,-4.76917],[12.22259,-4.78064],[12.2352,-4.80399],[12.24409,-4.79635],[12.25856,-4.79077],[12.27375,-4.78715],[12.30765,-4.78364],[12.32191,-4.77816],[12.33235,-4.76586],[12.37411,-4.68318],[12.37886,-4.6623],[12.37762,-4.61941],[12.38703,-4.60545],[12.4141,-4.60886],[12.42909,-4.60752],[12.4972,-4.5853],[12.6081,-4.56504],[12.62381,-4.55926],[12.63487,-4.54768],[12.65657,-4.50737],[12.67052,-4.49135],[12.68685,-4.47833],[12.70494,-4.468],[12.71848,-4.45187],[12.72654,-4.428],[12.73791,-4.40495],[12.76168,-4.3912],[12.77543,-4.39616],[12.80106,-4.41001],[12.8148,-4.41291],[12.83031,-4.4097],[12.8423,-4.40433],[12.85429,-4.40309],[12.86989,-4.41198],[12.88446,-4.43213],[12.90245,-4.48019],[12.92198,-4.50231],[12.96157,-4.53383],[13.02719,-4.61217],[13.0737,-4.63532],[13.06533,-4.66395],[13.02957,-4.67687],[12.8332,-4.72266],[12.80292,-4.73981],[12.78618,-4.75842],[12.77481,-4.7795],[12.7683,-4.80193],[12.76623,-4.82518],[12.75693,-4.83727],[12.71197,-4.86332],[12.69698,-4.87562],[12.6883,-4.89701],[12.68623,-4.91283],[12.6789,-4.9243],[12.6544,-4.93257],[12.61585,-4.93546],[12.60696,-4.94223],[12.60396,-4.96259],[12.58774,-5.00031],[12.55043,-5.02419],[12.4665,-5.05313],[12.45813,-5.05416],[12.45069,-5.05313],[12.44439,-5.05509],[12.43943,-5.06481],[12.43891,-5.07328],[12.44077,-5.08403],[12.4447,-5.09354],[12.45038,-5.09881],[12.51198,-5.12051],[12.52407,-5.12909],[12.53069,-5.16268],[12.50898,-5.72626],[12.34445,-5.72461],[12.25897,-5.7367],[12.2103,-5.76312],[12.16179,-5.68125],[12.14723,-5.61793],[12.17018,-5.55462],[12.18238,-5.54323],[12.20485,-5.53981],[12.2186,-5.53411],[12.22828,-5.5237],[12.23219,-5.51092],[12.23219,-5.47959],[12.22926,-5.46689],[12.21412,-5.43125],[12.19639,-5.3961],[12.17136,-5.32909],[12.17209,-5.30209],[12.13235,-5.23253],[12.12461,-5.18483],[12.06974,-5.11978],[12.02312,-5.04599],[12.02328,-5.03525],[12.06782,-5.04625],[12.07435,-5.05211],[12.08089,-5.07551],[12.10053,-5.08002],[12.11682,-5.06963],[12.12726,-5.05337],[12.12856,-5.03971],[12.13772,-5.0345],[12.13705,-5.015],[12.13248,-5.0059],[12.12333,-5.00265],[12.11289,-5.00201],[12.10505,-5.01307],[12.10309,-5.02738],[12.10374,-5.04884],[12.09786,-5.05404],[12.09067,-5.0508],[12.08611,-5.03064],[12.07959,-5.02023],[12.07175,-5.01763],[12.06653,-5.02674],[12.05673,-5.0274],[12.04496,-5.0209],[12.03056,-5.02287],[12.00961,-5.01963]]],[[[11.73553,-15.85711],[11.7518,-15.79909],[11.76352,-15.78997],[11.78468,-15.77728],[11.80494,-15.76922],[11.81381,-15.775],[11.81837,-15.79241],[11.82985,-15.79778],[11.84425,-15.79355],[11.89471,-15.74668],[11.90333,-15.73138],[11.9065,-15.71795],[11.90748,-15.69004],[11.91017,-15.6762],[11.93051,-15.65244],[11.99203,-15.61728],[12.00514,-15.59433],[12.00847,-15.56536],[12.02849,-15.49017],[12.04037,-15.46331],[12.03004,-15.43694],[12.03346,-15.4074],[12.04664,-15.35068],[12.05641,-15.23309],[12.06178,-15.21787],[12.07057,-15.20468],[12.10499,-15.17278],[12.11248,-15.17099],[12.12778,-15.17897],[12.136,-15.17897],[12.14527,-15.16863],[12.14975,-15.15195],[12.14894,-15.13421],[12.14283,-15.1207],[12.12794,-15.11338],[12.11736,-15.11663],[12.11248,-15.11517],[12.115,-15.09393],[12.12485,-15.06219],[12.15113,-15.00205],[12.1565,-14.96706],[12.16049,-14.95355],[12.1906,-14.92205],[12.19614,-14.90846],[12.20533,-14.85361],[12.20541,-14.84043],[12.20777,-14.83327],[12.21518,-14.82415],[12.22193,-14.82399],[12.22853,-14.82586],[12.23561,-14.82301],[12.24431,-14.80999],[12.25278,-14.78232],[12.27272,-14.75058],[12.27231,-14.73284],[12.26808,-14.71478],[12.26637,-14.69606],[12.26873,-14.68353],[12.27662,-14.66074],[12.29274,-14.5875],[12.299,-14.50758],[12.30388,-14.49407],[12.31967,-14.46868],[12.33131,-14.43353],[12.34213,-14.36712],[12.34539,-14.30299],[12.34213,-14.27044],[12.33155,-14.23675],[12.32423,-14.22064],[12.32106,-14.20273],[12.31422,-14.18222],[12.3156,-14.17498],[12.32358,-14.1775],[12.33221,-14.17343],[12.34425,-14.17132],[12.34889,-14.16855],[12.35304,-14.1609],[12.35581,-14.14235],[12.35515,-14.13372],[12.34718,-14.11989],[12.33497,-14.10638],[12.32879,-14.09222],[12.34474,-14.06683],[12.34978,-14.04551],[12.36988,-14.02191],[12.37452,-14.00758],[12.37729,-13.99245],[12.38307,-13.97731],[12.39991,-13.95159],[12.40284,-13.94134],[12.40414,-13.90634],[12.40724,-13.89056],[12.41554,-13.8786],[12.4393,-13.87127],[12.45053,-13.86248],[12.45818,-13.86387],[12.47836,-13.87802],[12.48569,-13.87713],[12.50245,-13.85524],[12.50896,-13.81959],[12.51629,-13.7151],[12.51271,-13.61679],[12.51588,-13.60491],[12.53012,-13.57871],[12.53387,-13.5652],[12.52361,-13.5512],[12.52215,-13.5442],[12.52654,-13.53623],[12.52703,-13.50449],[12.52459,-13.48935],[12.5149,-13.45762],[12.51271,-13.44207],[12.51531,-13.42596],[12.52215,-13.41058],[12.53297,-13.39902],[12.54721,-13.39463],[12.56804,-13.39235],[12.57545,-13.38592],[12.58082,-13.37526],[12.59474,-13.36045],[12.6111,-13.35198],[12.6242,-13.34922],[12.63445,-13.34336],[12.64243,-13.32562],[12.64324,-13.31634],[12.63624,-13.29461],[12.63844,-13.28802],[12.64772,-13.27809],[12.6565,-13.25563],[12.68507,-13.24082],[12.69158,-13.22943],[12.6941,-13.21836],[12.69996,-13.21787],[12.71209,-13.22259],[12.73178,-13.20892],[12.74977,-13.20135],[12.76149,-13.19297],[12.82716,-13.1098],[12.85572,-13.08953],[12.86598,-13.07871],[12.88315,-13.05202],[12.94483,-12.98235],[12.95867,-12.9555],[12.95883,-12.92913],[12.94947,-12.90211],[12.93483,-12.87379],[12.9275,-12.84206],[12.93946,-12.81666],[12.98569,-12.77012],[13.00961,-12.75652],[13.07504,-12.695],[13.10108,-12.68141],[13.10922,-12.67449],[13.12647,-12.64446],[13.13282,-12.63665],[13.16163,-12.61126],[13.17856,-12.60174],[13.19801,-12.59938],[13.1989,-12.60361],[13.22104,-12.60719],[13.23276,-12.61305],[13.26441,-12.58262],[13.27687,-12.5783],[13.29428,-12.58115],[13.31153,-12.5945],[13.32838,-12.59938],[13.36402,-12.59271],[13.39291,-12.57041],[13.43767,-12.5237],[13.45973,-12.50726],[13.46925,-12.49481],[13.47299,-12.4791],[13.47495,-12.43776],[13.47902,-12.41912],[13.48658,-12.40081],[13.50563,-12.37135],[13.56861,-12.31146],[13.57545,-12.31146],[13.57545,-12.31829],[13.56495,-12.32203],[13.55828,-12.3283],[13.55681,-12.3366],[13.56178,-12.34612],[13.57748,-12.33099],[13.5975,-12.29876],[13.63022,-12.26344],[13.63982,-12.24871],[13.66358,-12.16961],[13.69337,-12.11028],[13.70509,-12.07806],[13.71518,-12.0084],[13.7225,-11.99277],[13.73699,-11.97772],[13.74879,-11.9612],[13.75856,-11.94248],[13.76645,-11.92051],[13.78248,-11.8209],[13.79225,-11.79095],[13.79461,-11.7702],[13.77768,-11.58912],[13.78191,-11.48105],[13.78598,-11.45827],[13.79461,-11.44061],[13.78663,-11.43157],[13.78736,-11.42034],[13.79461,-11.39593],[13.79526,-11.33221],[13.80014,-11.32138],[13.81902,-11.29559],[13.82162,-11.28362],[13.82179,-11.25628],[13.84653,-11.1137],[13.84848,-10.98211],[13.84343,-10.94573],[13.82862,-10.91367],[13.73927,-10.78338],[13.73146,-10.76426],[13.73113,-10.74717],[13.73943,-10.73024],[13.76979,-10.69427],[13.77174,-10.67791],[13.76498,-10.66204],[13.75294,-10.64617],[13.71144,-10.61207],[13.70509,-10.60198],[13.70086,-10.59092],[13.60613,-10.4782],[13.54233,-10.42669],[13.5276,-10.40651],[13.52263,-10.38779],[13.52076,-10.32024],[13.51735,-10.29843],[13.50896,-10.27703],[13.45509,-10.20176],[13.44264,-10.17938],[13.43116,-10.13055],[13.41529,-10.11004],[13.37672,-10.07073],[13.31739,-9.97633],[13.31983,-9.9616],[13.32911,-9.94752],[13.33522,-9.92669],[13.32716,-9.886],[13.30543,-9.84246],[13.27801,-9.80169],[13.19858,-9.70867],[13.19117,-9.69004],[13.19614,-9.67278],[13.2186,-9.64918],[13.22535,-9.63128],[13.22389,-9.61419],[13.21778,-9.59417],[13.20965,-9.57741],[13.20143,-9.57049],[13.2024,-9.55902],[13.16993,-9.4664],[13.16831,-9.44736],[13.17066,-9.40252],[13.16652,-9.38714],[13.14772,-9.35215],[13.1434,-9.33025],[13.12062,-9.31308],[13.04542,-9.18906],[13.01686,-9.12282],[12.99635,-9.09384],[12.99236,-9.03802],[13.03028,-8.95957],[13.08644,-8.89235],[13.13657,-8.87103],[13.11476,-8.90293],[13.04282,-8.9625],[13.00685,-9.04559],[13.00017,-9.07203],[13.01303,-9.08375],[13.02345,-9.07497],[13.0796,-8.98065],[13.08188,-8.97047],[13.08693,-8.95973],[13.09889,-8.95648],[13.12289,-8.9542],[13.13746,-8.94085],[13.14828,-8.90797],[13.16041,-8.88795],[13.18556,-8.86159],[13.19117,-8.85052],[13.19215,-8.83953],[13.1906,-8.8161],[13.19459,-8.80608],[13.22413,-8.77386],[13.24155,-8.76068],[13.25953,-8.75482],[13.20973,-8.80429],[13.19801,-8.82318],[13.21217,-8.81487],[13.24537,-8.80006],[13.26368,-8.78826],[13.27166,-8.78655],[13.27801,-8.78248],[13.28102,-8.76474],[13.28297,-8.75945],[13.28712,-8.75604],[13.2942,-8.75482],[13.35613,-8.7636],[13.38014,-8.75506],[13.39332,-8.70428],[13.40805,-8.66693],[13.4109,-8.65195],[13.4061,-8.63714],[13.37672,-8.59661],[13.36541,-8.56683],[13.35206,-8.49969],[13.34205,-8.46746],[13.35548,-8.46461],[13.365,-8.46592],[13.37257,-8.46445],[13.37989,-8.45379],[13.38258,-8.44402],[13.38356,-8.36875],[13.37892,-8.3471],[13.3694,-8.3235],[13.27687,-8.17889],[13.2649,-8.16969],[13.25082,-8.12444],[13.24244,-8.10719],[13.23455,-8.09596],[13.2225,-8.06959],[13.21551,-8.05918],[13.19801,-8.02158],[13.1893,-7.97576],[13.12289,-7.85735],[12.98631,-7.55066],[12.93928,-7.43597],[12.91147,-7.33511],[12.8839,-7.30575],[12.84996,-7.26592],[12.85519,-7.23128],[12.84986,-7.20505],[12.83326,-7.00579],[12.82342,-6.97519],[12.8213,-6.95916],[12.8152,-6.94695],[12.82748,-6.92913],[12.82993,-6.91888],[12.83277,-6.91578],[12.83351,-6.91229],[12.82879,-6.90456],[12.79957,-6.92327],[12.77963,-6.91473],[12.70688,-6.81422],[12.62042,-6.73482],[12.55063,-6.63264],[12.45818,-6.46575],[12.42195,-6.38099],[12.39558,-6.32445],[12.31915,-6.22014],[12.27945,-6.14771],[12.27506,-6.11477],[12.29029,-6.09661],[12.31265,-6.09054],[12.33365,-6.07844],[12.32701,-6.09381],[12.32478,-6.12235],[12.34687,-6.12011],[12.38221,-6.11017],[12.43296,-6.10898],[12.49693,-6.09459],[12.52777,-6.07483],[12.5498,-6.06712],[12.58064,-6.06269],[12.63282,-6.03436],[12.64552,-6.02898],[12.66982,-6.02971],[12.71609,-6.045],[12.74254,-6.04936],[12.81743,-6.03175],[12.86147,-6.01635],[12.88239,-6.00099],[12.92757,-5.98122],[12.96607,-5.93185],[12.97266,-5.91321],[12.98588,-5.90114],[13.01114,-5.89561],[13.02987,-5.89338],[13.04637,-5.88568],[13.1006,-5.89121],[13.11183,-5.89023],[13.12916,-5.88356],[13.16969,-5.86175],[13.18491,-5.85639],[13.26935,-5.86352],[13.311,-5.87396],[13.34252,-5.8906],[13.35358,-5.88264],[13.37384,-5.86093],[13.38045,-5.85639],[13.49321,-5.85845],[13.52267,-5.86755],[13.53476,-5.86703],[13.55305,-5.85938],[13.56256,-5.85742],[13.64152,-5.86579],[13.94357,-5.84161],[13.98233,-5.85328],[14.00631,-5.86693],[14.02119,-5.87251],[14.14015,-5.86352],[14.16309,-5.8661],[14.22221,-5.88698],[14.24185,-5.88956],[14.43667,-5.89339],[14.48214,-5.88553],[14.54571,-5.90165],[14.57661,-5.90465],[14.70373,-5.8814],[16.31573,-5.85463],[16.34126,-5.8598],[16.35852,-5.87024],[16.37433,-5.88284],[16.39614,-5.89411],[16.41247,-5.8968],[16.42745,-5.89463],[16.45949,-5.88522],[16.47933,-5.88222],[16.49732,-5.88284],[16.51509,-5.88708],[16.55292,-5.90238],[16.59736,-5.9247],[16.59406,-5.93318],[16.58062,-5.94899],[16.58072,-5.9554],[16.59034,-5.96801],[16.5953,-5.97855],[16.59716,-5.98785],[16.60119,-6.05059],[16.60429,-6.06185],[16.61008,-6.06123],[16.61948,-6.05658],[16.62837,-6.05534],[16.63219,-6.06526],[16.61111,-6.08976],[16.63095,-6.09172],[16.64305,-6.10071],[16.6601,-6.12397],[16.67178,-6.13017],[16.68511,-6.1343],[16.69586,-6.14092],[16.70041,-6.15435],[16.71787,-6.17409],[16.72676,-6.18918],[16.72438,-6.20241],[16.71725,-6.21512],[16.71477,-6.23156],[16.71539,-6.30483],[16.72232,-6.33243],[16.72097,-6.34235],[16.71529,-6.34597],[16.70609,-6.34669],[16.69741,-6.34979],[16.69358,-6.35982],[16.69297,-6.39837],[16.70041,-6.41129],[16.70702,-6.41542],[16.71364,-6.41397],[16.71891,-6.41532],[16.72097,-6.42834],[16.71519,-6.44136],[16.70609,-6.45521],[16.70609,-6.46503],[16.7278,-6.46596],[16.72128,-6.48053],[16.7217,-6.4918],[16.728,-6.5011],[16.73834,-6.51061],[16.74733,-6.52198],[16.74681,-6.53159],[16.73451,-6.55236],[16.73079,-6.56983],[16.734,-6.58606],[16.74867,-6.61954],[16.75301,-6.63722],[16.75591,-6.67411],[16.76035,-6.69199],[16.7681,-6.70832],[16.82309,-6.78511],[16.82691,-6.79979],[16.82856,-6.81436],[16.83291,-6.8278],[16.84448,-6.83845],[16.85533,-6.84216],[16.89078,-6.84713],[16.91497,-6.86408],[16.92696,-6.88857],[16.9345,-6.94573],[16.92861,-6.95926],[16.92871,-6.96867],[16.9376,-6.97301],[16.94907,-6.97539],[16.95528,-6.98149],[16.97315,-7.01476],[16.96933,-7.03037],[16.9623,-7.04742],[16.96117,-7.06923],[16.92913,-7.06065],[16.92706,-7.08566],[16.94752,-7.15109],[16.94566,-7.20462],[16.95083,-7.2132],[16.96055,-7.21909],[16.97284,-7.23222],[16.98907,-7.25485],[16.99166,-7.27056],[16.99166,-7.28607],[16.9961,-7.29795],[17.02287,-7.30601],[17.05666,-7.32989],[17.0825,-7.34229],[17.09335,-7.35231],[17.0978,-7.3674],[17.09811,-7.40234],[17.104,-7.41608],[17.11816,-7.42549],[17.12622,-7.41143],[17.13221,-7.40957],[17.14617,-7.41805],[17.16746,-7.42352],[17.17655,-7.42818],[17.18027,-7.43541],[17.1749,-7.44161],[17.15154,-7.45122],[17.14617,-7.46311],[17.14854,-7.47262],[17.17283,-7.49381],[17.18627,-7.51634],[17.20291,-7.56429],[17.21779,-7.586],[17.26657,-7.61039],[17.28642,-7.62517],[17.2827,-7.64398],[17.28745,-7.6602],[17.28652,-7.68366],[17.2889,-7.69948],[17.30378,-7.69245],[17.30595,-7.7001],[17.30812,-7.70185],[17.30378,-7.70671],[17.32042,-7.71364],[17.32063,-7.72242],[17.31422,-7.73183],[17.3106,-7.74082],[17.31598,-7.75363],[17.33406,-7.76965],[17.33789,-7.77865],[17.34243,-7.78402],[17.36548,-7.78733],[17.3754,-7.79229],[17.37695,-7.80169],[17.37613,-7.8141],[17.38098,-7.82319],[17.4,-7.8234],[17.4,-7.83022],[17.3907,-7.83921],[17.39763,-7.84138],[17.41085,-7.84148],[17.42057,-7.84386],[17.42357,-7.85513],[17.42305,-7.86794],[17.42636,-7.87549],[17.44093,-7.87115],[17.4524,-7.88396],[17.44868,-7.89285],[17.43938,-7.90215],[17.43411,-7.9158],[17.43783,-7.92241],[17.44682,-7.92892],[17.46832,-7.93946],[17.46305,-7.9498],[17.46832,-7.95993],[17.48186,-7.94566],[17.49095,-7.9775],[17.49622,-7.98721],[17.50635,-7.99651],[17.52837,-8.00778],[17.53653,-8.01512],[17.54004,-8.03207],[17.52837,-8.06059],[17.53653,-8.07599],[17.54428,-8.08478],[17.6002,-8.09852],[17.62841,-8.09801],[17.71326,-8.06834],[17.74334,-8.07072],[17.77724,-8.08333],[17.78954,-8.08178],[17.85176,-8.04778],[17.86798,-8.04447],[17.90137,-8.04809],[17.93082,-8.06214],[17.98188,-8.10534],[18.00854,-8.11124],[18.09815,-8.10927],[18.09174,-8.08416],[18.09288,-8.05635],[18.10218,-8.03331],[18.12037,-8.02246],[18.13577,-8.01853],[18.1766,-7.9992],[18.19272,-7.99693],[18.31622,-8.00168],[18.35364,-8.01594],[18.36656,-8.01677],[18.38196,-8.01233],[18.40387,-8.00065],[18.42051,-7.99827],[18.50764,-7.99755],[18.50226,-7.96013],[18.50433,-7.9407],[18.51652,-7.93223],[18.73852,-7.93233],[18.74731,-7.93781],[18.75206,-7.96592],[18.75827,-7.97822],[18.77377,-8.00199],[19.35554,-8.00199],[19.33404,-7.92427],[19.33094,-7.89864],[19.33384,-7.86732],[19.37776,-7.73007],[19.38138,-7.70392],[19.38097,-7.67974],[19.37321,-7.65379],[19.36185,-7.62703],[19.35368,-7.60026],[19.35564,-7.57411],[19.42469,-7.57969],[19.44391,-7.57525],[19.45827,-7.56026],[19.46871,-7.52109],[19.48236,-7.50352],[19.51316,-7.47944],[19.51377,-7.44843],[19.48721,-7.38198],[19.47946,-7.34766],[19.47636,-7.31593],[19.48721,-7.15388],[19.49703,-7.12174],[19.50861,-7.10323],[19.5362,-7.06841],[19.54261,-7.05228],[19.54023,-7.04164],[19.52184,-7.00195],[20.2943,-7.00195],[20.29419,-6.98748],[20.29864,-6.95451],[20.30318,-6.94014],[20.31125,-6.92505],[20.31951,-6.91854],[20.33109,-6.91679],[20.61149,-6.91596],[20.52446,-7.14313],[20.51826,-7.18974],[20.52053,-7.28638],[21.76449,-7.28276],[21.78495,-7.28338],[21.78464,-7.28689],[21.78826,-7.29175],[21.80252,-7.29888],[21.80883,-7.30643],[21.83136,-7.35417],[21.84242,-7.36989],[21.83994,-7.37815],[21.83291,-7.39076],[21.8387,-7.40203],[21.85162,-7.4165],[21.8541,-7.4289],[21.85296,-7.435],[21.84666,-7.44905],[21.84893,-7.45484],[21.85864,-7.46404],[21.86092,-7.46983],[21.85906,-7.48264],[21.84996,-7.5029],[21.84666,-7.51427],[21.84593,-7.52677],[21.85151,-7.53845],[21.8541,-7.54838],[21.8541,-7.586],[21.85079,-7.59364],[21.83622,-7.60832],[21.83291,-7.61421],[21.83105,-7.63281],[21.77049,-7.80676],[21.76459,-7.85068],[21.7709,-7.87652],[21.77214,-7.8882],[21.76883,-7.89988],[21.75436,-7.91962],[21.75105,-7.92923],[21.75395,-7.99734],[21.7585,-8.01512],[21.76821,-8.02318],[21.79963,-8.04085],[21.80635,-8.05243],[21.80852,-8.07672],[21.81513,-8.09677],[21.82598,-8.11444],[21.8512,-8.14348],[21.8573,-8.15692],[21.8602,-8.17376],[21.86247,-8.21645],[21.87322,-8.26409],[21.88138,-8.28208],[21.91063,-8.3105],[21.92055,-8.329],[21.90526,-8.33727],[21.89988,-8.34884],[21.91146,-8.37427],[21.93595,-8.41302],[21.94391,-8.45592],[21.93998,-8.49995],[21.91621,-8.57684],[21.92841,-8.58252],[21.93595,-8.58314],[21.91776,-8.61518],[21.90691,-8.64547],[21.88479,-8.7823],[21.87777,-8.78923],[21.87012,-8.8223],[21.85988,-8.84638],[21.85172,-8.92586],[21.8541,-8.97785],[21.83973,-9.09236],[21.85193,-9.19293],[21.85162,-9.23375],[21.84108,-9.27581],[21.81017,-9.33814],[21.80376,-9.37297],[21.79333,-9.39353],[21.79198,-9.40614],[21.79622,-9.4171],[21.81989,-9.44769],[21.83219,-9.48841],[21.84366,-9.57616],[21.8541,-9.61781],[21.8789,-9.65708],[21.94236,-9.72292],[21.95652,-9.76178],[21.98443,-9.74876],[21.98628,-9.78111],[21.99838,-9.80912],[22.05584,-9.87537],[22.06576,-9.88105],[22.07279,-9.87888],[22.07992,-9.87164],[22.09098,-9.87712],[22.10762,-9.89138],[22.14628,-9.91567],[22.15992,-9.93149],[22.16757,-9.95371],[22.17563,-9.98895],[22.19609,-10.04362],[22.20488,-10.08579],[22.20973,-10.09819],[22.20281,-10.13065],[22.2211,-10.17623],[22.2457,-10.22118],[22.26348,-10.26821],[22.28694,-10.30914],[22.29552,-10.33932],[22.31009,-10.35699],[22.3134,-10.36857],[22.30596,-10.4098],[22.3011,-10.42489],[22.27867,-10.46096],[22.27185,-10.48174],[22.27402,-10.50303],[22.29645,-10.52969],[22.30596,-10.55067],[22.30947,-10.59294],[22.30761,-10.63356],[22.31009,-10.66881],[22.32642,-10.69464],[22.31949,-10.70384],[22.32239,-10.74219],[22.31949,-10.76131],[22.30968,-10.76978],[22.29066,-10.77267],[22.26585,-10.77991],[22.224,-10.79707],[22.20601,-10.80988],[22.18276,-10.83045],[22.1655,-10.85236],[22.16571,-10.86879],[22.1748,-10.8843],[22.19609,-10.95416],[22.19609,-10.9923],[22.1993,-10.99736],[22.21397,-11.00791],[22.21718,-11.01276],[22.22059,-11.03002],[22.23733,-11.05938],[22.24384,-11.07829],[22.25552,-11.16655],[22.25201,-11.20862],[22.23764,-11.24954],[22.26306,-11.2482],[22.28177,-11.23673],[22.3257,-11.19032],[22.34027,-11.18019],[22.44031,-11.14691],[22.46936,-11.12242],[22.50098,-11.04243],[22.53757,-11.03716],[22.65095,-11.08232],[22.68898,-11.09296],[22.72774,-11.09679],[22.76422,-11.09048],[22.78531,-11.0785],[22.80691,-11.0631],[22.82923,-11.05214],[22.85311,-11.05307],[22.87357,-11.06372],[22.91119,-11.08831],[22.93114,-11.09679],[22.96958,-11.10247],[23.01434,-11.10247],[23.19675,-11.07188],[23.37328,-10.97514],[23.41545,-10.96326],[23.45596,-10.96098],[23.49482,-10.96429],[23.64158,-11.0045],[23.67487,-11.00698],[23.71414,-11.00388],[23.75228,-11.00822],[23.79372,-11.02113],[23.83372,-11.02847],[23.86741,-11.01638],[23.87413,-11.00687],[23.88178,-10.98455],[23.88777,-10.97442],[23.89728,-10.96646],[23.91857,-10.95406],[23.92798,-10.94538],[23.93614,-10.92522],[23.94058,-10.90156],[23.94865,-10.88151],[23.96746,-10.87231],[23.97428,-10.9214],[23.98058,-10.93835],[24.00001,-10.96781],[24.00373,-10.98248],[23.99733,-11.0017],[23.99371,-11.01958],[23.99453,-11.07498],[23.99009,-11.11353],[23.99577,-11.12738],[24.01531,-11.13048],[24.01118,-11.2729],[24.01696,-11.29843],[24.06109,-11.39496],[24.06171,-11.40695],[24.0521,-11.42049],[24.02079,-11.44457],[24.00993,-11.45945],[24.00756,-11.47051],[24.00725,-11.48312],[24.00983,-11.5072],[24.00973,-11.52343],[24.00539,-11.53521],[23.97769,-11.57728],[23.95991,-11.61717],[23.95464,-11.63691],[23.95464,-11.66223],[23.96229,-11.68156],[23.97273,-11.70058],[23.98131,-11.72476],[23.98554,-11.79949],[23.99019,-11.82408],[23.98854,-11.83421],[23.96704,-11.88289],[23.95433,-12.15192],[23.9596,-12.19667],[23.98131,-12.22768],[24.00663,-12.25372],[24.01686,-12.27894],[24.02099,-12.34002],[24.03081,-12.38508],[24.02802,-12.40214],[24.01986,-12.41919],[23.94079,-12.53277],[23.9287,-12.56161],[23.8917,-12.70506],[23.87227,-12.75013],[23.86565,-12.78971],[23.87475,-12.82175],[23.89511,-12.84976],[23.94958,-12.90464],[23.9718,-12.93337],[23.98885,-12.9651],[24.00063,-13.00148],[21.97988,-13.00148],[21.98153,-15.41255],[21.9806,-16.00124],[21.98153,-16.14428],[21.98381,-16.16589],[22.01037,-16.19813],[22.0452,-16.25229],[22.01171,-16.25229],[22.02236,-16.26635],[22.03217,-16.30634],[22.05202,-16.32681],[22.05419,-16.35864],[22.05584,-16.36463],[22.08912,-16.37197],[22.10555,-16.37941],[22.10359,-16.39192],[22.09429,-16.40473],[22.08602,-16.4223],[22.08075,-16.44101],[22.07992,-16.45775],[22.08457,-16.47016],[22.10173,-16.49796],[22.10731,-16.51232],[22.10659,-16.52597],[22.104,-16.53672],[22.10814,-16.54395],[22.12726,-16.54643],[22.13811,-16.55263],[22.14245,-16.5671],[22.14514,-16.58405],[22.15165,-16.59769],[22.23774,-16.66549],[22.25128,-16.67004],[22.25903,-16.66921],[22.28374,-16.66136],[22.29076,-16.6564],[22.30699,-16.66921],[22.33365,-16.67366],[22.34347,-16.68317],[22.35009,-16.69629],[22.37799,-16.73484],[22.38357,-16.73753],[22.39959,-16.74042],[22.4089,-16.7458],[22.41665,-16.75448],[22.4891,-16.86538],[22.49974,-16.89349],[22.50853,-16.9062],[22.52289,-16.91468],[22.55452,-16.92419],[22.56723,-16.9369],[22.5693,-16.94496],[22.5692,-16.96243],[22.57343,-16.971],[22.57932,-16.97535],[22.59204,-16.97545],[22.65167,-16.9987],[22.66562,-17.00862],[22.71048,-17.05544],[22.73074,-17.08159],[22.74479,-17.10826],[22.75585,-17.15487],[22.76515,-17.16965],[22.77828,-17.1804],[22.80939,-17.19642],[22.84918,-17.23104],[22.87615,-17.24809],[22.93651,-17.27331],[22.98416,-17.28582],[22.99863,-17.29378],[23.04038,-17.33708],[23.04638,-17.34845],[23.05413,-17.37532],[23.07304,-17.40509],[23.09764,-17.43217],[23.12151,-17.45087],[23.16575,-17.46741],[23.17619,-17.47816],[23.17908,-17.49418],[23.17691,-17.50978],[23.17753,-17.52405],[23.18973,-17.53655],[23.20699,-17.5412],[23.25835,-17.53283],[23.2908,-17.53541],[23.30538,-17.53955],[23.32016,-17.54637],[23.34062,-17.56074],[23.35943,-17.58285],[23.38227,-17.60104],[23.37514,-17.61541],[23.37597,-17.62823],[23.38165,-17.64114],[22.48145,-17.81137],[21.40555,-18.00929],[21.38684,-18.01446],[21.38115,-18.0126],[21.36482,-17.99203],[21.33506,-17.97797],[21.27811,-17.95854],[21.23274,-17.93446],[21.21662,-17.93064],[21.17579,-17.93322],[21.16132,-17.93064],[21.14313,-17.93374],[21.12608,-17.94107],[21.10944,-17.945],[21.09311,-17.93808],[20.90832,-17.98614],[20.89447,-18.0126],[20.8616,-18.0188],[20.83194,-18.02934],[20.8062,-18.0314],[20.7846,-18.0126],[20.75442,-17.99792],[20.73747,-17.99347],[20.72993,-18.00236],[20.72249,-18.0065],[20.70616,-18.00381],[20.68962,-17.99699],[20.68218,-17.98862],[20.66626,-17.98025],[20.63009,-17.97694],[20.59071,-17.9788],[20.56549,-17.98521],[20.55288,-17.97911],[20.52395,-17.95854],[20.48953,-17.94211],[20.4795,-17.93436],[20.46007,-17.91369],[20.43754,-17.89446],[20.41264,-17.88413],[20.3868,-17.89033],[20.34773,-17.85891],[20.33615,-17.85488],[20.30277,-17.86077],[20.28892,-17.8616],[20.27817,-17.85488],[20.24345,-17.88278],[20.21988,-17.87338],[20.19311,-17.87214],[20.16924,-17.87813],[20.15456,-17.89033],[20.14712,-17.88278],[20.13296,-17.88878],[20.11994,-17.89074],[20.09255,-17.89033],[20.03426,-17.89591],[20.02454,-17.89457],[19.98951,-17.88278],[19.95199,-17.86232],[19.79396,-17.86232],[19.78766,-17.86645],[19.77598,-17.88506],[19.77102,-17.89033],[19.75521,-17.88909],[19.73206,-17.88206],[19.71128,-17.87297],[19.70219,-17.86573],[19.69319,-17.84775],[19.67263,-17.84268],[19.64979,-17.84496],[19.59284,-17.85725],[19.42127,-17.85943],[19.26242,-17.81395],[19.24661,-17.80403],[19.20186,-17.80713],[19.17209,-17.80124],[19.16082,-17.80093],[19.13933,-17.80527],[19.10512,-17.81819],[19.02058,-17.82232],[18.89004,-17.79927],[18.80085,-17.75659],[18.76199,-17.7477],[18.74824,-17.73633],[18.72829,-17.71091],[18.67093,-17.65313],[18.66132,-17.64672],[18.64282,-17.63804],[18.63331,-17.62895],[18.62794,-17.61985],[18.61967,-17.59484],[18.56748,-17.55329],[18.55414,-17.54637],[18.55094,-17.53531],[18.51663,-17.47134],[18.49275,-17.46451],[18.48986,-17.46245],[18.4881,-17.45211],[18.47167,-17.41428],[18.45865,-17.40529],[18.45358,-17.38989],[14.20743,-17.38803],[14.2065,-17.3931],[14.1971,-17.41294],[14.17498,-17.41625],[14.13074,-17.40922],[14.10821,-17.42049],[14.09726,-17.42359],[14.08537,-17.42359],[14.06915,-17.41863],[14.04744,-17.41604],[14.02915,-17.41046],[14.01788,-17.40922],[14.00889,-17.41149],[13.99297,-17.42131],[13.98057,-17.42359],[13.95732,-17.41914],[13.94275,-17.40819],[13.89686,-17.34907],[13.88435,-17.33853],[13.69413,-17.23662],[13.60649,-17.16737],[13.52132,-17.1219],[13.53094,-17.09327],[13.52225,-17.07694],[13.50779,-17.0635],[13.49466,-17.02402],[13.47978,-17.01028],[13.4589,-17.0018],[13.43513,-16.99901],[13.41725,-16.99374],[13.382,-16.97038],[13.36371,-16.96418],[13.32154,-16.97493],[13.31524,-16.97442],[13.30842,-16.97018],[13.29302,-16.97379],[13.26749,-16.98537],[13.26749,-16.97793],[13.25715,-16.98165],[13.22284,-16.97793],[13.21209,-16.97276],[13.20548,-16.96305],[13.19814,-16.95736],[13.18491,-16.96418],[13.16631,-16.95106],[13.1445,-16.9524],[13.12176,-16.95984],[13.01427,-16.97793],[12.96167,-17.00738],[12.93046,-17.01421],[12.91103,-17.02351],[12.88715,-17.02981],[12.88229,-17.03953],[12.88054,-17.05079],[12.8764,-17.05978],[12.86772,-17.06557],[12.8423,-17.07405],[12.8331,-17.0818],[12.81832,-17.10485],[12.78431,-17.11508],[12.73987,-17.13554],[12.70473,-17.16427],[12.68592,-17.17358],[12.66071,-17.17709],[12.63621,-17.18515],[12.59146,-17.22256],[12.56717,-17.23455],[12.55456,-17.23559],[12.51922,-17.22784],[12.46051,-17.22308],[12.4417,-17.21698],[12.41793,-17.20344],[12.40759,-17.20406],[12.39395,-17.21471],[12.37948,-17.22039],[12.31468,-17.21812],[12.24264,-17.22484],[12.23934,-17.2207],[12.23179,-17.2019],[12.21174,-17.19518],[12.20047,-17.18929],[12.18507,-17.17709],[12.18115,-17.16924],[12.17712,-17.15477],[12.17071,-17.14918],[12.16151,-17.14629],[12.15128,-17.15363],[12.13991,-17.15601],[12.1056,-17.14608],[12.09526,-17.13968],[12.08813,-17.13916],[12.07521,-17.14298],[12.02891,-17.14898],[11.98302,-17.1619],[11.94209,-17.1805],[11.89496,-17.21461],[11.85393,-17.23342],[11.83554,-17.24541],[11.82964,-17.25347],[11.82747,-17.26008],[11.82241,-17.26442],[11.80763,-17.26587],[11.79688,-17.2638],[11.77952,-17.25492],[11.76618,-17.25275],[11.76612,-17.24529],[11.75799,-17.23919],[11.75278,-17.22918],[11.75074,-17.21689],[11.75864,-17.16522],[11.75929,-17.03297],[11.77211,-16.94703],[11.78001,-16.86947],[11.76814,-16.79852],[11.76814,-16.76825],[11.78592,-16.76352],[11.79087,-16.80608],[11.80371,-16.82403],[11.82047,-16.78147],[11.81764,-16.70469],[11.82309,-16.67897],[11.81381,-16.58392],[11.82195,-16.4791],[11.77914,-16.09987],[11.7798,-16.08026],[11.78452,-16.06406],[11.80698,-16.01881],[11.78436,-15.97263],[11.73662,-15.9002],[11.73553,-15.85711]]],[[[11.66939,-16.55721],[11.67137,-16.52974],[11.68124,-16.51744],[11.70198,-16.50039],[11.71975,-16.50608],[11.72153,-16.55543],[11.72576,-16.57732],[11.72666,-16.65663],[11.73752,-16.69258],[11.73851,-16.70582],[11.71579,-16.68501],[11.70197,-16.65567],[11.66939,-16.55721]]]]},"source":"Natural Earth Admin 0 Countries, 1:10m, version 5.1.1","sourceUrl":"https://www.naturalearthdata.com/downloads/10m-cultural-vectors/10m-admin-0-countries/"}
