{"type":"Feature","properties":{"isoA2":"AW","name":"Aruba"},"geometry":{"type":"Polygon","coordinates":[[[-70.06241,12.54682],[-70.06037,12.55695],[-70.0511,12.57404],[-70.04874,12.58373],[-70.05264,12.6],[-70.05964,12.61424],[-70.06111,12.62539],[-70.04874,12.63215],[-70.00715,12.58552],[-69.93639,12.53172],[-69.92467,12.51923],[-69.91576,12.49702],[-69.8802,12.45356],[-69.87682,12.4274],[-69.88809,12.41767],[-69.9088,12.41779],[-69.93053,12.42597],[-69.94514,12.44037],[-69.92467,12.44037],[-69.92467,12.44721],[-69.95857,12.4632],[-70.02766,12.52294],[-70.04809,12.53116],[-70.05809,12.53718],[-70.06241,12.54682]]]},"source":"Natural Earth Admin 0 Countries, 1:10m, version 5.1.1","sourceUrl":"https://www.naturalearthdata.com/downloads/10m-cultural-vectors/10m-admin-0-countries/"}
