{"type":"Feature","properties":{"isoA2":"BH","name":"Bahrain"},"geometry":{"type":"MultiPolygon","coordinates":[[[[50.4489,26.16161],[50.44955,26.17797],[50.46119,26.22525],[50.46852,26.23688],[50.48146,26.24258],[50.50392,26.24201],[50.51637,26.23969],[50.54542,26.22773],[50.58668,26.2425],[50.59327,26.23859],[50.59742,26.22553],[50.60914,26.20828],[50.60353,26.19766],[50.59409,26.1953],[50.5656,26.19888],[50.55161,26.19424],[50.59474,26.16031],[50.60487,26.17473],[50.6199,26.18547],[50.62634,26.17044],[50.63278,26.14682],[50.64566,26.14575],[50.63551,26.13438],[50.63493,26.11569],[50.61476,26.11115],[50.62062,26.05297],[50.61842,25.96475],[50.60353,25.85456],[50.59449,25.83271],[50.56528,25.78954],[50.5586,25.81977],[50.54721,25.85293],[50.53142,25.88524],[50.5114,25.91303],[50.46778,25.95759],[50.46046,25.9853],[50.47999,26.01887],[50.4909,26.048],[50.4852,26.08564],[50.46998,26.12263],[50.45297,26.14956],[50.4489,26.16161]]],[[[50.38053,26.13931],[50.38268,26.1597],[50.3977,26.17473],[50.40844,26.17151],[50.41917,26.16614],[50.41917,26.14897],[50.42347,26.11999],[50.40522,26.12428],[50.3859,26.12321],[50.38053,26.13931]]],[[[50.5995,26.26275],[50.60165,26.27885],[50.63278,26.28744],[50.65532,26.2767],[50.65639,26.24665],[50.67142,26.22733],[50.6843,26.22196],[50.67894,26.20801],[50.67357,26.20264],[50.65747,26.21123],[50.64781,26.23914],[50.62097,26.2445],[50.61238,26.24128],[50.5995,26.26275]]],[[[50.73761,25.59571],[50.749,25.62103],[50.74836,25.64444],[50.7395,25.6533],[50.7414,25.67419],[50.7452,25.68747],[50.75532,25.70203],[50.77431,25.72165],[50.78254,25.72038],[50.80089,25.73114],[50.80089,25.72481],[50.79836,25.71595],[50.78317,25.69697],[50.79583,25.68494],[50.79203,25.67988],[50.78001,25.68241],[50.76229,25.66786],[50.76672,25.65457],[50.77431,25.64507],[50.77621,25.63875],[50.76925,25.63621],[50.76545,25.62989],[50.76418,25.62166],[50.76988,25.61786],[50.77431,25.61217],[50.76798,25.60647],[50.75722,25.58875],[50.75975,25.58242],[50.75659,25.57989],[50.7452,25.58495],[50.73761,25.59571]]],[[[50.77558,25.75266],[50.78317,25.75582],[50.79013,25.75519],[50.7914,25.74886],[50.78064,25.74506],[50.77558,25.75266]]],[[[50.80216,25.67482],[50.80469,25.67925],[50.81988,25.67861],[50.81671,25.66912],[50.80848,25.66406],[50.80216,25.67482]]],[[[50.78507,25.64824],[50.78697,25.65267],[50.81165,25.6495],[50.81671,25.64444],[50.81544,25.63685],[50.81165,25.63178],[50.80279,25.63432],[50.79076,25.63052],[50.78633,25.63875],[50.78823,25.64381],[50.78507,25.64824]]]]},"source":"Natural Earth Admin 0 Countries, 1:10m, version 5.1.1","sourceUrl":"https://www.naturalearthdata.com/downloads/10m-cultural-vectors/10m-admin-0-countries/"}
