{"type":"Feature","properties":{"isoA2":"BL","name":"Saint Barthélemy"},"geometry":{"type":"Polygon","coordinates":[[[-62.86734,17.9204],[-62.86612,17.92914],[-62.85741,17.92504],[-62.79166,17.91547],[-62.79894,17.90449],[-62.81013,17.89228],[-62.82384,17.88325],[-62.83886,17.88199],[-62.85094,17.89045],[-62.86132,17.90542],[-62.86734,17.9204]]]},"source":"Natural Earth Admin 0 Countries, 1:10m, version 5.1.1","sourceUrl":"https://www.naturalearthdata.com/downloads/10m-cultural-vectors/10m-admin-0-countries/"}
