{"type":"Feature","properties":{"isoA2":"BT","name":"Bhutan"},"geometry":{"type":"Polygon","coordinates":[[[88.73007,27.15095],[88.73844,27.17979],[88.75436,27.2126],[88.77585,27.24087],[88.80117,27.25643],[88.86143,27.27038],[88.88463,27.28635],[88.89233,27.31554],[88.91516,27.33087],[88.95081,27.32823],[88.97193,27.31238],[88.99702,27.33087],[88.98117,27.35463],[88.96401,27.39292],[88.95106,27.43314],[88.95755,27.45694],[88.9662,27.47803],[88.98297,27.49263],[88.97521,27.50684],[88.97295,27.51766],[88.97837,27.53028],[88.99279,27.5375],[89.00497,27.54967],[89.00271,27.56049],[89.01624,27.57582],[89.03337,27.57898],[89.03968,27.5943],[89.05095,27.60828],[89.06403,27.61595],[89.09153,27.62587],[89.10957,27.62226],[89.12466,27.61485],[89.12736,27.62729],[89.15602,27.66569],[89.1982,27.73058],[89.21659,27.77114],[89.22492,27.80781],[89.25872,27.82755],[89.29949,27.84425],[89.33603,27.86907],[89.37013,27.90936],[89.42098,27.99473],[89.44455,28.03118],[89.45881,28.0478],[89.47534,28.06134],[89.49534,28.068],[89.51503,28.0819],[89.56149,28.13464],[89.57942,28.14464],[89.59782,28.14981],[89.71781,28.16908],[89.75584,28.18438],[89.77362,28.21278],[89.78086,28.22877],[89.79605,28.24019],[89.82974,28.25915],[89.86292,28.29579],[89.87362,28.3006],[89.88131,28.29753],[89.91613,28.3156],[89.95252,28.30825],[89.97159,28.31804],[89.99045,28.32062],[90.07086,28.34523],[90.12354,28.33535],[90.15316,28.32219],[90.17621,28.32548],[90.19925,28.34852],[90.22559,28.3584],[90.2618,28.33535],[90.2618,28.29914],[90.29147,28.26135],[90.3295,28.2558],[90.35398,28.29914],[90.3869,28.29914],[90.41653,28.28268],[90.45604,28.28268],[90.50542,28.24976],[90.54822,28.24647],[90.58773,28.2333],[90.5976,28.20038],[90.56797,28.1905],[90.54822,28.15758],[90.5153,28.15429],[90.48567,28.12466],[90.47523,28.07234],[90.49259,28.07441],[90.51006,28.0741],[90.57528,28.06583],[90.5974,28.07059],[90.62189,28.07296],[90.65103,28.087],[90.66747,28.09033],[90.6839,28.08707],[90.7269,28.0617],[90.7887,28.04749],[90.85092,28.04403],[90.90952,28.03266],[90.96058,27.99473],[90.97515,27.98209],[91.00884,27.96677],[91.05194,27.96279],[91.09256,27.97168],[91.11964,27.99488],[91.1338,28.01411],[91.17586,28.05749],[91.19467,28.07059],[91.22061,28.07488],[91.24614,28.07147],[91.26971,28.07286],[91.29017,28.09141],[91.3096,28.0564],[91.34143,28.03056],[91.41884,27.99473],[91.44644,27.98635],[91.46091,27.98437],[91.4975,27.98408],[91.53749,27.96935],[91.57863,27.9647],[91.60064,27.95928],[91.62172,27.95072],[91.63795,27.93974],[91.65283,27.91675],[91.64891,27.89721],[91.63712,27.87724],[91.62834,27.85269],[91.56436,27.85137],[91.56602,27.82107],[91.60534,27.81066],[91.63577,27.78252],[91.63496,27.74657],[91.62669,27.71642],[91.57987,27.65798],[91.57325,27.61971],[91.59506,27.54638],[91.60447,27.53214],[91.63289,27.51166],[91.64167,27.49496],[91.65738,27.47915],[91.68022,27.47285],[91.70492,27.46876],[91.72709,27.45994],[91.77956,27.45648],[91.85658,27.46624],[91.90059,27.45973],[91.96331,27.46892],[91.97509,27.47243],[92.0236,27.44678],[92.08485,27.30423],[92.08878,27.29234],[92.08185,27.27513],[92.05064,27.25141],[92.03679,27.23648],[92.03317,27.22743],[92.02707,27.19984],[92.02149,27.19183],[92.00299,27.17261],[91.99586,27.15803],[91.9908,27.14077],[91.9879,27.12227],[91.9877,27.10403],[91.99989,27.07153],[92.04971,27.02683],[92.06697,26.99494],[92.08392,26.93732],[92.07276,26.88777],[92.03586,26.85485],[91.97509,26.84663],[91.95741,26.85428],[91.92569,26.87867],[91.90822,26.88518],[91.89313,26.88136],[91.89551,26.86828],[91.89551,26.8535],[91.87401,26.84431],[91.8859,26.83087],[91.88693,26.81444],[91.87866,26.80302],[91.86305,26.80477],[91.85241,26.81852],[91.84951,26.83475],[91.84393,26.84937],[91.82512,26.85846],[91.79525,26.8535],[91.73159,26.81619],[91.70213,26.80348],[91.65376,26.79795],[91.63795,26.79898],[91.59372,26.81077],[91.57563,26.81015],[91.53935,26.79883],[91.52065,26.79759],[91.50742,26.80803],[91.48447,26.85273],[91.47507,26.86555],[91.4606,26.86937],[91.42019,26.87154],[91.40634,26.86952],[91.38846,26.85846],[91.37812,26.84281],[91.37006,26.82467],[91.35838,26.80617],[91.34557,26.7947],[91.33006,26.7855],[91.31322,26.77868],[91.29658,26.77459],[91.27601,26.77408],[91.26195,26.77904],[91.2325,26.79516],[91.19818,26.80234],[91.12708,26.8009],[91.09194,26.80477],[91.06207,26.80457],[91.0074,26.78214],[90.71708,26.76705],[90.58778,26.78007],[90.47523,26.83242],[90.38263,26.8918],[90.34883,26.89665],[90.32857,26.89066],[90.31421,26.88038],[90.30088,26.86828],[90.28444,26.85707],[90.26599,26.85159],[90.22915,26.85288],[90.21091,26.85149],[90.17742,26.83206],[90.1522,26.77175],[90.12719,26.75139],[90.08916,26.74173],[89.97526,26.73186],[89.91211,26.71672],[89.89041,26.71486],[89.85077,26.72318],[89.83904,26.73124],[89.83496,26.73155],[89.82974,26.72762],[89.82524,26.70767],[89.82209,26.70101],[89.81729,26.6962],[89.80008,26.70049],[89.76029,26.70018],[89.73874,26.70328],[89.68515,26.72457],[89.66324,26.7255],[89.62831,26.71253],[89.60981,26.71222],[89.59751,26.72095],[89.61347,26.74855],[89.61136,26.76596],[89.58609,26.78405],[89.5465,26.79754],[89.50542,26.80369],[89.44289,26.79702],[89.40734,26.8134],[89.34166,26.85433],[89.30016,26.84441],[89.2736,26.84389],[89.25262,26.82679],[89.24084,26.81976],[89.21283,26.81304],[89.18461,26.81056],[89.12808,26.81346],[89.0965,26.82141],[89.08245,26.83604],[89.07434,26.8564],[89.06069,26.88146],[89.04488,26.89712],[89.02157,26.91267],[88.99661,26.92275],[88.97532,26.92172],[88.96582,26.91546],[88.95455,26.91262],[88.94277,26.91371],[88.93233,26.91924],[88.9253,26.92937],[88.92695,26.94942],[88.92447,26.96166],[88.90664,26.98109],[88.88644,26.97897],[88.86711,26.96425],[88.85171,26.94544],[88.84561,26.99484],[88.84561,27.04957],[88.84081,27.07525],[88.82763,27.09788],[88.80526,27.11302],[88.74257,27.14274],[88.73007,27.15095]]]},"source":"Natural Earth Admin 0 Countries, 1:10m, version 5.1.1","sourceUrl":"https://www.naturalearthdata.com/downloads/10m-cultural-vectors/10m-admin-0-countries/"}
