{"type":"Feature","properties":{"isoA2":"BW","name":"Botswana"},"geometry":{"type":"Polygon","coordinates":[[[19.97835,-22.00067],[20.97198,-22.00067],[20.9848,-21.96398],[20.97508,-19.00096],[20.97508,-18.31935],[21.47572,-18.2995],[22.98137,-18.02004],[23.25494,-17.9974],[23.29277,-17.99895],[23.31148,-18.0098],[23.31272,-18.02996],[23.31592,-18.03709],[23.3306,-18.03998],[23.3338,-18.04329],[23.33256,-18.06706],[23.3338,-18.07399],[23.34806,-18.09445],[23.35954,-18.11915],[23.38971,-18.15326],[23.39581,-18.16339],[23.39447,-18.18623],[23.39581,-18.19139],[23.41028,-18.19739],[23.41886,-18.19842],[23.4294,-18.1885],[23.44428,-18.2007],[23.46413,-18.2255],[23.47777,-18.23088],[23.49131,-18.23315],[23.50154,-18.23749],[23.51126,-18.26033],[23.5217,-18.26819],[23.52728,-18.2777],[23.5188,-18.29371],[23.55146,-18.32751],[23.56076,-18.34849],[23.5466,-18.36947],[23.55549,-18.38312],[23.5713,-18.42601],[23.57916,-18.46786],[23.59218,-18.4782],[23.60986,-18.47768],[23.64541,-18.466],[23.65647,-18.45825],[23.68014,-18.43148],[23.70091,-18.42797],[23.71579,-18.41908],[23.80984,-18.32172],[23.82555,-18.31707],[23.83723,-18.30581],[23.85522,-18.28007],[23.86751,-18.26943],[23.89697,-18.2502],[23.91289,-18.23573],[23.91599,-18.20121],[23.95082,-18.17765],[23.9566,-18.17662],[23.96198,-18.17786],[23.97118,-18.18385],[23.97965,-18.17186],[23.99174,-18.16339],[24.02027,-18.1516],[24.05696,-18.11905],[24.06512,-18.11522],[24.10161,-18.10882],[24.13509,-18.08546],[24.18305,-18.02944],[24.21829,-18.0126],[24.23824,-18.00991],[24.25922,-18.0126],[24.27007,-18.0158],[24.28744,-18.02448],[24.29643,-18.02624],[24.30583,-18.01942],[24.33426,-17.97156],[24.35059,-17.95606],[24.36526,-17.95079],[24.39947,-17.95234],[24.42159,-17.95647],[24.43389,-17.96722],[24.45105,-17.99895],[24.45849,-18.00577],[24.4651,-18.00867],[24.46975,-18.01446],[24.47151,-18.02996],[24.50561,-18.06034],[24.51843,-18.05735],[24.56442,-18.0528],[24.57455,-18.05042],[24.59502,-18.02283],[24.59863,-18.02076],[24.64917,-17.96278],[24.66406,-17.94986],[24.69847,-17.92888],[24.72534,-17.89591],[24.73816,-17.88764],[24.76451,-17.87968],[24.77071,-17.86552],[24.77692,-17.86232],[24.79738,-17.85808],[24.82084,-17.83927],[24.8381,-17.83503],[24.85743,-17.83359],[24.93112,-17.81054],[24.93763,-17.80713],[24.94517,-17.8],[24.94859,-17.79328],[24.95334,-17.78842],[24.96429,-17.78666],[24.95809,-17.80093],[24.96864,-17.80765],[24.97515,-17.81633],[24.98331,-17.82046],[24.99851,-17.81395],[25.00708,-17.82573],[25.01969,-17.82377],[25.04749,-17.80713],[25.057,-17.8277],[25.0879,-17.82677],[25.12087,-17.81354],[25.15395,-17.78181],[25.19415,-17.78232],[25.25978,-17.79411],[25.21937,-17.87979],[25.21937,-17.908],[25.22609,-17.93188],[25.25503,-18.00112],[25.29637,-18.06861],[25.32345,-18.09662],[25.35745,-18.11584],[25.38753,-18.139],[25.40882,-18.176],[25.44085,-18.2532],[25.4732,-18.30343],[25.48116,-18.32338],[25.49052,-18.36555],[25.49558,-18.37888],[25.5085,-18.39913],[25.57444,-18.46569],[25.60844,-18.48771],[25.62208,-18.50114],[25.66952,-18.56605],[25.69825,-18.59023],[25.73691,-18.60873],[25.76192,-18.63033],[25.77339,-18.66558],[25.77949,-18.73875],[25.81525,-18.81399],[25.94072,-18.92127],[25.9678,-19.00096],[25.96439,-19.02163],[25.94806,-19.05873],[25.94486,-19.0792],[25.94858,-19.10328],[25.95653,-19.12209],[25.98113,-19.16177],[26.01141,-19.19981],[26.03436,-19.24373],[26.13027,-19.50108],[26.15549,-19.53715],[26.19445,-19.5602],[26.2391,-19.57147],[26.29264,-19.5725],[26.30349,-19.57725],[26.32106,-19.59203],[26.33098,-19.60495],[26.33346,-19.61301],[26.32633,-19.63389],[26.3191,-19.64629],[26.31248,-19.6496],[26.31217,-19.65136],[26.33233,-19.66242],[26.36271,-19.66758],[26.38524,-19.67906],[26.41284,-19.71957],[26.43185,-19.73652],[26.45025,-19.74334],[26.48973,-19.75192],[26.50885,-19.75926],[26.54926,-19.78406],[26.56632,-19.80081],[26.57479,-19.81951],[26.58192,-19.84215],[26.59557,-19.85558],[26.61407,-19.86344],[26.65944,-19.87574],[26.6738,-19.88339],[26.68476,-19.89455],[26.69861,-19.91253],[26.7139,-19.92741],[26.73096,-19.93589],[26.7508,-19.93961],[26.77447,-19.93981],[26.81188,-19.94643],[26.92505,-20.0009],[26.96107,-20.0072],[26.9943,-20.00679],[27.02665,-20.01009],[27.06014,-20.02756],[27.08649,-20.06053],[27.09734,-20.0689],[27.10964,-20.07324],[27.14189,-20.07335],[27.16292,-20.07655],[27.18375,-20.08234],[27.20178,-20.09298],[27.21491,-20.11045],[27.26601,-20.23416],[27.284,-20.35147],[27.26839,-20.49575],[27.30601,-20.47735],[27.34074,-20.47301],[27.45391,-20.47332],[27.53411,-20.48304],[27.59085,-20.47332],[27.62579,-20.48862],[27.66599,-20.48914],[27.68377,-20.49606],[27.69813,-20.50908],[27.70557,-20.52665],[27.70263,-20.56613],[27.69038,-20.60148],[27.68248,-20.63734],[27.70733,-20.71672],[27.7096,-20.75672],[27.69441,-20.83775],[27.68904,-20.84901],[27.67602,-20.86668],[27.67266,-20.92353],[27.68036,-20.97965],[27.67896,-21.00073],[27.66682,-21.05375],[27.66661,-21.07122],[27.67478,-21.09013],[27.70919,-21.13447],[27.72439,-21.14966],[27.79384,-21.19741],[27.8236,-21.23173],[27.84913,-21.26966],[27.88499,-21.31017],[27.8944,-21.32433],[27.89667,-21.33239],[27.89616,-21.3479],[27.89781,-21.35544],[27.90422,-21.36474],[27.92055,-21.38117],[27.95021,-21.43833],[27.953,-21.44866],[27.94194,-21.46851],[27.93988,-21.47802],[27.95042,-21.48205],[27.95445,-21.48784],[27.94928,-21.50075],[27.95321,-21.51047],[27.95807,-21.5115],[27.9637,-21.51047],[27.97057,-21.5144],[27.99041,-21.55191],[28.00256,-21.56421],[28.01656,-21.57289],[28.03289,-21.57785],[28.09077,-21.58127],[28.1657,-21.59522],[28.28487,-21.59687],[28.32192,-21.60349],[28.36176,-21.6163],[28.4431,-21.65578],[28.4646,-21.66033],[28.48139,-21.65744],[28.49731,-21.65155],[28.5325,-21.64307],[28.54294,-21.63832],[28.554,-21.63656],[28.58593,-21.64441],[28.6157,-21.6471],[28.6297,-21.65134],[28.66841,-21.67997],[28.7142,-21.69351],[28.86085,-21.75738],[28.89103,-21.76492],[28.95191,-21.76833],[28.98085,-21.77484],[28.99873,-21.78601],[29.03872,-21.79789],[29.05526,-21.80999],[29.05764,-21.82921],[29.04544,-21.85257],[29.02891,-21.87665],[29.01795,-21.89814],[29.01382,-21.94042],[29.02157,-21.98279],[29.04053,-22.02093],[29.07076,-22.051],[29.10797,-22.06919],[29.14487,-22.07529],[29.23933,-22.0726],[29.2444,-22.07571],[29.25411,-22.08707],[29.25959,-22.09607],[29.26734,-22.11581],[29.27364,-22.12511],[29.35007,-22.18671],[29.33152,-22.1928],[29.30289,-22.19022],[29.24822,-22.17927],[29.22207,-22.18216],[29.2028,-22.19446],[29.18662,-22.20769],[29.16884,-22.21399],[29.04782,-22.2203],[29.03872,-22.22391],[29.01785,-22.25037],[29.01805,-22.25502],[29.00276,-22.26339],[28.98374,-22.282],[28.96023,-22.31021],[28.96793,-22.38039],[28.96338,-22.39217],[28.95346,-22.40075],[28.93041,-22.44085],[28.91253,-22.45367],[28.86938,-22.44891],[28.84659,-22.44995],[28.83677,-22.46318],[28.83119,-22.4823],[28.81683,-22.49294],[28.79677,-22.49821],[28.77476,-22.50142],[28.73135,-22.51392],[28.65901,-22.55196],[28.62386,-22.56281],[28.5972,-22.5627],[28.57756,-22.56002],[28.55984,-22.56301],[28.5385,-22.58027],[28.52248,-22.58482],[28.45938,-22.56963],[28.37685,-22.575],[28.33856,-22.58461],[28.30182,-22.60384],[28.28683,-22.61583],[28.25055,-22.65562],[28.24068,-22.66089],[28.21634,-22.66316],[28.20549,-22.66595],[28.19619,-22.67164],[28.16467,-22.70864],[28.15971,-22.71815],[28.15774,-22.73107],[28.15971,-22.74326],[28.1627,-22.75101],[28.1625,-22.75897],[28.15495,-22.77199],[28.14586,-22.77974],[28.1256,-22.78553],[28.11744,-22.78946],[28.1132,-22.79535],[28.10772,-22.81065],[28.10369,-22.81675],[28.08881,-22.82264],[28.06576,-22.82884],[28.04716,-22.8369],[28.0454,-22.84775],[28.05398,-22.86915],[28.04974,-22.89137],[28.03744,-22.91142],[28.02183,-22.92661],[28.0083,-22.93477],[27.98938,-22.94377],[27.9684,-22.951],[27.94918,-22.95389],[27.9375,-22.96382],[27.93791,-22.98666],[27.94608,-23.02903],[27.93006,-23.05704],[27.89554,-23.07947],[27.85378,-23.09559],[27.81575,-23.10469],[27.82226,-23.12298],[27.80645,-23.12835],[27.7742,-23.12515],[27.77172,-23.13301],[27.77461,-23.14076],[27.78929,-23.1638],[27.7742,-23.173],[27.75942,-23.21145],[27.75363,-23.22075],[27.73916,-23.22757],[27.72573,-23.22168],[27.69844,-23.19347],[27.65876,-23.22344],[27.64713,-23.22757],[27.61917,-23.21703],[27.60801,-23.21672],[27.59922,-23.24463],[27.58041,-23.26385],[27.57308,-23.29051],[27.56331,-23.2992],[27.56936,-23.32038],[27.56367,-23.34281],[27.54889,-23.36079],[27.52884,-23.37309],[27.50724,-23.37909],[27.46569,-23.38043],[27.45267,-23.38529],[27.44316,-23.39511],[27.435,-23.40658],[27.42518,-23.41268],[27.41112,-23.40575],[27.41846,-23.39128],[27.4105,-23.38932],[27.38373,-23.39955],[27.37133,-23.41702],[27.3612,-23.4225],[27.34999,-23.39149],[27.33557,-23.40245],[27.31201,-23.43707],[27.29557,-23.45175],[27.27811,-23.46363],[27.23971,-23.48141],[27.2025,-23.49205],[27.1915,-23.50384],[27.20566,-23.52306],[27.19563,-23.52709],[27.18664,-23.5273],[27.17868,-23.52358],[27.17145,-23.51562],[27.16897,-23.52161],[27.15718,-23.5367],[27.14912,-23.5275],[27.13765,-23.52337],[27.12742,-23.52502],[27.12308,-23.53298],[27.12742,-23.54528],[27.14117,-23.5583],[27.13672,-23.57019],[27.12442,-23.56316],[27.11336,-23.5643],[27.10375,-23.57174],[27.09579,-23.58383],[27.10251,-23.58383],[27.08411,-23.59603],[27.07833,-23.60202],[27.07522,-23.61122],[27.06153,-23.6044],[27.06313,-23.62424],[27.06944,-23.64171],[27.07006,-23.65607],[27.05476,-23.66641],[27.0376,-23.66569],[27.02985,-23.65473],[27.02427,-23.64253],[27.01383,-23.6385],[27.00417,-23.64584],[26.98655,-23.68698],[26.96717,-23.71871],[26.96205,-23.73741],[26.9666,-23.75519],[26.93813,-23.80289],[26.945,-23.82325],[26.94118,-23.85022],[26.8709,-24.11584],[26.86893,-24.16039],[26.84971,-24.24813],[26.83917,-24.2656],[26.82325,-24.27883],[26.80227,-24.28968],[26.71401,-24.31593],[26.69292,-24.32658],[26.68409,-24.34146],[26.62347,-24.39944],[26.55836,-24.4382],[26.53118,-24.45866],[26.50606,-24.48884],[26.47681,-24.55995],[26.46947,-24.57142],[26.40436,-24.63281],[26.32571,-24.62237],[26.27879,-24.62847],[26.01358,-24.70454],[25.98113,-24.72634],[25.96604,-24.73358],[25.91468,-24.73182],[25.87406,-24.7434],[25.86837,-24.74815],[25.86693,-24.77265],[25.87726,-24.84572],[25.87675,-24.88603],[25.8662,-24.91817],[25.83706,-24.97915],[25.8352,-25.01635],[25.80492,-25.06483],[25.7829,-25.13139],[25.69546,-25.30998],[25.66353,-25.44],[25.60885,-25.55927],[25.58725,-25.61952],[25.45842,-25.71119],[25.38649,-25.74354],[25.17782,-25.76328],[25.13596,-25.75657],[25.09028,-25.74365],[25.05173,-25.73786],[25.01328,-25.74303],[24.96791,-25.76287],[24.90838,-25.80411],[24.88854,-25.81165],[24.8289,-25.82602],[24.79862,-25.82922],[24.73795,-25.81589],[24.66499,-25.82333],[24.62964,-25.8161],[24.57672,-25.78334],[24.45673,-25.74303],[24.43678,-25.7453],[24.41673,-25.75305],[24.38924,-25.75946],[24.33891,-25.75181],[24.29674,-25.72349],[24.2277,-25.64898],[24.18346,-25.62593],[24.13096,-25.62624],[24.02709,-25.65177],[24.0057,-25.65466],[24.00425,-25.64991],[24.00962,-25.64133],[24.00869,-25.63316],[23.98802,-25.61952],[23.97645,-25.61756],[23.92477,-25.62924],[23.90575,-25.61849],[23.89066,-25.59885],[23.8454,-25.56908],[23.80747,-25.52361],[23.79858,-25.51854],[23.77832,-25.51255],[23.76902,-25.50738],[23.7623,-25.49849],[23.75207,-25.47762],[23.74266,-25.46997],[23.68675,-25.45436],[23.67424,-25.44258],[23.6667,-25.43266],[23.56107,-25.35731],[23.53586,-25.34326],[23.50661,-25.33096],[23.49658,-25.32424],[23.48345,-25.31153],[23.46816,-25.29024],[23.45927,-25.28218],[23.4449,-25.27815],[23.43199,-25.28032],[23.39922,-25.29137],[23.38145,-25.29262],[23.36594,-25.28931],[23.32036,-25.27339],[23.26569,-25.26399],[23.21608,-25.26719],[23.16854,-25.28001],[23.0934,-25.31246],[23.08389,-25.31969],[23.0717,-25.326],[23.0655,-25.32083],[23.06115,-25.3107],[23.05454,-25.30254],[23.03067,-25.29944],[23.007,-25.3108],[22.96803,-25.34688],[22.96256,-25.35576],[22.96028,-25.36434],[22.95615,-25.37209],[22.92049,-25.39049],[22.91191,-25.39907],[22.90365,-25.41137],[22.88763,-25.45023],[22.87677,-25.46201],[22.85135,-25.47131],[22.84463,-25.48113],[22.82468,-25.54304],[22.81404,-25.5666],[22.81342,-25.57508],[22.81921,-25.5849],[22.82871,-25.59554],[22.83337,-25.60608],[22.82437,-25.6158],[22.81084,-25.62531],[22.80959,-25.63327],[22.81342,-25.64195],[22.81497,-25.6528],[22.81021,-25.6774],[22.80443,-25.68722],[22.75978,-25.73486],[22.74645,-25.75533],[22.74045,-25.77703],[22.74117,-25.79088],[22.745,-25.79408],[22.75089,-25.79605],[22.75792,-25.80597],[22.76546,-25.82654],[22.75471,-25.84338],[22.73952,-25.85847],[22.71947,-25.87429],[22.70883,-25.89103],[22.72164,-25.90901],[22.72681,-25.92162],[22.72722,-25.94394],[22.72423,-25.96751],[22.71937,-25.98425],[22.71048,-25.99686],[22.70066,-26.00327],[22.67224,-26.01288],[22.66159,-26.02094],[22.66211,-26.02983],[22.66583,-26.03986],[22.665,-26.05143],[22.62325,-26.10931],[22.61116,-26.12057],[22.59152,-26.13318],[22.58025,-26.14652],[22.56382,-26.18114],[22.54511,-26.20739],[22.52796,-26.2137],[22.48259,-26.20481],[22.45086,-26.21008],[22.42884,-26.22651],[22.39505,-26.27188],[22.34285,-26.31736],[22.31877,-26.32883],[22.30316,-26.33358],[22.25728,-26.34092],[22.24828,-26.34692],[22.23774,-26.36676],[22.19743,-26.40407],[22.17832,-26.43993],[22.14617,-26.51921],[22.10814,-26.57192],[22.0577,-26.6176],[21.999,-26.65026],[21.93585,-26.6639],[21.8388,-26.66452],[21.80728,-26.66959],[21.78061,-26.67816],[21.76873,-26.68871],[21.76749,-26.70431],[21.77648,-26.74917],[21.77751,-26.76849],[21.77338,-26.78679],[21.76232,-26.80446],[21.74382,-26.82048],[21.68718,-26.85521],[21.66455,-26.86306],[21.64336,-26.86275],[21.58393,-26.84839],[21.49867,-26.84642],[21.44947,-26.82637],[21.42663,-26.82265],[21.38084,-26.824],[21.29692,-26.84446],[21.28287,-26.84498],[21.25486,-26.84177],[21.24059,-26.84198],[21.15347,-26.86451],[21.12246,-26.86534],[20.99038,-26.83857],[20.95017,-26.81604],[20.9077,-26.80002],[20.85188,-26.80653],[20.82605,-26.81883],[20.77943,-26.84808],[20.71494,-26.87505],[20.69076,-26.89179],[20.68569,-26.88177],[20.67546,-26.85004],[20.66564,-26.83908],[20.65055,-26.82968],[20.63867,-26.81697],[20.62482,-26.78937],[20.61469,-26.7532],[20.60921,-26.7162],[20.6089,-26.68612],[20.63071,-26.61832],[20.63236,-26.59528],[20.62771,-26.58081],[20.61149,-26.55993],[20.60528,-26.54773],[20.60229,-26.5222],[20.60528,-26.49327],[20.6182,-26.43973],[20.62254,-26.42753],[20.6521,-26.40779],[20.66595,-26.39177],[20.69551,-26.34196],[20.75329,-26.27622],[20.77623,-26.24057],[20.79473,-26.20191],[20.83793,-26.14683],[20.84145,-26.13132],[20.80393,-26.07128],[20.80052,-26.05247],[20.80279,-25.98053],[20.79411,-25.89392],[20.76713,-25.83439],[20.76693,-25.83067],[20.75577,-25.81899],[20.74998,-25.81847],[20.72652,-25.82736],[20.72714,-25.81817],[20.73778,-25.79894],[20.7167,-25.73259],[20.70688,-25.71481],[20.69655,-25.70706],[20.67102,-25.69549],[20.66285,-25.68525],[20.66275,-25.67492],[20.67143,-25.65332],[20.67081,-25.64226],[20.66306,-25.63626],[20.65138,-25.63461],[20.64104,-25.6312],[20.63794,-25.62035],[20.64332,-25.61322],[20.66523,-25.60102],[20.67143,-25.5912],[20.66337,-25.56474],[20.61851,-25.52847],[20.62037,-25.50056],[20.62689,-25.48475],[20.65655,-25.4678],[20.64353,-25.45736],[20.63443,-25.45767],[20.61655,-25.46615],[20.60663,-25.46201],[20.6059,-25.45178],[20.61138,-25.43938],[20.612,-25.431],[20.59691,-25.43286],[20.59361,-25.41323],[20.58802,-25.40403],[20.55878,-25.39204],[20.54224,-25.38222],[20.53583,-25.37116],[20.52922,-25.34005],[20.51051,-25.31225],[20.51041,-25.30471],[20.51857,-25.29303],[20.5164,-25.28362],[20.50989,-25.27753],[20.4918,-25.26905],[20.4855,-25.26316],[20.48353,-25.25665],[20.48167,-25.2305],[20.46245,-25.22368],[20.44385,-25.21334],[20.43444,-25.1998],[20.44323,-25.18306],[20.44478,-25.16839],[20.43392,-25.14678],[20.40685,-25.10782],[20.37553,-25.04612],[20.36489,-25.0332],[20.23569,-24.93605],[20.15932,-24.89367],[20.14908,-24.89099],[20.12841,-24.88975],[20.11891,-24.88737],[20.10785,-24.88034],[20.08108,-24.85264],[20.0293,-24.81523],[20.01049,-24.78805],[19.99292,-24.77585],[19.98641,-24.76882],[19.98145,-24.75249],[19.97835,-22.00067]]]},"source":"Natural Earth Admin 0 Countries, 1:10m, version 5.1.1","sourceUrl":"https://www.naturalearthdata.com/downloads/10m-cultural-vectors/10m-admin-0-countries/"}
