{"type":"Feature","properties":{"isoA2":"CG","name":"Republic of the Congo"},"geometry":{"type":"Polygon","coordinates":[[[11.11402,-3.93686],[11.12962,-3.90786],[11.19609,-3.72881],[11.21252,-3.69729],[11.23857,-3.67507],[11.27268,-3.65295],[11.30244,-3.62846],[11.33469,-3.60862],[11.37582,-3.60035],[11.41396,-3.58764],[11.43628,-3.55901],[11.45499,-3.52821],[11.48259,-3.50929],[11.53271,-3.51653],[11.56982,-3.54495],[11.64919,-3.67332],[11.66593,-3.6914],[11.68764,-3.69874],[11.74211,-3.69171],[11.76215,-3.69399],[11.81972,-3.71042],[11.83833,-3.71094],[11.85838,-3.70329],[11.87998,-3.68716],[11.89765,-3.66608],[11.9055,-3.64355],[11.89848,-3.62236],[11.87925,-3.61203],[11.85559,-3.60438],[11.83492,-3.59208],[11.82499,-3.5712],[11.82778,-3.54805],[11.88484,-3.41328],[11.89837,-3.3892],[11.94147,-3.35695],[11.95491,-3.33545],[11.94437,-3.30321],[11.90571,-3.28512],[11.85827,-3.2721],[11.82189,-3.25484],[11.78158,-3.22166],[11.7605,-3.20905],[11.70386,-3.18539],[11.68753,-3.17102],[11.68567,-3.1672],[11.68733,-3.16151],[11.68826,-3.09226],[11.69322,-3.0747],[11.70645,-3.04989],[11.71689,-3.04359],[11.73063,-3.04472],[11.75368,-3.04235],[11.77838,-3.02715],[11.77838,-3.00565],[11.7637,-2.98261],[11.68764,-2.90179],[11.65312,-2.85166],[11.63679,-2.83326],[11.61684,-2.82675],[11.58842,-2.83543],[11.54791,-2.86386],[11.53075,-2.86675],[11.52558,-2.84329],[11.53747,-2.79771],[11.61033,-2.67885],[11.61953,-2.65353],[11.62439,-2.63276],[11.62439,-2.61198],[11.61901,-2.58646],[11.60961,-2.56403],[11.58428,-2.52362],[11.57653,-2.50253],[11.57612,-2.48507],[11.58335,-2.42967],[11.57974,-2.40766],[11.55824,-2.34937],[11.5662,-2.32973],[11.60537,-2.33035],[11.65591,-2.34564],[11.66965,-2.35267],[11.67586,-2.36042],[11.67989,-2.36879],[11.68753,-2.37768],[11.72133,-2.40414],[11.73952,-2.41375],[11.75606,-2.4151],[11.7727,-2.40538],[11.8066,-2.37417],[11.82882,-2.36528],[11.86489,-2.35815],[11.90706,-2.34461],[11.93837,-2.32911],[11.96679,-2.34854],[12.00069,-2.3906],[12.03129,-2.41158],[12.06229,-2.41499],[12.45927,-2.32993],[12.4479,-2.30792],[12.45514,-2.27557],[12.46857,-2.24115],[12.4755,-2.21242],[12.46837,-2.17108],[12.47022,-2.1563],[12.47736,-2.14111],[12.49534,-2.11279],[12.49978,-2.09553],[12.46082,-2.07786],[12.44005,-2.04582],[12.43147,-2.00541],[12.4231,-1.89761],[12.42692,-1.88407],[12.43808,-1.88665],[12.46898,-1.91942],[12.48655,-1.92489],[12.49947,-1.91787],[12.50381,-1.90774],[12.5063,-1.8882],[12.51239,-1.87549],[12.52345,-1.8633],[12.57244,-1.83043],[12.58319,-1.8265],[12.63239,-1.82516],[12.67497,-1.84283],[12.74545,-1.89389],[12.78773,-1.90753],[12.80457,-1.91911],[12.81615,-1.9435],[12.83816,-2.01605],[12.84715,-2.03724],[12.87299,-2.06587],[12.87692,-2.08871],[12.87516,-2.08912],[12.87413,-2.09977],[12.8763,-2.10493],[12.89511,-2.10979],[12.89449,-2.11558],[12.88446,-2.13449],[12.88271,-2.1408],[12.88508,-2.14741],[12.89821,-2.16023],[12.90203,-2.16726],[12.90276,-2.17759],[12.9071,-2.19537],[12.92136,-2.19485],[12.94565,-2.18245],[12.95433,-2.19093],[12.97304,-2.22152],[12.98244,-2.23299],[12.99019,-2.26803],[12.99733,-2.27567],[13.00818,-2.2765],[13.01066,-2.28777],[12.99671,-2.30482],[12.99391,-2.32353],[12.98709,-2.34068],[12.98244,-2.34771],[12.97128,-2.35712],[12.96611,-2.36642],[12.96901,-2.37241],[12.98244,-2.37169],[13.01211,-2.34203],[13.02502,-2.3382],[13.04983,-2.34265],[13.11432,-2.37189],[13.1352,-2.37696],[13.14615,-2.37469],[13.16527,-2.36352],[13.17685,-2.36197],[13.18667,-2.36414],[13.36102,-2.42884],[13.3788,-2.43091],[13.39802,-2.42616],[13.4249,-2.42977],[13.43895,-2.42543],[13.44536,-2.42709],[13.45373,-2.43939],[13.4589,-2.44104],[13.46944,-2.43504],[13.48226,-2.40807],[13.49218,-2.39846],[13.52463,-2.37603],[13.54768,-2.34937],[13.5576,-2.34048],[13.56949,-2.33448],[13.59336,-2.32683],[13.60339,-2.32001],[13.60783,-2.31112],[13.61072,-2.28994],[13.61744,-2.2796],[13.69351,-2.20591],[13.70157,-2.19475],[13.70524,-2.18431],[13.70679,-2.16457],[13.70948,-2.15351],[13.72002,-2.13356],[13.74317,-2.09708],[13.75692,-2.10587],[13.77066,-2.11909],[13.78275,-2.13801],[13.79144,-2.15909],[13.80053,-2.20043],[13.82327,-2.24684],[13.83557,-2.26524],[13.85386,-2.28384],[13.86058,-2.29366],[13.86389,-2.32146],[13.87164,-2.3288],[13.88218,-2.33386],[13.89252,-2.3412],[13.90616,-2.3598],[13.90192,-2.36631],[13.89003,-2.37365],[13.87588,-2.40383],[13.8551,-2.41427],[13.84766,-2.42306],[13.8458,-2.46657],[13.86213,-2.48093],[13.88497,-2.48848],[13.90947,-2.48972],[13.93045,-2.48538],[13.95732,-2.4706],[13.96703,-2.4706],[13.97623,-2.47731],[13.97923,-2.49561],[13.98564,-2.5015],[13.99329,-2.5016],[14.04558,-2.4861],[14.05561,-2.48693],[14.08093,-2.49995],[14.09002,-2.49861],[14.09602,-2.49106],[14.10677,-2.46026],[14.12485,-2.44383],[14.13188,-2.43515],[14.13147,-2.4089],[14.13602,-2.39877],[14.14418,-2.39019],[14.1633,-2.37396],[14.18232,-2.36332],[14.23007,-2.35216],[14.23441,-2.35495],[14.22697,-2.32311],[14.15121,-2.25903],[14.148,-2.22482],[14.16154,-2.21428],[14.19586,-2.20178],[14.20919,-2.1872],[14.2094,-2.17987],[14.20319,-2.16199],[14.20433,-2.15217],[14.20971,-2.14741],[14.22697,-2.14132],[14.23379,-2.13449],[14.23844,-2.12023],[14.24402,-2.06752],[14.25063,-2.04778],[14.25167,-2.03786],[14.24681,-2.02938],[14.23348,-2.01822],[14.23286,-2.01202],[14.23813,-2.00262],[14.23761,-1.99114],[14.24009,-1.98226],[14.25218,-1.96758],[14.37073,-1.92128],[14.39729,-1.90681],[14.40453,-1.89306],[14.39688,-1.84945],[14.3975,-1.84097],[14.4036,-1.81524],[14.4067,-1.73555],[14.4131,-1.71395],[14.4252,-1.70051],[14.44876,-1.68625],[14.44111,-1.67964],[14.42003,-1.67612],[14.40298,-1.67085],[14.39088,-1.63034],[14.37145,-1.61949],[14.36484,-1.61204],[14.37383,-1.60409],[14.39429,-1.59685],[14.41321,-1.58528],[14.41993,-1.57515],[14.42396,-1.56357],[14.43036,-1.55489],[14.46313,-1.54869],[14.46271,-1.5336],[14.45155,-1.51562],[14.43843,-1.50259],[14.45103,-1.47366],[14.45269,-1.44957],[14.45631,-1.44017],[14.46788,-1.42901],[14.48059,-1.42084],[14.48772,-1.40937],[14.48214,-1.3886],[14.447,-1.36534],[14.43233,-1.35015],[14.42633,-1.33103],[14.42912,-1.31997],[14.45155,-1.29816],[14.46075,-1.27801],[14.46478,-1.25558],[14.46581,-1.22437],[14.46416,-1.21538],[14.45641,-1.20246],[14.43533,-1.18168],[14.4283,-1.16949],[14.42799,-1.16091],[14.43357,-1.14365],[14.4344,-1.13507],[14.43098,-1.12339],[14.42034,-1.10179],[14.39181,-1.02335],[14.39202,-1.00898],[14.40256,-0.98769],[14.40752,-0.94449],[14.41279,-0.92154],[14.42819,-0.89695],[14.44587,-0.87752],[14.45713,-0.85612],[14.45289,-0.82574],[14.44618,-0.80031],[14.44597,-0.77571],[14.45155,-0.75122],[14.49217,-0.66337],[14.49899,-0.63092],[14.49,-0.60094],[14.46654,-0.55268],[14.45424,-0.53955],[14.41445,-0.51216],[14.39233,-0.4824],[14.35864,-0.46131],[14.3206,-0.44447],[14.2927,-0.43641],[14.27554,-0.43909],[14.24474,-0.4516],[14.22852,-0.44777],[14.21022,-0.44033],[14.19307,-0.44044],[14.17653,-0.44612],[14.15968,-0.45511],[14.15793,-0.4177],[14.15059,-0.37646],[14.13829,-0.33636],[14.12144,-0.30215],[14.0954,-0.27662],[14.05881,-0.25885],[14.01871,-0.25265],[13.98233,-0.26226],[13.97509,-0.25254],[13.96703,-0.24582],[13.95732,-0.242],[13.92156,-0.23786],[13.91381,-0.24055],[13.90729,-0.2544],[13.90306,-0.25885],[13.88342,-0.26494],[13.87743,-0.2605],[13.83123,-0.20541],[13.83216,-0.17709],[13.8427,-0.15229],[13.90047,-0.0756],[13.91071,-0.06589],[13.92114,-0.05297],[13.92011,-0.04242],[13.91494,-0.03126],[13.91298,-0.01659],[13.91722,-0.00666],[13.93138,0.01163],[13.93293,0.02207],[13.92507,0.03437],[13.9014,0.03685],[13.89489,0.04367],[13.89066,0.11591],[13.8859,0.1403],[13.87619,0.17131],[13.87123,0.19642],[13.87577,0.2203],[13.90978,0.27094],[13.94523,0.35042],[13.96652,0.37305],[14.04041,0.41377],[14.05912,0.43527],[14.06305,0.45594],[14.05685,0.47641],[14.04558,0.49728],[14.07597,0.53945],[14.12547,0.54617],[14.18159,0.53987],[14.23182,0.54255],[14.24526,0.54772],[14.25094,0.55185],[14.25466,0.55712],[14.32877,0.6212],[14.33538,0.6426],[14.33838,0.69391],[14.36732,0.73551],[14.41341,0.77504],[14.44762,0.81623],[14.44101,0.86279],[14.4376,0.87514],[14.44514,0.88326],[14.45703,0.89033],[14.46623,0.89964],[14.46809,0.91323],[14.46044,0.92124],[14.43656,0.93328],[14.41755,0.95059],[14.40081,0.97033],[14.38675,0.99224],[14.37569,1.0156],[14.36008,1.06676],[14.34644,1.08712],[14.29849,1.10924],[14.28288,1.13011],[14.27472,1.15564],[14.27575,1.23109],[14.27306,1.25724],[14.25818,1.31966],[14.25218,1.33082],[14.24143,1.3392],[14.22149,1.34948],[14.21839,1.36056],[14.2065,1.36284],[14.18387,1.38085],[14.14449,1.39162],[14.12444,1.39359],[14.10646,1.38893],[14.0707,1.37511],[14.04951,1.3764],[14.0338,1.38764],[14.01902,1.40214],[14.00083,1.41302],[13.98357,1.41684],[13.79474,1.43444],[13.78059,1.43102],[13.77035,1.40043],[13.75816,1.37651],[13.75485,1.37434],[13.7441,1.37028],[13.72436,1.37795],[13.71754,1.37537],[13.69909,1.36279],[13.68069,1.3594],[13.64225,1.35739],[13.61506,1.33744],[13.5792,1.32349],[13.55636,1.29279],[13.54344,1.28349],[13.50995,1.27729],[13.47978,1.27713],[13.44887,1.28307],[13.41394,1.29553],[13.39875,1.29693],[13.37694,1.29444],[13.35741,1.28907],[13.34934,1.28158],[13.34294,1.26385],[13.32599,1.2593],[13.3078,1.25672],[13.28919,1.23398],[13.2709,1.22602],[13.25023,1.22179],[13.21581,1.22437],[13.19545,1.22111],[13.18491,1.22251],[13.18181,1.23646],[13.1723,1.24287],[13.16031,1.24773],[13.15018,1.25662],[13.1692,1.25858],[13.17664,1.27088],[13.18036,1.28483],[13.18832,1.29145],[13.20238,1.29341],[13.21933,1.2992],[13.23359,1.30881],[13.243,1.32886],[13.24909,1.33238],[13.25126,1.33765],[13.23958,1.35651],[13.23845,1.41963],[13.23948,1.42798],[13.22346,1.438],[13.20548,1.48637],[13.18491,1.49689],[13.19091,1.51107],[13.18966,1.52474],[13.18264,1.53655],[13.17127,1.54526],[13.16445,1.53784],[13.14595,1.56342],[13.12962,1.59246],[13.14677,1.61225],[13.14998,1.63628],[13.14398,1.68181],[13.14781,1.70287],[13.15463,1.72165],[13.15752,1.73915],[13.15018,1.7563],[13.16279,1.76364],[13.17303,1.77695],[13.18067,1.79201],[13.19101,1.82873],[13.19246,1.84475],[13.18832,1.85658],[13.18315,1.86405],[13.17509,1.88211],[13.16217,1.89983],[13.16631,1.90438],[13.17819,1.90779],[13.19173,1.93508],[13.21023,1.95632],[13.2123,1.96642],[13.20661,1.98515],[13.20693,1.99358],[13.22129,2.00083],[13.23948,2.02073],[13.24548,2.0253],[13.28113,2.04497],[13.29136,2.06894],[13.29488,2.10109],[13.29457,2.16106],[14.26696,2.15243],[14.27627,2.15356],[14.32029,2.17067],[14.38365,2.16209],[14.39936,2.15315],[14.41868,2.13527],[14.43295,2.13212],[14.43874,2.13398],[14.4592,2.14654],[14.53806,2.16338],[14.54705,2.16654],[14.55025,2.17517],[14.54798,2.18436],[14.54777,2.19367],[14.56214,2.20881],[14.58787,2.20173],[14.62095,2.16483],[14.64482,2.15419],[14.63635,2.13832],[14.64606,2.13336],[14.672,2.13434],[14.68596,2.12587],[14.7057,2.10553],[14.72048,2.09959],[14.71365,2.12398],[14.72089,2.1276],[14.74786,2.1132],[14.7335,2.10202],[14.7273,2.09959],[14.73712,2.09607],[14.7614,2.09959],[14.76254,2.09253],[14.76161,2.07018],[14.76481,2.06546],[14.82631,2.07225],[14.84119,2.07592],[14.84822,2.0852],[14.85018,2.1098],[14.857,2.11594],[14.87147,2.10166],[14.8846,2.0821],[14.8878,2.07225],[14.90734,2.05889],[14.89659,2.03094],[14.89245,2.00639],[14.93214,2.00334],[14.95385,2.00582],[14.96304,2.01042],[14.971,2.03445],[14.98072,2.03311],[15.02826,1.99531],[15.04366,1.99086],[15.06309,1.99717],[15.07487,1.97936],[15.09162,1.98443],[15.10764,2.00083],[15.11776,2.01701],[15.12386,2.01701],[15.13854,2.01151],[15.15166,2.04099],[15.1836,2.02934],[15.21264,2.03962],[15.23373,2.0313],[15.23869,2.0253],[15.24809,2.00334],[15.28757,1.98779],[15.29543,1.98153],[15.30111,1.97376],[15.30328,1.96642],[15.30018,1.94766],[15.30163,1.94358],[15.30948,1.93508],[15.31434,1.93425],[15.3378,1.92376],[15.33739,1.92146],[15.34917,1.92329],[15.36798,1.93285],[15.38814,1.93955],[15.43919,1.96983],[15.48291,1.97585],[15.52663,1.96781],[15.61179,1.94254],[15.70677,1.93198],[15.71111,1.92738],[15.72155,1.92162],[15.73406,1.91671],[15.75741,1.91298],[15.76465,1.90872],[15.80289,1.85997],[15.8154,1.85343],[15.84206,1.84415],[15.86594,1.82847],[15.87565,1.82377],[15.88237,1.81671],[15.88495,1.80165],[15.88991,1.79328],[15.9018,1.79374],[15.92588,1.80475],[15.92898,1.78896],[15.94376,1.78162],[15.96319,1.77736],[15.98045,1.77059],[15.99079,1.77617],[16.00277,1.77591],[16.01383,1.77131],[16.022,1.7638],[16.02634,1.7523],[16.022,1.73305],[16.022,1.72279],[16.03047,1.7054],[16.06985,1.65455],[16.11481,1.71907],[16.12359,1.7216],[16.14509,1.71432],[16.15584,1.71907],[16.15904,1.7348],[16.13507,1.84532],[16.10137,1.9328],[16.08349,1.96301],[16.07492,1.9706],[16.06871,1.9736],[16.06489,1.97895],[16.06375,2.01587],[16.06644,2.02549],[16.08174,2.04683],[16.08153,2.05564],[16.07812,2.06344],[16.07553,2.07546],[16.07667,2.08592],[16.07967,2.09026],[16.09032,2.09274],[16.09248,2.1069],[16.08556,2.12491],[16.08349,2.13775],[16.08577,2.14917],[16.09776,2.17155],[16.10437,2.19356],[16.12039,2.20333],[16.14065,2.19982],[16.15925,2.18209],[16.19946,2.21217],[16.20772,2.22307],[16.20235,2.23201],[16.19666,2.23645],[16.47913,2.83631],[16.48378,2.8604],[16.47499,2.87838],[16.46053,2.8946],[16.44833,2.91347],[16.44554,2.95765],[16.48419,3.03191],[16.49081,3.06782],[16.48316,3.09015],[16.47272,3.11061],[16.46476,3.1318],[16.46549,3.1565],[16.47706,3.17939],[16.51148,3.22725],[16.51716,3.24869],[16.51778,3.27324],[16.54279,3.33615],[16.55168,3.41977],[16.5677,3.46439],[16.5985,3.50167],[16.63943,3.5286],[16.68635,3.54221],[16.7094,3.54371],[16.72955,3.54221],[16.81192,3.52167],[16.83301,3.52286],[16.85264,3.53281],[16.85461,3.54134],[16.85182,3.5519],[16.85316,3.56009],[16.86784,3.56154],[16.90473,3.55064],[16.93243,3.55392],[16.94225,3.55309],[16.95321,3.54689],[16.96055,3.53844],[16.96861,3.53348],[16.98969,3.53947],[17.00923,3.53813],[17.0176,3.5418],[17.03579,3.55614],[17.05243,3.56397],[17.06142,3.56614],[17.08839,3.56444],[17.10214,3.56661],[17.14276,3.58084],[17.18286,3.5796],[17.19722,3.58172],[17.21397,3.58929],[17.23112,3.60911],[17.24497,3.62061],[17.25944,3.6259],[17.27226,3.62456],[17.2981,3.6159],[17.33437,3.61851],[17.35577,3.63843],[17.37571,3.66345],[17.42749,3.69011],[17.44269,3.70127],[17.45891,3.70828],[17.48186,3.70476],[17.4862,3.70029],[17.49013,3.68714],[17.49498,3.68321],[17.50894,3.68177],[17.55048,3.64815],[17.58676,3.63223],[17.62728,3.62632],[17.70913,3.62642],[17.72608,3.63185],[17.73321,3.63221],[17.73993,3.62916],[17.74965,3.61808],[17.75595,3.61451],[17.76515,3.61435],[17.78448,3.61823],[17.79316,3.61751],[17.80835,3.60859],[17.82117,3.59399],[17.83057,3.57567],[17.83532,3.55583],[17.84215,3.54015],[17.85641,3.5373],[17.87532,3.54273],[17.91356,3.56133],[17.91925,3.5656],[17.95987,3.54108],[17.96948,3.53751],[17.98188,3.5388],[18.01309,3.55397],[18.04709,3.56314],[18.08203,3.56345],[18.11644,3.55201],[18.13401,3.53482],[18.14673,3.4949],[18.15985,3.4803],[18.18156,3.47739],[18.20254,3.48733],[18.22,3.50395],[18.23158,3.52116],[18.2354,3.53092],[18.24254,3.56113],[18.24853,3.5749],[18.25587,3.57722],[18.26486,3.57474],[18.27592,3.57438],[18.3556,3.58146],[18.3616,3.58017],[18.37286,3.57454],[18.37989,3.57438],[18.38371,3.578],[18.38785,3.59167],[18.39229,3.59585],[18.40366,3.59735],[18.42061,3.59637],[18.42971,3.60022],[18.448,3.61802],[18.45906,3.63138],[18.47208,3.63205],[18.49709,3.61146],[18.51342,3.59224],[18.55435,3.52637],[18.57027,3.48961],[18.58246,3.47739],[18.62639,3.47687],[18.63455,3.44922],[18.64241,3.32383],[18.63114,3.17898],[18.62184,3.15666],[18.61967,3.14477],[18.61305,3.12818],[18.59735,3.11464],[18.5621,3.09681],[18.54143,3.08281],[18.52841,3.06478],[18.49534,2.96607],[18.47963,2.94137],[18.4758,2.93119],[18.47177,2.90923],[18.46733,2.89889],[18.44924,2.873],[18.42516,2.82215],[18.42185,2.80882],[18.41834,2.78174],[18.39322,2.71369],[18.31674,2.58434],[18.31375,2.57597],[18.30351,2.57256],[18.24615,2.51892],[18.23303,2.50259],[18.22517,2.48646],[18.21411,2.42766],[18.20781,2.40797],[18.19913,2.38911],[18.18796,2.37092],[18.17401,2.33614],[18.16378,2.32105],[18.14673,2.31593],[18.1427,2.3057],[18.11861,2.27697],[18.11117,2.26529],[18.07242,2.16002],[18.07242,2.14519],[18.07831,2.11481],[18.08079,2.08416],[18.07603,1.98848],[18.08172,1.94242],[18.08151,1.92655],[18.07831,1.90929],[18.06818,1.87622],[18.06611,1.85898],[18.07366,1.57233],[18.07138,1.55146],[18.01226,1.42196],[18.00668,1.4024],[18.00203,1.36578],[17.967,1.25372],[17.96338,1.19145],[17.95625,1.17166],[17.9148,1.102],[17.89248,1.0774],[17.87326,1.03963],[17.86664,1.01663],[17.87822,0.94718],[17.87791,0.86791],[17.90767,0.74047],[17.90757,0.71308],[17.89258,0.63588],[17.8932,0.60766],[17.8993,0.58327],[17.91842,0.53521],[17.9331,0.52705],[17.94364,0.51082],[17.94994,0.4915],[17.95201,0.47434],[17.9455,0.37729],[17.93992,0.36127],[17.85403,0.24107],[17.77538,0.02641],[17.75709,-0.00946],[17.71636,-0.1958],[17.71368,-0.22092],[17.71626,-0.24624],[17.74076,-0.34618],[17.74954,-0.52343],[17.72804,-0.55309],[17.66417,-0.61273],[17.65446,-0.62751],[17.65094,-0.64632],[17.63585,-0.65851],[17.62304,-0.67329],[17.60216,-0.68869],[17.41147,-0.91834],[17.38543,-0.94242],[17.36497,-0.96723],[17.35732,-0.97353],[17.33045,-0.98655],[17.32766,-0.99172],[17.30802,-1.01498],[17.29768,-1.02107],[17.24539,-1.03585],[17.19485,-1.04298],[17.17542,-1.04825],[17.10865,-1.07564],[17.06049,-1.08918],[17.02866,-1.09445],[17.02256,-1.09704],[17.00592,-1.10675],[17.00313,-1.11285],[16.97956,-1.14024],[16.94049,-1.17476],[16.90918,-1.21114],[16.86257,-1.24886],[16.83973,-1.26251],[16.83321,-1.26902],[16.82867,-1.27625],[16.81781,-1.30416],[16.79466,-1.3455],[16.77926,-1.3824],[16.76273,-1.40586],[16.72552,-1.47996],[16.69255,-1.52296],[16.6695,-1.56936],[16.63622,-1.62083],[16.62889,-1.63726],[16.62382,-1.6538],[16.62248,-1.66517],[16.6231,-1.69917],[16.61721,-1.72873],[16.60419,-1.75405],[16.52254,-1.86175],[16.51716,-1.87373],[16.51396,-1.88738],[16.50776,-1.89027],[16.49029,-1.9036],[16.47003,-1.9127],[16.46094,-1.92086],[16.44564,-1.9405],[16.3826,-2.0022],[16.34022,-2.03414],[16.28441,-2.08757],[16.25609,-2.10679],[16.23129,-2.12902],[16.20679,-2.16095],[16.1946,-2.18204],[16.18736,-2.20457],[16.18995,-2.24188],[16.17692,-2.28684],[16.17486,-2.30306],[16.17827,-2.31846],[16.18747,-2.33231],[16.1917,-2.34688],[16.19232,-2.39515],[16.2256,-2.63524],[16.20452,-2.78272],[16.18085,-2.85414],[16.17703,-2.88246],[16.18829,-2.97641],[16.18447,-3.02612],[16.18984,-3.08234],[16.18571,-3.1364],[16.18995,-3.15304],[16.19925,-3.17185],[16.19946,-3.19479],[16.19336,-3.23841],[16.19863,-3.25949],[16.21041,-3.27107],[16.22209,-3.27913],[16.22746,-3.28988],[16.2256,-3.31323],[16.22075,-3.33173],[16.20772,-3.36191],[16.15842,-3.44728],[16.13786,-3.50072],[16.11553,-3.54423],[16.05331,-3.61998],[16.0127,-3.70225],[16.00525,-3.72478],[15.9911,-3.73894],[15.97425,-3.78649],[15.94314,-3.84075],[15.93611,-3.8485],[15.93032,-3.85863],[15.91213,-3.91743],[15.88299,-3.94534],[15.84423,-3.9656],[15.8,-3.97883],[15.71122,-3.99216],[15.56683,-4.03805],[15.54906,-4.04621],[15.53376,-4.05799],[15.52115,-4.0768],[15.49035,-4.1752],[15.48498,-4.18388],[15.46286,-4.20713],[15.45893,-4.21385],[15.42545,-4.23018],[15.38659,-4.24434],[15.27527,-4.30036],[15.25574,-4.31307],[15.22835,-4.32485],[15.20396,-4.33901],[15.18804,-4.37219],[15.09792,-4.49993],[15.07611,-4.52008],[15.02278,-4.54706],[15.01462,-4.55802],[15.00821,-4.57104],[14.93101,-4.6469],[14.84905,-4.78374],[14.8414,-4.80017],[14.83117,-4.81505],[14.81546,-4.82797],[14.76843,-4.84823],[14.70218,-4.88957],[14.67273,-4.89991],[14.63449,-4.90363],[14.62332,-4.89949],[14.59211,-4.88058],[14.57506,-4.87366],[14.56689,-4.86053],[14.56214,-4.85588],[14.53248,-4.85619],[14.51987,-4.84131],[14.50147,-4.84068],[14.48194,-4.84585],[14.47005,-4.85216],[14.44948,-4.87397],[14.43729,-4.88017],[14.4007,-4.88626],[14.39646,-4.85588],[14.41259,-4.77816],[14.39967,-4.74932],[14.39905,-4.73754],[14.40918,-4.71056],[14.41093,-4.70106],[14.4069,-4.67604],[14.39584,-4.66013],[14.38096,-4.64618],[14.36577,-4.62726],[14.3575,-4.58912],[14.34996,-4.5669],[14.35078,-4.55905],[14.35895,-4.54458],[14.37476,-4.53021],[14.41259,-4.5145],[14.42458,-4.50231],[14.43574,-4.4867],[14.45248,-4.468],[14.46654,-4.44805],[14.46974,-4.42934],[14.46323,-4.42262],[14.42861,-4.4004],[14.40907,-4.37756],[14.39274,-4.35276],[14.38603,-4.33829],[14.38572,-4.33291],[14.38913,-4.32754],[14.39347,-4.31317],[14.39533,-4.28971],[14.39285,-4.28175],[14.38706,-4.2771],[14.36856,-4.27845],[14.32546,-4.3018],[14.27999,-4.31276],[14.25962,-4.32692],[14.22221,-4.35978],[14.18469,-4.37746],[14.14635,-4.38986],[14.0584,-4.4005],[14.02109,-4.41539],[13.98987,-4.45797],[13.97179,-4.47161],[13.95494,-4.49187],[13.9445,-4.49807],[13.93458,-4.49848],[13.9044,-4.4898],[13.87629,-4.49166],[13.86709,-4.48929],[13.85614,-4.47967],[13.84208,-4.45342],[13.83288,-4.44123],[13.81045,-4.42665],[13.78999,-4.42459],[13.72653,-4.4467],[13.71496,-4.45301],[13.71103,-4.46448],[13.72178,-4.56101],[13.71816,-4.58034],[13.70261,-4.62075],[13.69909,-4.64266],[13.71247,-4.68566],[13.70586,-4.69434],[13.6901,-4.69113],[13.68193,-4.69537],[13.6778,-4.70633],[13.68059,-4.72472],[13.67532,-4.73175],[13.66653,-4.73268],[13.64369,-4.72627],[13.63398,-4.72565],[13.6131,-4.73919],[13.5914,-4.7794],[13.57073,-4.78591],[13.55863,-4.78043],[13.53889,-4.75997],[13.52618,-4.75428],[13.51471,-4.75594],[13.48226,-4.77485],[13.49239,-4.78353],[13.49642,-4.79211],[13.49352,-4.79965],[13.48226,-4.80555],[13.43079,-4.84337],[13.40319,-4.87686],[13.39265,-4.88533],[13.37136,-4.84172],[13.36412,-4.80689],[13.35875,-4.7948],[13.34934,-4.7856],[13.33456,-4.77754],[13.274,-4.75583],[13.25581,-4.74395],[13.20879,-4.70312],[13.18212,-4.68607],[13.1724,-4.67615],[13.16,-4.64339],[13.14212,-4.61734],[13.13406,-4.60235],[13.11236,-4.57693],[13.08797,-4.57951],[13.07153,-4.60163],[13.0737,-4.63532],[13.02719,-4.61217],[12.96157,-4.53383],[12.92198,-4.50231],[12.90245,-4.48019],[12.88446,-4.43213],[12.86989,-4.41198],[12.85429,-4.40309],[12.8423,-4.40433],[12.83031,-4.4097],[12.8148,-4.41291],[12.80106,-4.41001],[12.77543,-4.39616],[12.76168,-4.3912],[12.73791,-4.40495],[12.72654,-4.428],[12.71848,-4.45187],[12.70494,-4.468],[12.68685,-4.47833],[12.67052,-4.49135],[12.65657,-4.50737],[12.63487,-4.54768],[12.62381,-4.55926],[12.6081,-4.56504],[12.4972,-4.5853],[12.42909,-4.60752],[12.4141,-4.60886],[12.38703,-4.60545],[12.37762,-4.61941],[12.37886,-4.6623],[12.37411,-4.68318],[12.33235,-4.76586],[12.32191,-4.77816],[12.30765,-4.78364],[12.27375,-4.78715],[12.25856,-4.79077],[12.24409,-4.79635],[12.2352,-4.80399],[12.22259,-4.78064],[12.2135,-4.76917],[12.20409,-4.76348],[12.19221,-4.76348],[12.18755,-4.76803],[12.15717,-4.87055],[12.13082,-4.91293],[12.01807,-5.0086],[12.00961,-5.01963],[11.99431,-5.00579],[11.98048,-4.98944],[11.95786,-4.95192],[11.92026,-4.90643],[11.89573,-4.88265],[11.88624,-4.85524],[11.82021,-4.7848],[11.81927,-4.77916],[11.82407,-4.77236],[11.82996,-4.77353],[11.84332,-4.78878],[11.84842,-4.78604],[11.85314,-4.77392],[11.85037,-4.75284],[11.82407,-4.71868],[11.78163,-4.68041],[11.77691,-4.66788],[11.77769,-4.6577],[11.80132,-4.65794],[11.82016,-4.63728],[11.82462,-4.61477],[11.80641,-4.57712],[11.69298,-4.46349],[11.58912,-4.37469],[11.49789,-4.29404],[11.45059,-4.26473],[11.4014,-4.22137],[11.36476,-4.16277],[11.36207,-4.15309],[11.36313,-4.13112],[11.36215,-4.11981],[11.35825,-4.11191],[11.27018,-4.04172],[11.17243,-3.97747],[11.11402,-3.93686]]]},"source":"Natural Earth Admin 0 Countries, 1:10m, version 5.1.1","sourceUrl":"https://www.naturalearthdata.com/downloads/10m-cultural-vectors/10m-admin-0-countries/"}
