{"type":"Feature","properties":{"isoA2":"CV","name":"Cape Verde"},"geometry":{"type":"MultiPolygon","coordinates":[[[[-24.75894,14.83185],[-24.75471,14.84081],[-24.75324,14.84935],[-24.75471,14.85786],[-24.75894,14.86665],[-24.74535,14.86665],[-24.74942,14.88548],[-24.73762,14.89203],[-24.71935,14.89444],[-24.70434,14.90082],[-24.6931,14.89069],[-24.68676,14.87617],[-24.68395,14.85944],[-24.68326,14.84248],[-24.68688,14.82665],[-24.70442,14.81403],[-24.71056,14.80394],[-24.71801,14.80394],[-24.72545,14.81411],[-24.74462,14.82661],[-24.75154,14.83877],[-24.75894,14.83185]]],[[[-24.52623,14.92471],[-24.52062,14.94526],[-24.50674,14.96918],[-24.48892,14.99055],[-24.46459,15.00772],[-24.40343,15.03803],[-24.38557,15.04352],[-24.36486,15.0454],[-24.34325,15.04072],[-24.32921,15.02871],[-24.32014,15.01301],[-24.30724,14.97944],[-24.29577,14.93049],[-24.29654,14.91755],[-24.3015,14.90648],[-24.29328,14.88434],[-24.29284,14.87287],[-24.29955,14.86302],[-24.33446,14.83185],[-24.37654,14.81598],[-24.41503,14.82087],[-24.44909,14.83808],[-24.50658,14.88495],[-24.52038,14.90396],[-24.52623,14.92471]]],[[[-23.79259,15.08576],[-23.78987,15.09382],[-23.77562,15.11823],[-23.77208,15.12735],[-23.77294,15.14045],[-23.78576,15.17451],[-23.77619,15.17723],[-23.77013,15.18399],[-23.76675,15.19375],[-23.76366,15.2163],[-23.75381,15.22809],[-23.75158,15.23347],[-23.75495,15.25031],[-23.76329,15.26976],[-23.7744,15.28563],[-23.78576,15.29181],[-23.75841,15.30488],[-23.77953,15.31167],[-23.75158,15.33275],[-23.74413,15.33275],[-23.74356,15.32514],[-23.73794,15.31167],[-23.71923,15.3229],[-23.70324,15.31346],[-23.69783,15.29633],[-23.71068,15.28437],[-23.69734,15.26602],[-23.68175,15.25483],[-23.64855,15.23721],[-23.65608,15.22972],[-23.63878,15.22626],[-23.63028,15.21918],[-23.6151,15.19501],[-23.58422,15.16242],[-23.56737,15.15209],[-23.55236,15.154],[-23.54499,15.14313],[-23.5393,15.14037],[-23.54076,15.13907],[-23.52725,15.12739],[-23.51138,15.12735],[-23.51138,15.11302],[-23.47045,15.03799],[-23.46068,15.03095],[-23.45189,15.01512],[-23.4431,15.01069],[-23.44783,14.99575],[-23.45466,14.98591],[-23.4779,14.96906],[-23.47045,14.96223],[-23.48021,14.9466],[-23.48632,14.93085],[-23.49401,14.91869],[-23.50829,14.9138],[-23.5393,14.90762],[-23.54735,14.90851],[-23.55582,14.91279],[-23.56322,14.9138],[-23.59642,14.91454],[-23.62413,14.91812],[-23.6765,14.93553],[-23.71508,14.96845],[-23.73054,14.98583],[-23.7307,15.0185],[-23.74206,15.02635],[-23.75829,15.03132],[-23.77208,15.03799],[-23.77953,15.06464],[-23.79011,15.0777],[-23.79259,15.08576]]],[[[-23.25817,15.17451],[-23.25512,15.18684],[-23.2473,15.1992],[-23.24328,15.21133],[-23.25133,15.22289],[-23.23717,15.23102],[-23.23087,15.24396],[-23.23485,15.25483],[-23.25133,15.25642],[-23.24572,15.27106],[-23.22411,15.28669],[-23.20979,15.31167],[-23.21447,15.31354],[-23.21715,15.31916],[-23.20328,15.3249],[-23.18985,15.33275],[-23.18985,15.31916],[-23.17894,15.32795],[-23.17626,15.33275],[-23.16881,15.32534],[-23.17626,15.31916],[-23.16194,15.31257],[-23.13952,15.31778],[-23.1278,15.31167],[-23.1219,15.29914],[-23.12051,15.28335],[-23.12157,15.25642],[-23.11046,15.19941],[-23.11193,15.17194],[-23.1278,15.14663],[-23.15514,15.14037],[-23.15884,15.13556],[-23.16364,15.12373],[-23.16881,15.11986],[-23.18273,15.1186],[-23.19595,15.12206],[-23.21715,15.13353],[-23.24063,15.15005],[-23.25207,15.16181],[-23.25817,15.17451]]],[[[-22.96398,16.05219],[-22.96325,16.07119],[-22.95775,16.08902],[-22.94742,16.10224],[-22.93261,16.10741],[-22.91356,16.12556],[-22.92443,16.21296],[-22.9156,16.24396],[-22.90722,16.23143],[-22.89509,16.22285],[-22.87792,16.21491],[-22.85253,16.20661],[-22.82942,16.20401],[-22.81932,16.21296],[-22.81168,16.22842],[-22.79381,16.23135],[-22.73469,16.21686],[-22.72387,16.21263],[-22.71386,16.20576],[-22.70983,16.19863],[-22.70377,16.17959],[-22.69957,16.17569],[-22.68248,16.16865],[-22.6787,16.15176],[-22.68212,16.11359],[-22.67837,16.11188],[-22.67081,16.10224],[-22.66658,16.09146],[-22.67561,16.08202],[-22.6798,16.06322],[-22.69644,16.05292],[-22.75109,16.01056],[-22.78759,15.9916],[-22.80614,15.98591],[-22.86368,15.98237],[-22.87389,15.98387],[-22.88366,15.98871],[-22.89778,16.00047],[-22.90929,16.00373],[-22.94555,16.01968],[-22.95775,16.03083],[-22.96398,16.05219]]],[[[-24.43065,16.63947],[-24.4226,16.6623],[-24.36148,16.68159],[-24.35424,16.68061],[-24.34057,16.67536],[-24.32868,16.66779],[-24.30516,16.64789],[-24.29284,16.64183],[-24.28238,16.64134],[-24.2268,16.6496],[-24.21711,16.64769],[-24.18057,16.63085],[-24.17247,16.6291],[-24.09,16.62246],[-24.06753,16.61392],[-24.04796,16.59882],[-24.03742,16.593],[-24.03283,16.59683],[-24.03283,16.5624],[-24.0441,16.55988],[-24.11473,16.55927],[-24.19196,16.59248],[-24.23331,16.60212],[-24.27233,16.58723],[-24.28637,16.57075],[-24.31534,16.52041],[-24.3247,16.48265],[-24.3334,16.49494],[-24.34748,16.53197],[-24.36563,16.55561],[-24.36856,16.57953],[-24.37092,16.58714],[-24.37609,16.59178],[-24.40827,16.60017],[-24.42471,16.61713],[-24.43065,16.63947]]],[[[-22.99157,16.78433],[-22.99079,16.81566],[-22.97012,16.83145],[-22.92243,16.8603],[-22.91698,16.85318],[-22.89891,16.83682],[-22.89509,16.82929],[-22.89631,16.82502],[-22.90978,16.80337],[-22.90185,16.79511],[-22.90465,16.73583],[-22.90185,16.71695],[-22.89737,16.71027],[-22.88418,16.69843],[-22.88134,16.69269],[-22.88239,16.68154],[-22.88956,16.6459],[-22.89879,16.63947],[-22.90185,16.63443],[-22.8994,16.62165],[-22.89509,16.61392],[-22.90172,16.6059],[-22.92919,16.59341],[-22.9414,16.66938],[-22.95653,16.69945],[-22.97761,16.68903],[-22.98176,16.70352],[-22.98314,16.72305],[-22.98005,16.74112],[-22.97082,16.75104],[-22.97082,16.75788],[-22.98274,16.76138],[-22.98925,16.77094],[-22.99157,16.78433]]],[[[-25.09415,16.82616],[-25.08975,16.84748],[-25.0782,16.86506],[-25.06359,16.87702],[-25.05012,16.88142],[-25.01879,16.88202],[-25.00597,16.88768],[-25.0122,16.90127],[-24.984,16.91596],[-24.9781,16.923],[-24.97126,16.923],[-24.9652,16.90892],[-24.95519,16.91079],[-24.93773,16.923],[-24.92772,16.91779],[-24.91877,16.90827],[-24.9147,16.89916],[-24.92292,16.89081],[-24.91446,16.88142],[-24.90014,16.87202],[-24.88589,16.86774],[-24.88109,16.86229],[-24.87629,16.84984],[-24.87361,16.83592],[-24.87507,16.82616],[-24.8911,16.81395],[-24.91552,16.80549],[-24.94286,16.80048],[-24.96813,16.7989],[-24.97452,16.7967],[-24.98803,16.78514],[-24.99523,16.78612],[-25.05818,16.80964],[-25.06823,16.81509],[-25.07616,16.82246],[-25.08113,16.83234],[-25.09415,16.82616]]],[[[-25.36042,17.05524],[-25.35558,17.06957],[-25.33092,17.09683],[-25.3168,17.10611],[-25.30215,17.10806],[-25.27978,17.10733],[-25.2696,17.11433],[-25.24535,17.1367],[-25.22631,17.14468],[-25.20271,17.15876],[-25.17956,17.16437],[-25.11864,17.19286],[-25.10261,17.1966],[-25.09105,17.19302],[-25.0795,17.18537],[-25.05394,17.18618],[-25.03954,17.18244],[-25.03018,17.17548],[-25.02627,17.16771],[-25.02587,17.14492],[-25.02058,17.14037],[-24.99706,17.13418],[-24.99177,17.13093],[-24.98868,17.12572],[-24.97497,17.11449],[-24.97126,17.10733],[-24.97301,17.09662],[-24.97899,17.0869],[-25.01513,17.04914],[-25.01968,17.04902],[-25.02391,17.0454],[-25.04271,17.03848],[-25.05557,17.02481],[-25.11587,16.99746],[-25.14342,16.97004],[-25.16295,16.9453],[-25.18786,16.92817],[-25.23131,16.923],[-25.26919,16.923],[-25.28966,16.91718],[-25.29869,16.91738],[-25.31078,16.92609],[-25.31339,16.93846],[-25.31387,17.00495],[-25.32755,17.02822],[-25.33104,17.03095],[-25.3483,17.03412],[-25.35485,17.03848],[-25.36042,17.05524]]],[[[-24.60423,16.62142],[-24.59266,16.62431],[-24.56951,16.61997],[-24.5753,16.60551],[-24.60134,16.60984],[-24.60423,16.62142]]],[[[-24.78797,16.77477],[-24.78797,16.78924],[-24.7735,16.80226],[-24.74891,16.79358],[-24.73588,16.77911],[-24.72576,16.75741],[-24.70695,16.75307],[-24.69538,16.7603],[-24.6838,16.75596],[-24.68525,16.74294],[-24.70261,16.73571],[-24.74022,16.73426],[-24.74891,16.74294],[-24.75469,16.75452],[-24.7735,16.76175],[-24.78797,16.77477]]]]},"source":"Natural Earth Admin 0 Countries, 1:10m, version 5.1.1","sourceUrl":"https://www.naturalearthdata.com/downloads/10m-cultural-vectors/10m-admin-0-countries/"}
