{"type":"Feature","properties":{"isoA2":"DM","name":"Dominica"},"geometry":{"type":"Polygon","coordinates":[[[-61.48892,15.53571],[-61.48888,15.54507],[-61.484,15.55158],[-61.46728,15.56297],[-61.46215,15.57298],[-61.48119,15.57856],[-61.48888,15.57925],[-61.48062,15.59101],[-61.46898,15.63386],[-61.43724,15.63264],[-61.42593,15.62848],[-61.41373,15.61957],[-61.39757,15.59662],[-61.38463,15.58836],[-61.36974,15.59593],[-61.35733,15.59829],[-61.30769,15.57925],[-61.29955,15.5572],[-61.28405,15.5314],[-61.26716,15.5078],[-61.25768,15.4726],[-61.25601,15.43594],[-61.26293,15.4079],[-61.24926,15.40107],[-61.25552,15.36457],[-61.25373,15.32469],[-61.25666,15.28535],[-61.27721,15.25023],[-61.28441,15.24482],[-61.2893,15.2436],[-61.30338,15.24258],[-61.31188,15.24453],[-61.31819,15.24339],[-61.3236,15.23859],[-61.32872,15.22557],[-61.34268,15.21967],[-61.35074,15.20515],[-61.36286,15.20181],[-61.37409,15.20482],[-61.37613,15.21284],[-61.37279,15.23721],[-61.37279,15.2707],[-61.37828,15.28205],[-61.39094,15.29629],[-61.39501,15.33307],[-61.39957,15.35114],[-61.41373,15.38056],[-61.41808,15.40595],[-61.42121,15.41474],[-61.4442,15.43684],[-61.45425,15.46483],[-61.46003,15.47289],[-61.47208,15.48139],[-61.47427,15.49348],[-61.47521,15.51777],[-61.47936,15.52546],[-61.48892,15.53571]]]},"source":"Natural Earth Admin 0 Countries, 1:10m, version 5.1.1","sourceUrl":"https://www.naturalearthdata.com/downloads/10m-cultural-vectors/10m-admin-0-countries/"}
