{"type":"Feature","properties":{"isoA2":"DO","name":"Dominican Republic"},"geometry":{"type":"MultiPolygon","coordinates":[[[[-72.00984,18.59881],[-71.99263,18.61114],[-71.95547,18.61861],[-71.88029,18.6054],[-71.84158,18.61799],[-71.82856,18.63129],[-71.80799,18.66465],[-71.79435,18.67917],[-71.75807,18.70051],[-71.74407,18.71144],[-71.73208,18.73007],[-71.72526,18.74697],[-71.72035,18.76544],[-71.71885,18.78423],[-71.72691,18.82353],[-71.72794,18.86407],[-71.73347,18.88257],[-71.74091,18.89161],[-71.76381,18.91151],[-71.77295,18.92171],[-71.78711,18.95003],[-71.79626,18.95706],[-71.81967,18.95781],[-71.84453,18.94975],[-71.86246,18.94709],[-71.8654,18.96442],[-71.84814,18.97548],[-71.79683,18.98861],[-71.7837,18.99631],[-71.74035,19.04189],[-71.71042,19.08165],[-71.69528,19.09455],[-71.66138,19.11759],[-71.64877,19.13529],[-71.64366,19.15247],[-71.63911,19.21211],[-71.71652,19.24777],[-71.75373,19.28379],[-71.77156,19.30756],[-71.77652,19.3275],[-71.76996,19.33381],[-71.74298,19.34838],[-71.73347,19.35546],[-71.72081,19.38595],[-71.71528,19.39166],[-71.70386,19.41463],[-71.70319,19.45928],[-71.71513,19.53747],[-71.74308,19.60007],[-71.74768,19.62278],[-71.74505,19.6649],[-71.74861,19.6826],[-71.75744,19.71011],[-71.73827,19.70612],[-71.72033,19.69746],[-71.72411,19.71719],[-71.74185,19.7558],[-71.74079,19.77318],[-71.76765,19.77448],[-71.77107,19.78514],[-71.76024,19.80093],[-71.73998,19.82026],[-71.7237,19.82099],[-71.71691,19.82363],[-71.69982,19.8415],[-71.67028,19.852],[-71.6588,19.86197],[-71.66564,19.8745],[-71.66674,19.88569],[-71.66145,19.89362],[-71.64859,19.89672],[-71.62125,19.88931],[-71.61791,19.89143],[-71.61095,19.90082],[-71.60733,19.9029],[-71.50463,19.91035],[-71.4785,19.90689],[-71.45271,19.8981],[-71.35725,19.85126],[-71.32921,19.84589],[-71.3026,19.8557],[-71.28246,19.84178],[-71.26806,19.83552],[-71.22374,19.83405],[-71.21207,19.8371],[-71.20934,19.84479],[-71.20881,19.85497],[-71.20352,19.86538],[-71.19176,19.8697],[-71.18334,19.86042],[-71.17223,19.83405],[-71.15852,19.84349],[-71.15172,19.8557],[-71.16202,19.85944],[-71.1654,19.8688],[-71.14973,19.86302],[-71.13659,19.86371],[-71.10704,19.8688],[-71.09679,19.87621],[-71.07828,19.90912],[-71.06607,19.91657],[-71.05085,19.92023],[-71.01842,19.93549],[-71.00088,19.93769],[-70.98473,19.93374],[-70.96935,19.9252],[-70.96105,19.91267],[-70.96618,19.89672],[-70.94689,19.88931],[-70.93944,19.88931],[-70.94689,19.91035],[-70.89851,19.9029],[-70.88427,19.90428],[-70.85473,19.91083],[-70.84325,19.91035],[-70.83096,19.90253],[-70.78698,19.85285],[-70.78332,19.84333],[-70.78865,19.83405],[-70.75097,19.83381],[-70.73656,19.82709],[-70.69848,19.79682],[-70.66222,19.77936],[-70.62369,19.76655],[-70.57909,19.7602],[-70.51871,19.75975],[-70.51366,19.76264],[-70.50853,19.76936],[-70.49645,19.77725],[-70.48278,19.78388],[-70.47273,19.78685],[-70.43371,19.77521],[-70.33617,19.67764],[-70.31957,19.66645],[-70.30134,19.65766],[-70.28083,19.6518],[-70.23522,19.6472],[-70.19856,19.63467],[-70.13142,19.62214],[-70.11644,19.62238],[-70.10644,19.62592],[-70.09752,19.63321],[-70.06103,19.67011],[-70.0421,19.67845],[-69.98668,19.67764],[-69.95954,19.68012],[-69.94725,19.67866],[-69.93204,19.67015],[-69.89794,19.63597],[-69.8872,19.61274],[-69.88777,19.58735],[-69.90416,19.53237],[-69.88415,19.5244],[-69.87654,19.50666],[-69.87682,19.46101],[-69.87438,19.44115],[-69.86799,19.42528],[-69.80138,19.33088],[-69.76769,19.29975],[-69.73347,19.28657],[-69.71321,19.28974],[-69.67439,19.30386],[-69.65437,19.30703],[-69.60936,19.30878],[-69.58943,19.31281],[-69.56896,19.32071],[-69.53942,19.33942],[-69.52798,19.34178],[-69.51765,19.33967],[-69.49645,19.32978],[-69.48331,19.32758],[-69.4591,19.33332],[-69.4486,19.33438],[-69.43737,19.33295],[-69.43342,19.3299],[-69.42862,19.31924],[-69.4217,19.32111],[-69.41071,19.32758],[-69.35269,19.30512],[-69.3356,19.2934],[-69.32429,19.31509],[-69.3059,19.33112],[-69.26049,19.35488],[-69.23127,19.36335],[-69.22436,19.35179],[-69.23209,19.32795],[-69.24682,19.29963],[-69.22688,19.29267],[-69.20434,19.29279],[-69.18244,19.29816],[-69.1643,19.30703],[-69.15836,19.2851],[-69.17138,19.26789],[-69.18932,19.25227],[-69.19839,19.23505],[-69.20271,19.21695],[-69.21434,19.20063],[-69.2318,19.18867],[-69.25365,19.18354],[-69.33214,19.19721],[-69.41812,19.19099],[-69.43838,19.19648],[-69.47545,19.21402],[-69.60294,19.22899],[-69.6173,19.22525],[-69.62279,19.21186],[-69.62605,19.16429],[-69.63353,19.12368],[-69.63044,19.10847],[-69.60847,19.09345],[-69.55329,19.10147],[-69.53425,19.09479],[-69.51049,19.10204],[-69.46345,19.0847],[-69.43863,19.08735],[-69.45275,19.09691],[-69.46231,19.10029],[-69.47338,19.10163],[-69.47338,19.10847],[-69.41999,19.11115],[-69.40445,19.10847],[-69.38671,19.0961],[-69.37296,19.06537],[-69.35607,19.05321],[-69.33898,19.0489],[-69.3046,19.04487],[-69.17325,19.01113],[-69.15746,19.01219],[-69.13866,19.02228],[-69.14489,19.02961],[-69.15734,19.03669],[-69.15746,19.04637],[-69.13952,19.05121],[-69.12389,19.03779],[-69.10285,19.00536],[-69.08926,18.99787],[-69.06119,18.98819],[-69.05443,18.97748],[-69.04247,18.98676],[-69.01806,18.99746],[-69.00658,19.00536],[-69.01423,19.01341],[-69.01057,19.01537],[-69.00158,19.01561],[-68.99299,19.01846],[-68.97936,19.03286],[-68.97541,19.03315],[-68.93957,19.03132],[-68.91861,19.02729],[-68.89981,19.0209],[-68.88313,19.01219],[-68.88121,19.00943],[-68.88036,19.00202],[-68.87629,18.9986],[-68.85582,18.99177],[-68.81823,18.98493],[-68.79589,18.98412],[-68.78686,18.98102],[-68.76781,18.96947],[-68.74999,18.96808],[-68.73973,18.96442],[-68.62353,18.86188],[-68.5808,18.81257],[-68.5205,18.76887],[-68.47728,18.74022],[-68.45857,18.73102],[-68.4134,18.6896],[-68.35619,18.65656],[-68.3286,18.61652],[-68.33406,18.5773],[-68.42805,18.44123],[-68.44127,18.42902],[-68.44433,18.4195],[-68.44249,18.38475],[-68.44433,18.37482],[-68.45568,18.35786],[-68.47216,18.34984],[-68.49283,18.34748],[-68.51659,18.34748],[-68.5349,18.35334],[-68.57453,18.37816],[-68.58894,18.38227],[-68.60546,18.37173],[-68.60285,18.35566],[-68.59752,18.33661],[-68.60603,18.31708],[-68.61832,18.30146],[-68.62609,18.28335],[-68.64151,18.22517],[-68.64708,18.21483],[-68.65844,18.21092],[-68.74299,18.20453],[-68.76024,18.21035],[-68.76252,18.24697],[-68.78686,18.2954],[-68.82014,18.34248],[-68.8496,18.37482],[-68.88097,18.39549],[-68.92252,18.4123],[-68.96434,18.41795],[-69.01256,18.39911],[-69.08544,18.3959],[-69.10436,18.39911],[-69.14818,18.41324],[-69.16804,18.41633],[-69.18529,18.4217],[-69.21422,18.44514],[-69.23632,18.45051],[-69.25561,18.44668],[-69.27522,18.44033],[-69.29503,18.43903],[-69.31509,18.45051],[-69.33601,18.43207],[-69.46593,18.42255],[-69.50475,18.40892],[-69.52526,18.40843],[-69.57999,18.44449],[-69.60212,18.45572],[-69.61681,18.45734],[-69.62316,18.44798],[-69.62084,18.42548],[-69.62361,18.41633],[-69.63256,18.41352],[-69.6466,18.41356],[-69.6595,18.41592],[-69.66515,18.4195],[-69.68196,18.44676],[-69.68993,18.45409],[-69.69738,18.45637],[-69.85147,18.47248],[-69.88366,18.47102],[-69.89981,18.46646],[-69.93122,18.45197],[-69.9571,18.43529],[-69.99352,18.42255],[-70.01659,18.41136],[-70.03893,18.39248],[-70.05578,18.36726],[-70.06241,18.33723],[-70.0677,18.32909],[-70.09069,18.31753],[-70.09594,18.31025],[-70.10001,18.29922],[-70.13378,18.26927],[-70.15807,18.24262],[-70.17178,18.23143],[-70.17789,18.2342],[-70.20214,18.23355],[-70.22077,18.23054],[-70.23314,18.22394],[-70.2508,18.23432],[-70.2696,18.23811],[-70.39757,18.23762],[-70.41906,18.23115],[-70.46019,18.20893],[-70.48355,18.20409],[-70.55285,18.20425],[-70.56892,18.21035],[-70.5703,18.21894],[-70.5537,18.23151],[-70.54906,18.23762],[-70.55191,18.24844],[-70.56575,18.25821],[-70.57331,18.26801],[-70.59244,18.27985],[-70.59679,18.28913],[-70.59435,18.29906],[-70.58165,18.30707],[-70.5764,18.31395],[-70.57177,18.33405],[-70.57116,18.35517],[-70.57388,18.37368],[-70.57946,18.38565],[-70.60143,18.41185],[-70.61465,18.42084],[-70.63781,18.42939],[-70.65754,18.43378],[-70.68248,18.43561],[-70.70385,18.43012],[-70.71288,18.41267],[-70.70946,18.39175],[-70.71198,18.38337],[-70.74169,18.35541],[-70.74987,18.35041],[-70.76065,18.34748],[-70.77233,18.34789],[-70.79312,18.35407],[-70.80232,18.35493],[-70.81005,18.35204],[-70.82396,18.34268],[-70.83332,18.34064],[-70.84602,18.34219],[-70.86034,18.33072],[-70.87328,18.3063],[-70.89167,18.29971],[-70.91828,18.2696],[-70.93248,18.26154],[-70.95621,18.25873],[-70.96581,18.26215],[-70.9838,18.28913],[-70.99425,18.29662],[-71.00487,18.30101],[-71.04825,18.31],[-71.06835,18.31037],[-71.08397,18.30439],[-71.09236,18.28071],[-71.10123,18.2661],[-71.10334,18.25495],[-71.10143,18.24213],[-71.08992,18.22871],[-71.08283,18.21772],[-71.06652,18.16332],[-71.06127,18.154],[-71.06111,18.14208],[-71.08056,18.11392],[-71.09716,18.07372],[-71.1918,17.9418],[-71.20425,17.91112],[-71.23363,17.89496],[-71.24592,17.88508],[-71.25471,17.87531],[-71.26154,17.86323],[-71.26781,17.84658],[-71.27522,17.84907],[-71.28209,17.85399],[-71.2836,17.84675],[-71.28893,17.84101],[-71.28209,17.84101],[-71.28612,17.83259],[-71.29133,17.82616],[-71.29772,17.82197],[-71.30565,17.8205],[-71.30932,17.81639],[-71.31583,17.79645],[-71.33186,17.77241],[-71.36555,17.67841],[-71.37588,17.66014],[-71.41723,17.6048],[-71.42723,17.60928],[-71.43586,17.61709],[-71.43635,17.62128],[-71.44612,17.62934],[-71.51488,17.73778],[-71.53161,17.75507],[-71.56526,17.76752],[-71.64513,17.75727],[-71.67931,17.76529],[-71.66967,17.77241],[-71.63777,17.80402],[-71.63093,17.8168],[-71.6324,17.83832],[-71.63659,17.85346],[-71.65201,17.88199],[-71.66283,17.89769],[-71.66495,17.90347],[-71.66564,17.91547],[-71.6588,17.95331],[-71.66625,17.97077],[-71.68383,17.99018],[-71.72033,18.01911],[-71.77623,18.03925],[-71.76427,18.06949],[-71.76065,18.0868],[-71.76288,18.11585],[-71.7622,18.13249],[-71.76458,18.14367],[-71.77533,18.17233],[-71.77683,18.18179],[-71.77404,18.20147],[-71.76613,18.22026],[-71.70934,18.31325],[-71.72071,18.32397],[-71.73497,18.33294],[-71.78871,18.35221],[-71.82644,18.37617],[-71.84974,18.40645],[-71.85817,18.41355],[-71.89718,18.42288],[-71.91217,18.43074],[-71.91816,18.44924],[-71.91439,18.46022],[-71.9069,18.4643],[-71.90157,18.46978],[-71.90406,18.48479],[-71.91052,18.49427],[-72.00095,18.58246],[-72.00984,18.59881]]],[[[-71.54137,17.57616],[-71.53222,17.6013],[-71.52107,17.62128],[-71.49258,17.60366],[-71.46711,17.58027],[-71.48253,17.57563],[-71.5074,17.55126],[-71.52448,17.54556],[-71.54117,17.55463],[-71.54137,17.57616]]],[[[-68.78694,18.19668],[-68.77208,18.20087],[-68.75455,18.19766],[-68.73717,18.18952],[-68.72232,18.17927],[-68.71076,18.17536],[-68.66405,18.16934],[-68.61238,18.1708],[-68.59879,18.16621],[-68.58869,18.15339],[-68.5775,18.13373],[-68.57018,18.11571],[-68.57185,18.10786],[-68.58703,18.11107],[-68.61929,18.12515],[-68.6361,18.12836],[-68.65392,18.12629],[-68.68488,18.11689],[-68.70189,18.11469],[-68.73705,18.1236],[-68.76207,18.14517],[-68.77819,18.17202],[-68.78694,18.19668]]]]},"source":"Natural Earth Admin 0 Countries, 1:10m, version 5.1.1","sourceUrl":"https://www.naturalearthdata.com/downloads/10m-cultural-vectors/10m-admin-0-countries/"}
