{"type":"Feature","properties":{"isoA2":"DZ","name":"Algeria"},"geometry":{"type":"Polygon","coordinates":[[[-8.68239,27.28542],[-8.68239,28.6659],[-8.67877,28.69282],[-8.66761,28.71168],[-8.64885,28.72595],[-8.52082,28.78708],[-8.47584,28.81876],[-8.43041,28.84101],[-8.4178,28.85235],[-8.38349,28.90578],[-8.36845,28.91653],[-8.33326,28.93038],[-8.31677,28.93906],[-8.25047,28.99477],[-8.18231,29.03554],[-8.06966,29.07934],[-8.03633,29.09985],[-7.94501,29.17623],[-7.83913,29.23904],[-7.778,29.28932],[-7.72999,29.31116],[-7.71467,29.32183],[-7.65361,29.37619],[-7.61945,29.38942],[-7.57269,29.38761],[-7.5285,29.38095],[-7.50613,29.38022],[-7.48406,29.38245],[-7.46329,29.38914],[-7.34961,29.38344],[-7.25875,29.4673],[-7.14693,29.50924],[-7.07006,29.51623],[-6.95824,29.50924],[-6.78352,29.44634],[-6.69965,29.51623],[-6.55987,29.5302],[-6.41311,29.56515],[-6.27333,29.57913],[-6.00077,29.57913],[-5.88195,29.60009],[-5.75616,29.61407],[-5.72121,29.52322],[-5.63735,29.49526],[-5.5395,29.52322],[-5.43467,29.64203],[-5.34382,29.76782],[-5.27393,29.88663],[-5.17608,29.97749],[-5.07125,30.04039],[-4.95943,30.12426],[-4.87556,30.18017],[-4.77073,30.22909],[-4.62397,30.285],[-4.48419,30.38284],[-4.37237,30.50864],[-4.27452,30.55756],[-4.15571,30.58552],[-4.00196,30.59251],[-3.83423,30.62745],[-3.64553,30.71132],[-3.65951,30.83712],[-3.61058,30.87905],[-3.55467,30.95593],[-3.60874,31.03087],[-3.61009,31.0503],[-3.61453,31.06803],[-3.62414,31.08653],[-3.63587,31.09567],[-3.67194,31.11087],[-3.68972,31.1256],[-3.71711,31.16327],[-3.73142,31.17634],[-3.74886,31.18022],[-3.76372,31.17345],[-3.79297,31.14968],[-3.8108,31.14291],[-3.82746,31.14384],[-3.83932,31.15283],[-3.84284,31.17019],[-3.83617,31.18978],[-3.81498,31.22052],[-3.81291,31.24337],[-3.81922,31.31886],[-3.81519,31.33716],[-3.8025,31.35065],[-3.74747,31.38517],[-3.67348,31.38923],[-3.65951,31.64782],[-3.59138,31.67827],[-3.54874,31.66995],[-3.51156,31.67274],[-3.21921,31.71771],[-3.00256,31.77362],[-2.82784,31.79459],[-2.93873,32.04864],[-2.88119,32.07629],[-2.69557,32.08967],[-2.51615,32.1322],[-1.24956,32.08166],[-1.21033,32.08967],[-1.19059,32.12522],[-1.19561,32.14605],[-1.21183,32.15835],[-1.23271,32.16372],[-1.25183,32.16352],[-1.28899,32.15091],[-1.30516,32.15116],[-1.30955,32.16744],[-1.30568,32.17372],[-1.28299,32.19018],[-1.27664,32.20085],[-1.2755,32.21752],[-1.25751,32.32084],[-1.24413,32.35692],[-1.23416,32.37461],[-1.21798,32.39262],[-1.20171,32.39986],[-1.16026,32.40495],[-1.12316,32.41795],[-1.08998,32.43944],[-1.032,32.4944],[-1.0475,32.51701],[-1.32702,32.69891],[-1.39053,32.71878],[-1.42335,32.7424],[-1.55879,32.93365],[-1.51636,32.95949],[-1.50887,32.96631],[-1.50298,32.97463],[-1.49884,32.98401],[-1.49337,33.01615],[-1.49306,33.03948],[-1.49952,33.06021],[-1.51636,33.07398],[-1.54551,33.09183],[-1.5714,33.11198],[-1.59207,33.13661],[-1.60561,33.16803],[-1.62359,33.1966],[-1.67423,33.23797],[-1.68338,33.27084],[-1.68323,33.36923],[-1.67284,33.3946],[-1.65915,33.41977],[-1.64039,33.47553],[-1.6254,33.49424],[-1.61274,33.52147],[-1.61734,33.55444],[-1.6624,33.64469],[-1.67325,33.6565],[-1.69072,33.66733],[-1.72539,33.67771],[-1.74074,33.6866],[-1.74679,33.70239],[-1.74224,33.71776],[-1.71082,33.74706],[-1.70322,33.76182],[-1.7025,33.77282],[-1.71304,33.80199],[-1.72209,33.85117],[-1.71873,33.89809],[-1.67212,34.05919],[-1.66963,34.07921],[-1.67475,34.10596],[-1.74606,34.29031],[-1.77133,34.3347],[-1.80963,34.37245],[-1.70297,34.47968],[-1.71423,34.48505],[-1.75066,34.49417],[-1.87112,34.59665],[-1.86296,34.6136],[-1.81051,34.68073],[-1.78611,34.72584],[-1.77314,34.73406],[-1.76953,34.74134],[-1.78772,34.75669],[-1.89282,34.81168],[-1.92673,34.83808],[-1.97975,34.86526],[-1.99349,34.87885],[-1.9984,34.8927],[-1.99969,34.90635],[-2.00362,34.91818],[-2.01628,34.92624],[-2.06124,34.9297],[-2.09493,34.94769],[-2.12604,34.97192],[-2.1633,34.99404],[-2.19379,35.0036],[-2.21167,35.02345],[-2.22113,35.04995],[-2.22256,35.0893],[-2.2001,35.09614],[-2.18944,35.093],[-2.18639,35.08869],[-2.15689,35.10098],[-2.12222,35.09467],[-2.08609,35.08198],[-2.05236,35.07502],[-1.9877,35.08246],[-1.95645,35.07502],[-1.94982,35.07713],[-1.93249,35.08869],[-1.83869,35.11091],[-1.81273,35.12653],[-1.80435,35.12812],[-1.77424,35.12735],[-1.76114,35.12962],[-1.7456,35.13882],[-1.7128,35.1706],[-1.64883,35.18842],[-1.63769,35.19452],[-1.62951,35.21223],[-1.51036,35.29548],[-1.49087,35.30097],[-1.3959,35.30939],[-1.36954,35.31586],[-1.35896,35.32221],[-1.33267,35.34935],[-1.31379,35.35375],[-1.29483,35.36457],[-1.27863,35.378],[-1.26773,35.39033],[-1.25918,35.41031],[-1.2473,35.45775],[-1.23705,35.47574],[-1.22541,35.49128],[-1.19034,35.56615],[-1.18334,35.57648],[-1.17154,35.58104],[-1.14802,35.5821],[-1.11701,35.61689],[-1.08275,35.63736],[-1.05207,35.66096],[-1.04039,35.67642],[-1.03295,35.6826],[-0.99669,35.6896],[-0.94628,35.71931],[-0.92268,35.72516],[-0.91023,35.72431],[-0.90469,35.71589],[-0.8994,35.71182],[-0.88756,35.71597],[-0.84948,35.73432],[-0.82502,35.76854],[-0.80167,35.77391],[-0.79353,35.77009],[-0.77717,35.75641],[-0.71129,35.74299],[-0.70132,35.72687],[-0.69245,35.71931],[-0.68261,35.71735],[-0.64452,35.71931],[-0.62645,35.72297],[-0.60611,35.73094],[-0.58935,35.7425],[-0.57726,35.77082],[-0.56505,35.77245],[-0.54092,35.76777],[-0.53043,35.77289],[-0.52343,35.77969],[-0.47704,35.85936],[-0.47606,35.8701],[-0.48034,35.8791],[-0.48082,35.88573],[-0.47948,35.89004],[-0.47379,35.89126],[-0.45905,35.88377],[-0.41804,35.88377],[-0.37613,35.90034],[-0.34854,35.90705],[-0.33617,35.90082],[-0.33145,35.88955],[-0.32071,35.8841],[-0.30919,35.88117],[-0.30191,35.87759],[-0.29849,35.86717],[-0.3046,35.8535],[-0.30191,35.84284],[-0.28555,35.82827],[-0.25943,35.81753],[-0.18806,35.80524],[-0.14509,35.79035],[-0.12389,35.78693],[-0.08308,35.79438],[-0.03848,35.8133],[0.00294,35.83804],[0.03452,35.86327],[0.06996,35.92182],[0.08017,35.94701],[0.11402,36.0102],[0.12241,36.03335],[0.12379,36.04458],[0.12729,36.05077],[0.15398,36.06501],[0.20216,36.10651],[0.21949,36.11652],[0.28346,36.13443],[0.29444,36.14077],[0.29908,36.14741],[0.32106,36.15888],[0.32927,36.16498],[0.33277,36.17381],[0.33758,36.1975],[0.3423,36.20596],[0.36004,36.21385],[0.38445,36.21796],[0.4284,36.21963],[0.45134,36.22321],[0.46827,36.23224],[0.48317,36.2436],[0.55665,36.28408],[0.59457,36.29316],[0.61183,36.30549],[0.62721,36.31924],[0.64405,36.32884],[0.66326,36.33259],[0.75327,36.33861],[0.76873,36.34471],[0.80226,36.36359],[0.86476,36.37739],[0.88054,36.38715],[0.89088,36.39639],[0.91383,36.40913],[0.92514,36.41816],[0.93629,36.44359],[0.94557,36.45234],[0.96258,36.45816],[1.00709,36.46686],[1.04477,36.48688],[1.11695,36.48713],[1.13885,36.49339],[1.17872,36.51089],[1.20265,36.51439],[1.24545,36.51358],[1.26547,36.51533],[1.28826,36.52123],[1.34669,36.54499],[1.36769,36.54792],[1.386,36.54515],[1.42954,36.53221],[1.45281,36.52802],[1.47633,36.52896],[1.51743,36.53872],[1.71656,36.54792],[1.76124,36.56159],[1.79151,36.55549],[1.80291,36.55537],[1.8576,36.56745],[1.91383,36.57022],[1.96046,36.5622],[1.97283,36.56159],[2.05991,36.57014],[2.30983,36.63052],[2.3296,36.63727],[2.35157,36.63833],[2.3733,36.63386],[2.39186,36.62425],[2.3982,36.6153],[2.40016,36.60619],[2.40406,36.59919],[2.44728,36.59056],[2.45704,36.5895],[2.60076,36.59634],[2.63299,36.60513],[2.72755,36.66523],[2.79298,36.69294],[2.8187,36.71088],[2.8436,36.74038],[2.84986,36.75406],[2.87566,36.77481],[2.93312,36.80858],[2.97706,36.81586],[3.01417,36.81171],[3.04786,36.79499],[3.07398,36.77139],[3.10182,36.7519],[3.14015,36.74164],[3.17937,36.74283],[3.21046,36.75739],[3.2212,36.77143],[3.22608,36.7862],[3.22731,36.81232],[3.2378,36.81306],[3.30299,36.78876],[3.3405,36.78071],[3.4607,36.77509],[3.48048,36.77725],[3.51905,36.78661],[3.53981,36.78876],[3.55047,36.79145],[3.57057,36.80858],[3.58041,36.80996],[3.61207,36.80858],[3.64967,36.82396],[3.70948,36.8732],[3.74187,36.89118],[3.82748,36.91291],[3.87387,36.91722],[3.91261,36.91161],[3.94825,36.8933],[3.96404,36.89118],[3.99643,36.89692],[4.03142,36.89777],[4.08546,36.89208],[4.10483,36.88373],[4.14649,36.9018],[4.15952,36.9042],[4.17156,36.90217],[4.19703,36.89326],[4.21046,36.89118],[4.22283,36.89419],[4.24928,36.90786],[4.26197,36.91161],[4.27858,36.91047],[4.306,36.90046],[4.32032,36.89802],[4.44068,36.91161],[4.46811,36.90599],[4.48243,36.90046],[4.50408,36.88931],[4.53639,36.88858],[4.55055,36.88373],[4.58155,36.89492],[4.62289,36.89639],[4.69801,36.89118],[4.76905,36.89802],[4.78712,36.89541],[4.94988,36.83979],[4.96827,36.82567],[4.97364,36.81891],[5.00929,36.81607],[5.01645,36.81098],[5.02914,36.79499],[5.04591,36.78852],[5.0656,36.78352],[5.08619,36.78083],[5.10483,36.78132],[5.08481,36.73261],[5.09018,36.71678],[5.11842,36.69937],[5.23585,36.65095],[5.26905,36.64411],[5.30437,36.64301],[5.37241,36.65095],[5.43385,36.66523],[5.46485,36.66523],[5.46957,36.66771],[5.48911,36.68513],[5.52914,36.69766],[5.549,36.7097],[5.56276,36.746],[5.57618,36.76138],[5.59392,36.77387],[5.61199,36.78132],[5.65594,36.79181],[5.67457,36.79963],[5.71046,36.82551],[5.73374,36.83234],[5.7588,36.8334],[5.82781,36.82176],[5.86883,36.82294],[6.03712,36.85358],[6.19703,36.90233],[6.23569,36.92121],[6.25685,36.94579],[6.25856,36.96678],[6.25473,36.9833],[6.25441,36.99897],[6.26686,37.01777],[6.27442,37.02424],[6.31463,37.04865],[6.33871,37.06928],[6.37159,37.08348],[6.41578,37.09296],[6.46241,37.09394],[6.5027,37.08295],[6.53859,37.06037],[6.5442,37.05878],[6.54469,37.04857],[6.54705,37.0412],[6.55226,37.03669],[6.56129,37.03514],[6.57277,37.02778],[6.58326,36.98981],[6.59946,36.97309],[6.61411,36.97785],[6.6316,36.9724],[6.65113,36.96385],[6.67115,36.95942],[6.82203,36.95262],[6.83481,36.94912],[6.85279,36.94033],[6.86964,36.92918],[6.88006,36.91844],[6.87965,36.90209],[6.90943,36.89305],[6.94858,36.89004],[6.9756,36.89118],[7.06446,36.91332],[7.0923,36.92593],[7.10808,36.92032],[7.13331,36.91527],[7.15699,36.9147],[7.16749,36.92219],[7.17644,36.93187],[7.21876,36.96084],[7.23292,36.96686],[7.23902,36.9715],[7.25424,36.9947],[7.25734,37.00414],[7.25554,37.01537],[7.2505,37.02314],[7.21111,37.05703],[7.18165,37.07673],[7.18165,37.08295],[7.21217,37.0893],[7.22267,37.08979],[7.23276,37.08723],[7.25131,37.0786],[7.26645,37.07469],[7.27475,37.06932],[7.29265,37.08251],[7.2977,37.08295],[7.3073,37.08015],[7.32586,37.07119],[7.33595,37.06928],[7.34441,37.07144],[7.36996,37.08295],[7.38347,37.08299],[7.38624,37.0821],[7.38689,37.07811],[7.39405,37.06928],[7.3982,37.05801],[7.40463,37.05158],[7.41822,37.04881],[7.43832,37.04857],[7.44711,37.04662],[7.45606,37.04198],[7.47242,37.05004],[7.49024,37.055],[7.52613,37.03315],[7.55592,37.00788],[7.58888,36.98762],[7.63356,36.98054],[7.66188,36.98847],[7.67449,36.98676],[7.69597,36.977],[7.71274,36.9632],[7.76075,36.96686],[7.77076,36.97012],[7.79859,36.9936],[7.79103,36.97321],[7.77858,36.95112],[7.77426,36.93146],[7.79119,36.91844],[7.77345,36.88996],[7.80991,36.86815],[7.86647,36.8544],[7.90846,36.84956],[8.04998,36.87759],[8.07301,36.8874],[8.09303,36.9018],[8.23316,36.95808],[8.25115,36.94868],[8.26873,36.93374],[8.2881,36.92593],[8.33326,36.9278],[8.35597,36.92593],[8.37403,36.91844],[8.38884,36.92325],[8.40162,36.91861],[8.4144,36.91022],[8.42872,36.9042],[8.46323,36.90156],[8.49757,36.9042],[8.60251,36.93951],[8.60566,36.91304],[8.60483,36.90098],[8.60824,36.89072],[8.64255,36.8485],[8.64172,36.83636],[8.62384,36.82607],[8.55449,36.80365],[8.52008,36.79791],[8.48267,36.79998],[8.44401,36.79621],[8.41311,36.78391],[8.4067,36.76799],[8.44163,36.75321],[8.46179,36.7328],[8.45321,36.69766],[8.43037,36.66262],[8.40794,36.64262],[8.28692,36.5834],[8.22232,36.56376],[8.19348,36.54899],[8.16992,36.52583],[8.16785,36.49137],[8.20878,36.47783],[8.2956,36.46868],[8.31492,36.46062],[8.33384,36.45638],[8.34924,36.44878],[8.35771,36.43039],[8.35967,36.41121],[8.35812,36.36993],[8.3544,36.35091],[8.30707,36.24363],[8.30231,36.20234],[8.30707,36.1825],[8.31451,36.16394],[8.31709,36.14591],[8.308,36.127],[8.29673,36.11041],[8.27565,36.03682],[8.27245,35.98173],[8.24723,35.90732],[8.24144,35.82774],[8.24578,35.78531],[8.25767,35.75032],[8.30655,35.6849],[8.32361,35.65219],[8.33704,35.53793],[8.33673,35.50838],[8.30087,35.43748],[8.29002,35.40259],[8.28795,35.36606],[8.29436,35.32508],[8.3174,35.28948],[8.35523,35.27433],[8.39688,35.26369],[8.4313,35.24173],[8.42138,35.22209],[8.36092,35.14592],[8.31368,35.10308],[8.30045,35.06768],[8.28288,34.99404],[8.25901,34.94066],[8.24888,34.90195],[8.25074,34.86475],[8.26934,34.76387],[8.26655,34.75028],[8.25736,34.73974],[8.22521,34.71168],[8.21343,34.69675],[8.21064,34.68119],[8.23648,34.64765],[8.22883,34.63644],[8.19286,34.61773],[8.18656,34.60957],[8.17953,34.59215],[8.17519,34.58528],[8.16723,34.57856],[8.14367,34.56673],[8.09406,34.53014],[7.99908,34.49417],[7.95732,34.46942],[7.87061,34.4379],[7.83154,34.41439],[7.81191,34.37927],[7.77428,34.26096],[7.76529,34.24471],[7.75279,34.23215],[7.73387,34.22378],[7.67031,34.2153],[7.63145,34.1991],[7.60406,34.17549],[7.57957,34.14846],[7.51745,34.09503],[7.50371,34.06797],[7.50061,33.99426],[7.47983,33.8939],[7.4849,33.85502],[7.49854,33.79998],[7.50546,33.78285],[7.5342,33.73624],[7.54443,33.68425],[7.55301,33.65875],[7.69315,33.45411],[7.70824,33.41486],[7.70969,33.27815],[7.72499,33.23141],[7.75072,33.20766],[7.78751,33.19831],[7.83547,33.19454],[7.87195,33.18413],[7.98275,33.11682],[8.00218,33.10837],[8.02264,33.10305],[8.04362,33.10183],[8.0645,33.10578],[8.08682,33.09429],[8.28288,32.83637],[8.29642,32.80441],[8.31957,32.5606],[8.33125,32.52763],[8.35998,32.50102],[8.48267,32.43479],[9.01989,32.10486],[9.03374,32.09076],[9.04501,32.07184],[9.51971,30.22891],[9.28654,30.11713],[9.31001,30.08437],[9.42173,29.96871],[9.54968,29.80232],[9.66771,29.60832],[9.82615,29.12853],[9.84827,28.97573],[9.85126,28.786],[9.77695,28.26758],[9.78987,28.20944],[9.93591,27.86672],[9.93426,27.8274],[9.86336,27.61925],[9.84661,27.5993],[9.8185,27.58573],[9.7939,27.56974],[9.79711,27.54891],[9.81168,27.52654],[9.8216,27.50569],[9.81364,27.48649],[9.77055,27.44422],[9.75628,27.42303],[9.74305,27.36412],[9.72652,27.32469],[9.72187,27.30846],[9.72135,27.29188],[9.8061,27.02512],[9.82553,26.92058],[9.83514,26.901],[9.8461,26.89195],[9.89085,26.86958],[9.90666,26.85748],[9.91059,26.84312],[9.88547,26.73661],[9.88258,26.70178],[9.89405,26.67398],[9.89633,26.65279],[9.85457,26.52438],[9.83576,26.50422],[9.4826,26.35255],[9.48136,26.33261],[9.47764,26.31555],[9.46886,26.30103],[9.43475,26.27199],[9.41646,26.23225],[9.40251,26.21618],[9.3778,26.16895],[9.40116,26.11339],[9.9695,25.3954],[10.00795,25.33143],[10.02138,25.26802],[10.02996,24.99507],[10.03203,24.85634],[10.04453,24.82962],[10.19336,24.74994],[10.21217,24.72286],[10.22974,24.62994],[10.24225,24.59511],[10.26033,24.57664],[10.3918,24.47998],[10.41051,24.47329],[10.45019,24.47693],[10.67736,24.55385],[10.69907,24.55613],[10.72067,24.5523],[11.50863,24.31381],[11.54139,24.29751],[11.56713,24.26684],[11.96886,23.51735],[7.48273,20.87258],[7.02053,20.49544],[5.83761,19.47863],[5.7943,19.4498],[5.74934,19.4337],[4.22861,19.14224],[3.43972,18.99564],[3.35869,18.97685],[3.33306,18.97556],[3.31838,18.97771],[3.30836,18.98168],[3.2849,18.99574],[3.22598,19.05106],[3.17978,19.07],[3.1586,19.08155],[3.13875,19.09605],[3.12087,19.11281],[3.10413,19.13553],[3.10268,19.15356],[3.11178,19.17134],[3.12656,19.19335],[3.13927,19.22193],[3.15271,19.2302],[3.17441,19.25164],[3.17885,19.26872],[3.18382,19.3075],[3.19291,19.3258],[3.21151,19.34086],[3.2327,19.35184],[3.251,19.36546],[3.26081,19.38833],[3.25823,19.41039],[3.24748,19.42646],[3.23477,19.44135],[3.22598,19.45969],[3.22619,19.4692],[3.23229,19.49548],[3.22805,19.50416],[3.21751,19.51116],[3.21224,19.51716],[3.19942,19.55377],[3.19828,19.5924],[3.21678,19.79406],[3.21275,19.80776],[3.1988,19.82052],[3.18319,19.82773],[3.14702,19.83794],[3.13049,19.84522],[3.07261,19.88889],[2.946,19.94165],[2.6718,19.99622],[2.61693,19.99837],[2.52567,20.01516],[2.51481,20.01594],[2.49538,20.0201],[2.45931,20.03878],[2.43988,20.04609],[2.4157,20.05128],[2.4004,20.05655],[2.38872,20.06741],[2.34821,20.13763],[2.31648,20.18016],[2.27958,20.21794],[2.21819,20.26409],[2.20083,20.27391],[2.18243,20.2785],[2.16135,20.27494],[2.1382,20.26073],[2.09747,20.22419],[2.07122,20.21326],[2.05634,20.21505],[1.9934,20.23595],[1.96715,20.25342],[1.95526,20.25492],[1.9412,20.25112],[1.92425,20.23613],[1.9134,20.23109],[1.89139,20.23179],[1.88384,20.24414],[1.88033,20.26305],[1.87061,20.28354],[1.85501,20.29483],[1.83889,20.29592],[1.8209,20.29359],[1.7992,20.29489],[1.77811,20.30429],[1.65915,20.39752],[1.64923,20.41209],[1.65006,20.48702],[1.64396,20.52268],[1.6237,20.55125],[1.55973,20.5975],[1.52035,20.61699],[1.48345,20.62262],[1.46578,20.63352],[1.44749,20.63874],[1.40718,20.64505],[1.36398,20.65771],[1.34692,20.66913],[1.33153,20.68794],[1.31055,20.72272],[1.2967,20.73346],[1.27334,20.73941],[1.25225,20.73899],[1.21246,20.73088],[1.19128,20.73057],[1.16854,20.73346],[1.15458,20.73879],[1.14725,20.75145],[1.14456,20.77625],[1.14528,20.79589],[1.16751,20.88601],[1.18011,20.99531],[1.17794,21.01732],[1.15934,21.0815],[1.14652,21.10171],[-4.51602,24.80399],[-4.82161,24.99507],[-5.51596,25.42326],[-8.68239,27.28542]]]},"source":"Natural Earth Admin 0 Countries, 1:10m, version 5.1.1","sourceUrl":"https://www.naturalearthdata.com/downloads/10m-cultural-vectors/10m-admin-0-countries/"}
