{"type":"Feature","properties":{"isoA2":"EG","name":"Egypt"},"geometry":{"type":"MultiPolygon","coordinates":[[[[24.68834,30.14416],[24.68865,30.18276],[24.70467,30.2179],[24.74612,30.28275],[24.76286,30.31706],[24.77237,30.33102],[24.79945,30.36084],[24.82973,30.38755],[24.88812,30.46434],[24.90766,30.49866],[24.91706,30.53245],[24.92037,30.55235],[24.95065,30.62123],[24.96119,30.67627],[24.9736,30.71627],[24.98858,30.75058],[24.99489,30.7851],[24.98125,30.82541],[24.93763,30.90576],[24.92461,30.95677],[24.88957,31.01883],[24.88265,31.03909],[24.85949,31.14596],[24.85856,31.22791],[24.84864,31.31204],[24.84895,31.34863],[24.86125,31.38036],[25.02372,31.49441],[25.06041,31.57937],[25.08842,31.61352],[25.15089,31.65648],[25.14943,31.64887],[25.16179,31.58356],[25.17286,31.55158],[25.19093,31.53148],[25.21258,31.52635],[25.26344,31.52367],[25.30209,31.50654],[25.32277,31.50642],[25.3685,31.51227],[25.38966,31.50511],[25.40187,31.50316],[25.42018,31.51219],[25.44484,31.51765],[25.47389,31.52049],[25.63649,31.5607],[25.82407,31.61494],[25.86883,31.62092],[25.96681,31.6166],[26.36215,31.52192],[26.65065,31.48876],[26.66725,31.48094],[26.68312,31.47622],[26.73292,31.47923],[26.75318,31.47748],[26.82472,31.44782],[26.86573,31.43683],[26.91163,31.43651],[26.94793,31.44823],[26.96551,31.44965],[26.98259,31.43993],[26.99643,31.4287],[27.00652,31.42504],[27.02703,31.42227],[27.05437,31.40864],[27.11736,31.39045],[27.18507,31.38434],[27.20997,31.37812],[27.22625,31.36766],[27.2461,31.38129],[27.25799,31.38003],[27.32065,31.38101],[27.33481,31.37515],[27.3423,31.36823],[27.3401,31.36099],[27.3423,31.35399],[27.35434,31.33576],[27.36231,31.33051],[27.36378,31.3155],[27.37355,31.29841],[27.38347,31.2685],[27.39356,31.25471],[27.41749,31.23721],[27.4463,31.22321],[27.47804,31.21393],[27.54054,31.20576],[27.56544,31.19697],[27.58774,31.1931],[27.60987,31.20319],[27.66033,31.18024],[27.71949,31.18928],[27.8357,31.23794],[27.85288,31.2403],[27.86329,31.23355],[27.8685,31.21939],[27.86988,31.19977],[27.89031,31.15542],[27.8943,31.12263],[27.89715,31.11441],[27.92693,31.09903],[27.97511,31.09308],[28.15455,31.09333],[28.16627,31.09077],[28.19142,31.07343],[28.20387,31.0705],[28.23357,31.07343],[28.25636,31.07127],[28.29908,31.06196],[28.31837,31.0598],[28.33863,31.06411],[28.38209,31.08275],[28.40496,31.08649],[28.42433,31.08344],[28.44223,31.0764],[28.45777,31.06684],[28.46974,31.05606],[28.47853,31.05183],[28.51417,31.05231],[28.5276,31.05012],[28.55502,31.03872],[28.73268,30.98408],[28.76824,30.9667],[28.78777,30.95966],[28.81202,30.95677],[28.81804,30.95116],[28.82496,30.92447],[28.82887,30.91519],[28.8357,30.91079],[28.85434,30.90595],[29.02809,30.82705],[29.18922,30.83324],[29.21892,30.83804],[29.50327,30.95669],[29.55633,30.99091],[29.60377,31.01203],[29.61866,31.02928],[29.76596,31.12157],[29.7815,31.14794],[29.80934,31.14232],[29.83839,31.15412],[29.88461,31.18952],[29.87566,31.20087],[29.86354,31.19636],[29.86915,31.20649],[29.87696,31.21357],[29.88478,31.21377],[29.89088,31.20319],[29.8982,31.20319],[29.90968,31.2141],[29.95623,31.25007],[29.98316,31.26325],[30.0031,31.2871],[30.01124,31.29255],[30.02508,31.29487],[30.03956,31.30711],[30.04908,31.31306],[30.04168,31.3155],[30.04225,31.3205],[30.06959,31.33348],[30.06666,31.30488],[30.0949,31.28559],[30.136,31.27485],[30.17262,31.27143],[30.1644,31.267],[30.15309,31.25585],[30.1447,31.25161],[30.14405,31.24657],[30.15211,31.24413],[30.14015,31.23725],[30.14373,31.22948],[30.16521,31.21678],[30.2068,31.23794],[30.20167,31.22651],[30.2072,31.22089],[30.21583,31.21939],[30.22047,31.2202],[30.22438,31.22687],[30.25457,31.25161],[30.25734,31.24681],[30.2614,31.24413],[30.26775,31.25731],[30.26881,31.26529],[30.27508,31.26529],[30.27459,31.25454],[30.27662,31.2464],[30.28142,31.24091],[30.28875,31.23794],[30.29274,31.24457],[30.30299,31.27143],[30.28761,31.27822],[30.27345,31.27529],[30.25864,31.26887],[30.2409,31.26529],[30.2409,31.27143],[30.25457,31.27143],[30.25457,31.27827],[30.23845,31.27399],[30.17945,31.27143],[30.17945,31.27827],[30.21656,31.28644],[30.25172,31.30341],[30.31284,31.35057],[30.33448,31.38101],[30.3484,31.42133],[30.35239,31.4632],[30.34392,31.49799],[30.35076,31.49799],[30.35572,31.47883],[30.36459,31.46011],[30.37843,31.44668],[30.39861,31.44335],[30.37062,31.46161],[30.35572,31.49112],[30.36215,31.50873],[30.39861,31.49116],[30.42563,31.47362],[30.45639,31.46271],[30.49252,31.45922],[30.53582,31.46385],[30.67652,31.49616],[30.97389,31.58674],[30.97389,31.5799],[30.95875,31.57807],[30.86638,31.54828],[30.78907,31.51032],[30.73609,31.48871],[30.69337,31.46385],[30.66603,31.45702],[30.6281,31.43431],[30.61069,31.42914],[30.57097,31.42658],[30.56235,31.42227],[30.55787,31.42219],[30.54265,31.40241],[30.54265,31.39496],[30.56324,31.3902],[30.57032,31.39008],[30.57667,31.39496],[30.58351,31.39496],[30.59864,31.38736],[30.62672,31.38866],[30.65382,31.39582],[30.66603,31.4055],[30.67506,31.42158],[30.69508,31.4169],[30.71599,31.40209],[30.72755,31.38813],[30.73439,31.38813],[30.74073,31.4055],[30.7562,31.423],[30.77467,31.43683],[30.79851,31.44648],[30.83741,31.42914],[30.87371,31.43452],[30.88575,31.42914],[30.87843,31.42699],[30.87892,31.42227],[30.89243,31.41909],[30.90943,31.42381],[30.92644,31.43305],[30.93971,31.44335],[30.93328,31.44514],[30.9336,31.44961],[30.93702,31.45173],[30.93971,31.45702],[30.97397,31.44408],[30.98072,31.43651],[30.99,31.44326],[30.99692,31.45112],[31.00807,31.47134],[31.00221,31.47964],[31.00571,31.48623],[31.02174,31.49799],[31.02467,31.50406],[31.02329,31.51382],[31.02914,31.5185],[31.03492,31.51968],[31.0713,31.51732],[31.08074,31.51423],[31.09742,31.50483],[31.10011,31.50104],[31.09978,31.4964],[31.10157,31.4925],[31.11109,31.49116],[31.11915,31.49311],[31.12525,31.49779],[31.12924,31.50446],[31.11109,31.51227],[31.12355,31.51789],[31.13038,31.517],[31.11109,31.53974],[31.07081,31.56537],[31.0232,31.58299],[30.97804,31.5843],[30.98756,31.58893],[31.01238,31.59691],[31.09742,31.6079],[31.12867,31.60493],[31.22096,31.5799],[31.37859,31.5185],[31.41961,31.49116],[31.52369,31.44965],[31.55681,31.44335],[31.59742,31.44449],[31.7483,31.48159],[31.8379,31.52534],[31.87436,31.53559],[31.91293,31.5349],[31.94484,31.52094],[31.9642,31.48241],[31.99578,31.44575],[32.00904,31.41718],[32.02491,31.40005],[32.05698,31.37515],[32.06756,31.37108],[32.09197,31.3664],[32.10426,31.36148],[32.12916,31.33739],[32.14967,31.32779],[32.19955,31.29507],[32.16896,31.30073],[32.07008,31.35399],[32.08009,31.35399],[32.09059,31.34715],[32.08814,31.35444],[32.08351,31.35883],[32.07651,31.36091],[32.056,31.36286],[32.04396,31.37515],[32.01734,31.38752],[32.0066,31.39533],[31.99497,31.39496],[31.99195,31.40852],[31.98569,31.42036],[31.97755,31.42988],[31.96827,31.43651],[31.9935,31.43781],[31.94313,31.49164],[31.93238,31.50776],[31.91798,31.52399],[31.90659,31.52961],[31.90626,31.52534],[31.8895,31.53205],[31.88299,31.52851],[31.87892,31.5185],[31.86525,31.52534],[31.86525,31.51227],[31.85092,31.5185],[31.85133,31.51065],[31.84474,31.49799],[31.86525,31.49799],[31.85971,31.48688],[31.87501,31.46332],[31.87208,31.44961],[31.87892,31.44961],[31.87892,31.44335],[31.87208,31.44335],[31.87892,31.42914],[31.87208,31.42914],[31.86866,31.44135],[31.86207,31.45059],[31.8519,31.45612],[31.8379,31.45702],[31.84164,31.4645],[31.83766,31.46548],[31.83041,31.45881],[31.82423,31.44335],[31.83041,31.44257],[31.83375,31.44379],[31.8379,31.44961],[31.8506,31.44294],[31.85841,31.44335],[31.85841,31.43651],[31.85092,31.43651],[31.85092,31.42914],[31.85483,31.42316],[31.86061,31.41901],[31.86842,31.41657],[31.87892,31.41608],[31.87184,31.40982],[31.86166,31.40762],[31.85174,31.40965],[31.84474,31.41608],[31.8379,31.41608],[31.83855,31.41083],[31.83041,31.40864],[31.83855,31.40249],[31.84474,31.39496],[31.83074,31.37979],[31.82789,31.36835],[31.83693,31.36188],[31.85841,31.36148],[31.85841,31.35399],[31.84506,31.35619],[31.83416,31.35993],[31.82504,31.36066],[31.81674,31.35399],[31.81056,31.35399],[31.80388,31.36005],[31.79721,31.35952],[31.79225,31.35358],[31.79021,31.34345],[31.79428,31.33845],[31.80128,31.33487],[31.80275,31.33129],[31.79021,31.32665],[31.79021,31.3205],[31.79591,31.31098],[31.78891,31.30744],[31.77752,31.305],[31.76905,31.29877],[31.76694,31.28465],[31.7732,31.27586],[31.78419,31.27338],[31.7964,31.27827],[31.79184,31.28144],[31.79021,31.2851],[31.80437,31.27998],[31.82057,31.27827],[31.82862,31.27411],[31.83033,31.25576],[31.83416,31.25161],[31.84539,31.24897],[31.86101,31.24238],[31.87599,31.2333],[31.88575,31.22362],[31.8934,31.23994],[31.89861,31.24665],[31.90626,31.25161],[31.90065,31.23607],[31.90626,31.22362],[31.89259,31.22362],[31.89259,31.21678],[31.90626,31.21678],[31.90016,31.21304],[31.89845,31.20991],[31.89943,31.20319],[31.90414,31.20384],[31.91293,31.21064],[31.91505,31.20425],[31.91977,31.20319],[31.91977,31.21064],[31.92661,31.21064],[31.92164,31.19648],[31.92644,31.187],[31.93474,31.18757],[31.94028,31.20319],[31.95191,31.20458],[31.96754,31.21882],[31.98658,31.23029],[32.00929,31.22362],[31.99497,31.22362],[31.99497,31.21678],[32.00929,31.21064],[32.01197,31.21479],[32.0228,31.22362],[32.03712,31.21678],[32.03712,31.21064],[32.03126,31.20287],[32.02963,31.18952],[32.04396,31.19636],[32.04037,31.18232],[32.03679,31.17862],[32.02963,31.17585],[32.02963,31.16962],[32.03639,31.16108],[32.03688,31.15029],[32.01612,31.13491],[32.01612,31.12808],[32.02687,31.12767],[32.03517,31.12971],[32.04103,31.13426],[32.04396,31.14175],[32.05014,31.14175],[32.05144,31.13117],[32.05454,31.12299],[32.06056,31.11738],[32.07008,31.11441],[32.07008,31.10692],[32.05991,31.10464],[32.05258,31.10077],[32.04762,31.09487],[32.04396,31.08649],[32.05698,31.07966],[32.06658,31.08495],[32.07553,31.08637],[32.08375,31.08442],[32.09059,31.07966],[32.09059,31.07343],[32.08375,31.07343],[32.08375,31.06599],[32.09376,31.05854],[32.10646,31.05337],[32.1198,31.05292],[32.13209,31.0598],[32.13209,31.06599],[32.11744,31.06631],[32.10743,31.07282],[32.10125,31.08275],[32.09799,31.09333],[32.11297,31.09056],[32.13315,31.08173],[32.14633,31.07966],[32.13836,31.09333],[32.15943,31.09333],[32.15943,31.10077],[32.15406,31.10252],[32.15284,31.10659],[32.16627,31.11441],[32.16684,31.10834],[32.17994,31.10692],[32.17604,31.11782],[32.18385,31.12495],[32.19483,31.1258],[32.20574,31.1092],[32.21852,31.10521],[32.23414,31.10488],[32.24822,31.10692],[32.27223,31.11888],[32.28346,31.13654],[32.28053,31.15498],[32.26246,31.16962],[32.28981,31.16962],[32.29477,31.19937],[32.2951,31.21336],[32.28981,31.23045],[32.27296,31.24885],[32.27052,31.25755],[32.28297,31.26529],[32.26791,31.27265],[32.24676,31.27924],[32.22633,31.28205],[32.21412,31.27827],[32.20704,31.29507],[32.23268,31.29287],[32.30047,31.28144],[32.31381,31.27269],[32.33139,31.27143],[32.33383,31.25471],[32.34425,31.24189],[32.35914,31.23347],[32.3899,31.22651],[32.40138,31.21711],[32.42018,31.19636],[32.46266,31.16104],[32.48121,31.14887],[32.50953,31.10692],[32.53582,31.08661],[32.56568,31.07054],[32.60157,31.06098],[32.64552,31.0598],[32.68751,31.06444],[32.76197,31.0812],[32.85076,31.1188],[32.86801,31.13028],[32.90919,31.14818],[32.92042,31.15542],[32.92726,31.15542],[32.92726,31.14794],[32.89536,31.1374],[32.83961,31.10122],[32.80714,31.09333],[32.75245,31.07136],[32.66651,31.05231],[32.71502,31.05231],[32.71502,31.04556],[32.70069,31.03872],[32.73129,31.03876],[32.74285,31.04263],[32.7492,31.05231],[32.75538,31.05231],[32.7562,31.04654],[32.76954,31.04556],[32.83107,31.07966],[32.88282,31.09357],[32.89308,31.10077],[32.89926,31.10077],[32.90349,31.09545],[32.91774,31.09223],[32.9144,31.08731],[32.90675,31.08649],[32.90675,31.07966],[32.91725,31.08283],[32.94093,31.09333],[32.94093,31.10077],[32.91358,31.10077],[32.91358,31.10692],[32.92709,31.1118],[32.94402,31.1079],[32.95948,31.09846],[32.96876,31.08649],[32.97511,31.06599],[32.96127,31.06599],[32.99448,31.05557],[33.00994,31.0563],[33.02345,31.06599],[33.02345,31.07343],[33.00912,31.07966],[33.00912,31.08649],[33.04786,31.09512],[33.05747,31.10077],[33.0525,31.1083],[33.0643,31.13491],[33.05747,31.13491],[33.05104,31.12812],[33.03028,31.11441],[33.02377,31.10773],[33.02377,31.10464],[33.03028,31.10077],[33.01694,31.09813],[32.99415,31.09846],[32.97055,31.10147],[32.95444,31.10692],[32.98463,31.10952],[33.0018,31.12482],[33.01441,31.14496],[33.03028,31.16218],[33.04233,31.16722],[33.06707,31.17097],[33.07862,31.17585],[33.09783,31.19156],[33.10939,31.19644],[33.12647,31.19636],[33.12647,31.18952],[33.09864,31.18952],[33.09864,31.1833],[33.11109,31.17536],[33.14698,31.13491],[33.15772,31.11786],[33.15357,31.11237],[33.14096,31.1096],[33.12647,31.10077],[33.12403,31.10757],[33.11899,31.10692],[33.11899,31.10077],[33.13575,31.09077],[33.14471,31.07787],[33.1443,31.06257],[33.13331,31.04556],[33.16912,31.05801],[33.18767,31.06167],[33.20094,31.0598],[33.20769,31.06102],[33.22145,31.0598],[33.22145,31.06599],[33.20777,31.07343],[33.20094,31.07343],[33.20094,31.06599],[33.19483,31.06599],[33.19483,31.07343],[33.24789,31.09125],[33.26246,31.10077],[33.26979,31.10077],[33.26246,31.09333],[33.26979,31.08649],[33.27719,31.09211],[33.28541,31.09272],[33.29249,31.08845],[33.29656,31.07966],[33.30397,31.07966],[33.30454,31.09821],[33.30323,31.0998],[33.31764,31.10077],[33.30812,31.10513],[33.29819,31.10391],[33.27719,31.10692],[33.38649,31.11441],[33.3777,31.13255],[33.39064,31.13622],[33.40642,31.13727],[33.40642,31.15542],[33.42066,31.14794],[33.4275,31.14794],[33.44093,31.15119],[33.4808,31.13325],[33.49952,31.12808],[33.57252,31.12157],[33.59205,31.11441],[33.59205,31.12128],[33.61476,31.11538],[33.64796,31.11726],[33.85434,31.16348],[34.04705,31.22919],[34.20027,31.31427],[34.22461,31.27572],[34.32951,30.99449],[34.48041,30.65121],[34.50221,30.57167],[34.50438,30.53033],[34.51038,30.51333],[34.53622,30.48217],[34.53601,30.46858],[34.5265,30.43871],[34.52475,30.42114],[34.52692,30.40962],[34.53384,30.40021],[34.58841,30.35882],[34.59947,30.34451],[34.73321,30.01259],[34.73497,30.0067],[34.73507,29.99455],[34.74137,29.94024],[34.82437,29.7417],[34.8501,29.63876],[34.84824,29.56964],[34.85527,29.54572],[34.88673,29.49006],[34.87534,29.48481],[34.85971,29.47215],[34.85255,29.46279],[34.84376,29.44082],[34.83814,29.43293],[34.82537,29.42862],[34.83326,29.42617],[34.83277,29.42113],[34.82423,29.41738],[34.81764,29.41218],[34.8152,29.4064],[34.8191,29.4007],[34.80958,29.39911],[34.80519,29.39643],[34.80592,29.39256],[34.81227,29.38764],[34.80063,29.37787],[34.7776,29.3461],[34.75701,29.33308],[34.74497,29.31582],[34.73658,29.31126],[34.73658,29.30512],[34.74529,29.29133],[34.74195,29.277],[34.72901,29.25047],[34.72901,29.19892],[34.72364,29.18667],[34.70037,29.17036],[34.695,29.1645],[34.69386,29.15046],[34.69011,29.13447],[34.68385,29.11904],[34.67457,29.10651],[34.67701,29.09492],[34.67457,29.03441],[34.67661,29.02481],[34.68653,29.01244],[34.68873,29.00039],[34.68572,28.98867],[34.67823,28.98314],[34.66912,28.98017],[34.64674,28.96743],[34.64324,28.96206],[34.64031,28.9488],[34.64601,28.92235],[34.64715,28.86286],[34.62045,28.84585],[34.62045,28.83959],[34.62631,28.81696],[34.62631,28.8024],[34.62045,28.79059],[34.62729,28.78254],[34.63347,28.7707],[34.62436,28.76533],[34.62281,28.75983],[34.62672,28.74649],[34.62452,28.73599],[34.61525,28.72419],[34.60768,28.70148],[34.58424,28.67235],[34.57032,28.62617],[34.53012,28.5727],[34.51734,28.54414],[34.51645,28.53897],[34.51531,28.53742],[34.51059,28.53799],[34.52361,28.50731],[34.51157,28.48778],[34.48878,28.47272],[34.46901,28.45539],[34.47283,28.45283],[34.47527,28.44794],[34.46168,28.44204],[34.45428,28.4289],[34.44483,28.38447],[34.44117,28.37348],[34.42937,28.35676],[34.42742,28.35611],[34.42433,28.34471],[34.41017,28.32001],[34.40691,28.30801],[34.40789,28.29116],[34.41065,28.27814],[34.42058,28.25617],[34.42058,28.24995],[34.41293,28.23314],[34.42115,28.21817],[34.43434,28.20441],[34.44313,28.1883],[34.45249,28.18036],[34.45533,28.17487],[34.45525,28.16747],[34.44858,28.15717],[34.44776,28.14468],[34.43864,28.10956],[34.42675,28.08154],[34.44403,28.05354],[34.42742,27.98306],[34.43491,27.97557],[34.40886,27.97211],[34.40073,27.96874],[34.38999,27.94526],[34.37696,27.93818],[34.37086,27.92365],[34.36256,27.92036],[34.33131,27.91413],[34.33351,27.90912],[34.33872,27.90668],[34.33123,27.89155],[34.32097,27.86127],[34.31129,27.85204],[34.30445,27.85204],[34.30128,27.85733],[34.29298,27.85985],[34.28639,27.86441],[34.27947,27.85834],[34.27272,27.83617],[34.26352,27.82477],[34.27174,27.81245],[34.25912,27.8017],[34.23951,27.79414],[34.22608,27.79125],[34.21412,27.79149],[34.21811,27.77578],[34.2212,27.76984],[34.25733,27.76952],[34.25733,27.76333],[34.24985,27.76333],[34.24985,27.7565],[34.25847,27.74779],[34.26352,27.73603],[34.24985,27.74282],[34.25123,27.73725],[34.25733,27.73603],[34.25733,27.72858],[34.24985,27.72858],[34.24497,27.73737],[34.22755,27.75821],[34.20851,27.77595],[34.19996,27.78217],[34.18979,27.78677],[34.17482,27.79125],[34.07846,27.80069],[34.05445,27.81452],[33.98756,27.88666],[33.98243,27.88996],[33.97381,27.88923],[33.91676,27.93574],[33.90398,27.9418],[33.89088,27.94253],[33.8794,27.93464],[33.86557,27.96133],[33.8589,27.95515],[33.84986,27.96483],[33.81511,27.99103],[33.80421,27.99604],[33.79371,28.01313],[33.78679,28.01797],[33.77914,28.02082],[33.76336,28.02399],[33.76393,28.04902],[33.71599,28.07526],[33.71551,28.09292],[33.70143,28.10383],[33.68434,28.12433],[33.67254,28.14598],[33.67457,28.16055],[33.66245,28.16877],[33.66033,28.17487],[33.65406,28.17487],[33.65406,28.16738],[33.64666,28.16738],[33.63478,28.1813],[33.61818,28.2333],[33.6128,28.24063],[33.60564,28.23627],[33.59791,28.24974],[33.57439,28.28075],[33.56471,28.2971],[33.43393,28.3664],[33.4275,28.3769],[33.42319,28.37824],[33.40016,28.41446],[33.38087,28.43024],[33.36899,28.44233],[33.36915,28.44794],[33.30519,28.48973],[33.29477,28.49942],[33.28712,28.51508],[33.27882,28.52753],[33.26783,28.53889],[33.2562,28.54414],[33.26246,28.55158],[33.26246,28.54414],[33.26979,28.54414],[33.26295,28.57705],[33.2461,28.5795],[33.23764,28.56611],[33.2562,28.55158],[33.23943,28.55659],[33.22869,28.5694],[33.22315,28.58784],[33.21901,28.628],[33.21258,28.64501],[33.19483,28.67512],[33.20476,28.69501],[33.21778,28.74103],[33.22828,28.76386],[33.21013,28.78506],[33.20476,28.80516],[33.19752,28.81],[33.18873,28.81293],[33.181,28.81851],[33.17457,28.83698],[33.1714,28.88142],[33.16733,28.89423],[33.16733,28.90038],[33.17604,28.90974],[33.17758,28.91836],[33.17359,28.94139],[33.16765,28.96109],[33.16586,28.97606],[33.17058,28.98298],[33.17791,28.98957],[33.17075,29.00308],[33.15919,29.01411],[33.15309,29.01337],[33.15105,29.02416],[33.14503,29.03172],[33.13649,29.03461],[33.12647,29.0314],[33.11606,29.04312],[33.08904,29.05598],[33.07862,29.06489],[33.06121,29.10139],[33.04664,29.11156],[33.04021,29.11811],[33.02345,29.14061],[33.00912,29.14741],[33.00294,29.16112],[32.95786,29.20209],[32.94207,29.20661],[32.91977,29.21751],[32.89861,29.23102],[32.88559,29.24307],[32.88014,29.25886],[32.8755,29.27949],[32.86834,29.29743],[32.85524,29.30512],[32.84596,29.30834],[32.83937,29.31623],[32.8191,29.35908],[32.81739,29.35977],[32.82106,29.39704],[32.81723,29.41405],[32.79029,29.42544],[32.74155,29.45596],[32.7492,29.45596],[32.74537,29.46312],[32.74106,29.46674],[32.72853,29.46963],[32.73365,29.47386],[32.73536,29.47728],[32.73471,29.48383],[32.72853,29.48383],[32.72145,29.46748],[32.72291,29.46088],[32.72853,29.45596],[32.71502,29.45596],[32.7225,29.49274],[32.72413,29.53954],[32.71241,29.58047],[32.68084,29.59992],[32.68084,29.60615],[32.68686,29.61815],[32.68605,29.63227],[32.68084,29.66136],[32.68328,29.67609],[32.6919,29.69652],[32.69386,29.70604],[32.69313,29.72285],[32.69068,29.73363],[32.68084,29.7508],[32.65642,29.77709],[32.65301,29.78832],[32.64845,29.79462],[32.6255,29.81525],[32.6045,29.82416],[32.60955,29.83389],[32.6255,29.84634],[32.62534,29.87425],[32.61248,29.89374],[32.57154,29.9289],[32.58041,29.93403],[32.58432,29.93871],[32.58351,29.94343],[32.57781,29.9488],[32.58546,29.95246],[32.57781,29.9562],[32.56349,29.9724],[32.56162,29.97639],[32.56609,29.98102],[32.57781,29.98355],[32.57781,29.98969],[32.57545,29.99702],[32.57781,30.01142],[32.57154,30.01142],[32.5586,29.98713],[32.55747,29.97647],[32.56007,29.96857],[32.57049,29.95576],[32.57154,29.94257],[32.56414,29.94257],[32.56178,29.95523],[32.55397,29.9621],[32.54274,29.96255],[32.53004,29.9562],[32.51344,29.96157],[32.49391,29.95063],[32.4769,29.9322],[32.46795,29.91523],[32.46681,29.89688],[32.47291,29.88199],[32.48699,29.87157],[32.50953,29.86685],[32.49155,29.85407],[32.40797,29.7519],[32.40301,29.74396],[32.39283,29.73436],[32.36394,29.68822],[32.35808,29.67194],[32.35743,29.63056],[32.35157,29.61367],[32.33766,29.59992],[32.33766,29.59248],[32.34832,29.58503],[32.35963,29.57127],[32.36866,29.5572],[32.3768,29.53608],[32.38771,29.52562],[32.43865,29.49677],[32.45135,29.48729],[32.49732,29.44009],[32.52857,29.42365],[32.55698,29.39785],[32.58123,29.36913],[32.59148,29.34951],[32.59539,29.3249],[32.60548,29.29194],[32.61866,29.26118],[32.63233,29.24307],[32.62867,29.21894],[32.65895,29.11078],[32.65968,29.0891],[32.65414,29.08088],[32.64422,29.0729],[32.63893,29.06135],[32.62818,29.05703],[32.62468,29.04816],[32.63233,29.03758],[32.62721,29.00788],[32.6255,28.97272],[32.63209,28.9619],[32.66277,28.93407],[32.67335,28.92154],[32.67652,28.91096],[32.67726,28.89077],[32.68084,28.88056],[32.70753,28.85635],[32.7492,28.80484],[32.78452,28.79938],[32.80689,28.77814],[32.82065,28.74787],[32.86525,28.59955],[32.86891,28.57893],[32.87957,28.57543],[32.92726,28.55158],[32.95143,28.53099],[32.96355,28.51773],[32.97291,28.49982],[32.99383,28.49421],[33.00294,28.48949],[33.01303,28.46304],[33.04176,28.41413],[33.05079,28.40693],[33.05104,28.40257],[33.04957,28.40135],[33.04322,28.40078],[33.08758,28.3686],[33.1067,28.34711],[33.10532,28.32563],[33.11297,28.32001],[33.1198,28.30878],[33.12647,28.2875],[33.15309,28.25617],[33.20053,28.21137],[33.21217,28.18993],[33.23365,28.18032],[33.24195,28.17487],[33.24676,28.16153],[33.2461,28.15046],[33.24936,28.14289],[33.26612,28.14008],[33.28321,28.13239],[33.31642,28.09638],[33.33814,28.08544],[33.33676,28.07917],[33.33814,28.06501],[33.33611,28.05679],[33.3436,28.05061],[33.35548,28.04808],[33.36606,28.05069],[33.37468,28.03588],[33.39666,28.02725],[33.44174,28.01655],[33.51254,27.95905],[33.53541,27.91641],[33.54737,27.90668],[33.55437,27.89647],[33.57618,27.85049],[33.57838,27.83222],[33.58326,27.82453],[33.58709,27.80512],[33.59205,27.79743],[33.59205,27.79125],[33.57154,27.79125],[33.56007,27.81342],[33.53647,27.82608],[33.50978,27.83495],[33.48894,27.84589],[33.48219,27.84589],[33.47348,27.82319],[33.47543,27.81586],[33.48219,27.80492],[33.50123,27.7875],[33.51173,27.77509],[33.51629,27.75991],[33.52272,27.7519],[33.55144,27.76162],[33.55787,27.75991],[33.55641,27.74628],[33.5525,27.73188],[33.54591,27.71849],[33.53679,27.70808],[33.55047,27.69505],[33.56853,27.68325],[33.57496,27.68138],[33.59205,27.65347],[33.59205,27.64663],[33.58155,27.65449],[33.55787,27.68138],[33.55047,27.68138],[33.55047,27.67398],[33.55787,27.65965],[33.55047,27.65965],[33.5442,27.67919],[33.52654,27.67756],[33.50717,27.66372],[33.49635,27.64663],[33.51971,27.63581],[33.53631,27.6162],[33.56471,27.57152],[33.55828,27.55711],[33.55698,27.54759],[33.55787,27.53677],[33.57447,27.52586],[33.61818,27.50812],[33.63299,27.49584],[33.63592,27.48672],[33.63722,27.46479],[33.64039,27.45482],[33.66407,27.43032],[33.67115,27.4204],[33.6775,27.40013],[33.68482,27.3557],[33.69166,27.34186],[33.72478,27.31371],[33.76336,27.29035],[33.80568,27.27212],[33.82537,27.25971],[33.83839,27.24258],[33.84051,27.23208],[33.83839,27.19416],[33.82472,27.18049],[33.82537,27.17463],[33.83033,27.16592],[33.83155,27.15998],[33.83253,27.13789],[33.83676,27.12075],[33.84718,27.107],[33.86598,27.09516],[33.88315,27.0808],[33.90138,27.05874],[33.9087,27.04214],[33.89373,27.04393],[33.89389,27.0279],[33.90089,27.01423],[33.92091,26.98933],[33.92945,26.97419],[33.94207,26.94457],[33.95167,26.93098],[33.96437,26.92186],[33.99098,26.90742],[33.9961,26.89655],[34.0027,26.8649],[34.00359,26.84894],[33.9961,26.83788],[33.97967,26.8371],[33.96876,26.84638],[33.95965,26.8498],[33.94825,26.831],[33.94581,26.81778],[33.94581,26.79999],[33.94776,26.78242],[33.95167,26.76927],[33.95191,26.74335],[33.93214,26.6826],[33.94142,26.65351],[33.95541,26.64301],[33.9878,26.6341],[34.00359,26.62564],[34.01401,26.61164],[34.02394,26.58072],[34.05641,26.5423],[34.07065,26.51488],[34.10483,26.42666],[34.11964,26.40029],[34.13999,26.3723],[34.15333,26.34711],[34.1775,26.31485],[34.26197,26.13947],[34.30104,26.08779],[34.33872,26.00178],[34.41749,25.90314],[34.42498,25.8902],[34.43474,25.86188],[34.5018,25.77163],[34.53826,25.73566],[34.54656,25.72504],[34.63347,25.5694],[34.64715,25.52204],[34.6714,25.47972],[34.68189,25.4287],[34.69996,25.40103],[34.74334,25.3513],[34.74936,25.33881],[34.7588,25.30964],[34.76499,25.29609],[34.79493,25.25438],[34.80689,25.21161],[34.93914,25.00336],[34.94304,24.97126],[34.95372,24.94414],[34.98976,24.90501],[34.99301,24.8867],[34.99391,24.84931],[34.99659,24.83055],[35.00221,24.81562],[35.01026,24.80443],[35.02182,24.79515],[35.03761,24.78588],[35.06349,24.76411],[35.08074,24.73542],[35.10401,24.65689],[35.10955,24.64379],[35.14601,24.5859],[35.16027,24.57462],[35.16065,24.5585],[35.14444,24.52767],[35.14456,24.50021],[35.18572,24.48566],[35.23546,24.40013],[35.37062,24.3061],[35.39186,24.28278],[35.42865,24.18595],[35.45574,24.15899],[35.49383,24.1089],[35.51051,24.11123],[35.49377,24.13899],[35.5039,24.14054],[35.52419,24.12128],[35.55206,24.1105],[35.58837,24.07584],[35.60272,24.0481],[35.60526,24.01882],[35.63563,24.00186],[35.66685,24.00725],[35.71748,23.99336],[35.73857,23.98332],[35.75375,23.96866],[35.77482,23.92391],[35.79254,23.90229],[35.78578,23.89305],[35.7706,23.91235],[35.75036,23.93242],[35.73601,23.93321],[35.68452,23.91092],[35.64575,23.92556],[35.6272,23.92864],[35.61371,23.9271],[35.59853,23.92941],[35.57998,23.93635],[35.56178,23.95718],[35.55144,23.96039],[35.55055,23.96548],[35.53527,23.97179],[35.51393,23.97712],[35.50492,23.971],[35.49122,23.94758],[35.48387,23.91779],[35.49066,23.87],[35.47477,23.79791],[35.48322,23.77249],[35.50172,23.7687],[35.51015,23.75638],[35.50932,23.74173],[35.50611,23.73456],[35.51022,23.68392],[35.50554,23.64248],[35.50367,23.55565],[35.50147,23.53994],[35.49171,23.51215],[35.48943,23.49702],[35.49334,23.48237],[35.50261,23.46723],[35.52418,23.43895],[35.54135,23.40957],[35.54754,23.39399],[35.55144,23.37751],[35.5503,23.33023],[35.55817,23.28209],[35.57468,23.21257],[35.62109,23.13929],[35.42921,22.97833],[35.21209,22.78626],[35.62109,23.13929],[35.65464,23.07375],[35.66782,22.98261],[35.67506,22.96662],[35.6953,22.93213],[35.73707,22.88398],[35.76368,22.87043],[35.75164,22.88597],[35.7234,22.93187],[35.74293,22.9313],[35.75571,22.92231],[35.76441,22.90766],[35.77117,22.89029],[35.78191,22.84113],[35.78492,22.8332],[35.80128,22.82258],[35.81666,22.7989],[35.84755,22.76299],[35.88596,22.73569],[35.9402,22.71662],[35.94313,22.71279],[35.95582,22.7045],[35.96949,22.69798],[35.98439,22.69379],[36.04005,22.69017],[36.12062,22.67569],[36.19776,22.65168],[36.22608,22.63544],[36.27467,22.59235],[36.29054,22.56818],[36.29637,22.522],[36.31342,22.49161],[36.34318,22.46713],[36.37452,22.44526],[36.40476,22.43288],[36.40156,22.44857],[36.40686,22.44858],[36.4281,22.42604],[36.42282,22.3976],[36.43982,22.35644],[36.5077,22.32805],[36.56284,22.29668],[36.6233,22.24957],[36.71372,22.16914],[36.73276,22.15961],[36.74757,22.16096],[36.75327,22.17316],[36.75685,22.17691],[36.7649,22.17495],[36.78224,22.16446],[36.79037,22.15762],[36.79566,22.15078],[36.80942,22.12075],[36.81821,22.10883],[36.83326,22.09585],[36.87194,22.07411],[36.89538,22.06613],[36.89918,22.02985],[36.89845,22.01748],[36.89186,22.00674],[36.88364,21.99571],[31.43548,21.99535],[31.49056,22.14821],[31.4918,22.17322],[31.48291,22.19544],[31.4609,22.21549],[31.4425,22.22417],[31.42328,22.22696],[31.40406,22.22376],[31.38535,22.21446],[31.35951,22.1881],[31.26164,22.00176],[31.24841,21.99437],[24.98125,21.99535],[24.98125,29.18137],[24.97432,29.23894],[24.95665,29.29268],[24.87376,29.46833],[24.86384,29.5029],[24.86156,29.54156],[24.87055,29.61401],[24.87066,29.63835],[24.85619,29.67948],[24.80493,29.7548],[24.79821,29.79642],[24.81495,29.84857],[24.81619,29.86841],[24.81164,29.89089],[24.72555,30.07837],[24.69733,30.12261],[24.68834,30.14416]],[[34.86195,22.68018],[34.77756,22.49977],[34.82823,22.60689],[34.86195,22.68018]],[[34.14748,22.19186],[34.68209,22.29791],[34.42276,22.24921],[34.14748,22.19186]]],[[[33.95509,26.79002],[33.9756,26.79002],[33.99545,26.7517],[34.00294,26.73164],[34.00359,26.7082],[33.98959,26.72028],[33.95509,26.79002]]],[[[33.91358,27.52375],[33.9192,27.53022],[33.92579,27.53433],[33.93312,27.53636],[33.94142,27.53677],[33.96412,27.53412],[33.98072,27.5246],[33.99391,27.51431],[34.02849,27.50202],[34.03492,27.48501],[34.03842,27.46662],[34.05128,27.45482],[34.05128,27.44863],[34.0311,27.45148],[34.00709,27.47606],[33.98585,27.48212],[33.97608,27.48737],[33.96656,27.49763],[33.95639,27.50438],[33.93377,27.4947],[33.92449,27.50141],[33.91749,27.51317],[33.91358,27.52375]]],[[[34.48951,27.99604],[34.49439,28.00178],[34.49635,27.99604],[34.50489,28.00991],[34.51734,28.01655],[34.53484,28.00825],[34.54054,28.00312],[34.5442,27.99604],[34.51824,27.99136],[34.50685,27.98623],[34.50318,27.97557],[34.51189,27.96748],[34.52882,27.96589],[34.55795,27.97016],[34.57057,27.97411],[34.57488,27.97211],[34.58522,27.95506],[34.62045,27.9278],[34.62045,27.92036],[34.58221,27.91791],[34.54721,27.91966],[34.51808,27.93041],[34.49635,27.95515],[34.49781,27.96874],[34.49439,27.98823],[34.48951,27.99604]]],[[[32.96974,31.08657],[32.97706,31.09125],[32.98308,31.08991],[32.98699,31.08365],[32.98927,31.07343],[32.97853,31.08169],[32.97511,31.08649],[32.96974,31.08657]]],[[[33.26979,31.21678],[33.30112,31.21589],[33.35255,31.19489],[33.40602,31.18447],[33.43295,31.17206],[33.47592,31.14175],[33.45436,31.15469],[33.29868,31.21279],[33.26979,31.21678]]],[[[32.93474,31.14794],[32.94646,31.16327],[32.98911,31.18207],[33.01482,31.19672],[33.0669,31.21743],[33.07862,31.22712],[33.10475,31.2403],[33.26246,31.22362],[33.25611,31.21931],[33.2435,31.21931],[33.15309,31.23176],[33.11899,31.22362],[33.10255,31.22675],[33.07643,31.21874],[32.9559,31.16315],[32.93474,31.14794]]],[[[34.66179,27.93022],[34.68177,27.9587],[34.73188,27.95714],[34.73216,27.91894],[34.7047,27.90837],[34.68104,27.91517],[34.66179,27.93022]]]]},"source":"Natural Earth Admin 0 Countries, 1:10m, version 5.1.1","sourceUrl":"https://www.naturalearthdata.com/downloads/10m-cultural-vectors/10m-admin-0-countries/"}
