{"type":"Feature","properties":{"isoA2":"EH","name":"Western Sahara"},"geometry":{"type":"Polygon","coordinates":[[[-17.10464,20.86249],[-17.10139,20.87617],[-17.09228,20.89989],[-17.0904,20.91401],[-17.0904,20.96182],[-17.08629,20.97931],[-17.06786,21.03091],[-17.02676,21.32893],[-17.01744,21.36506],[-17.01525,21.37983],[-17.01374,21.41997],[-16.95015,21.42975],[-16.72996,21.4698],[-16.58004,21.48055],[-16.18989,21.48055],[-16.04002,21.50008],[-15.91988,21.50008],[-15.74996,21.49032],[-15.60982,21.4698],[-15.45993,21.45027],[-15.28999,21.45027],[-15.14987,21.4405],[-14.97017,21.4405],[-14.83981,21.45027],[-14.74997,21.50008],[-14.66987,21.59967],[-14.64011,21.67976],[-14.60983,21.75007],[-14.62008,21.82037],[-14.62985,21.86042],[-14.58004,21.91024],[-14.51999,21.99034],[-14.45991,22.0401],[-14.43991,22.08015],[-14.37984,22.1202],[-14.31005,22.19051],[-14.27,22.2403],[-14.22019,22.30965],[-14.20996,22.37019],[-14.1899,22.45026],[-14.1899,22.58991],[-14.16991,22.75985],[-14.14009,22.87018],[-14.12009,22.96005],[-14.10007,23.09968],[-14.03999,23.33992],[-14.01999,23.41025],[-13.97994,23.5196],[-13.93013,23.62019],[-13.89013,23.69049],[-13.8398,23.75008],[-13.76998,23.79012],[-13.66012,23.83012],[-13.58005,23.8702],[-13.47995,23.91022],[-13.39011,23.9405],[-13.31001,23.98055],[-13.27975,24.01959],[-13.22996,24.0899],[-13.16012,24.21982],[-13.1201,24.29986],[-13.06002,24.40048],[-12.99018,24.4698],[-12.91014,24.51959],[-12.70994,24.62997],[-12.62984,24.67976],[-12.56003,24.73053],[-12.49998,24.7696],[-12.43014,24.83017],[-12.39988,24.87995],[-12.35984,24.9698],[-12.31002,25.11043],[-12.26997,25.2598],[-12.22995,25.42],[-12.20016,25.51958],[-12.16987,25.63973],[-12.12985,25.73055],[-12.10006,25.83016],[-12.08006,25.8702],[-12.08006,25.91997],[-12.06001,25.9903],[-12.02975,26.03035],[-11.87986,26.0704],[-11.75388,26.08601],[-11.71724,26.10358],[-11.68355,26.21298],[-11.63621,26.29499],[-11.55221,26.40046],[-11.51069,26.46981],[-11.46971,26.5196],[-11.39891,26.58308],[-11.3369,26.6329],[-11.31587,26.68364],[-11.31587,26.74421],[-11.36031,26.79304],[-11.39157,26.88291],[-11.26264,26.91022],[-11.14937,26.9405],[-11.04586,26.9698],[-10.92183,27.00982],[-10.82908,27.00982],[-10.75678,27.01959],[-10.65327,27.00006],[-10.55028,26.99029],[-10.47799,26.96004],[-10.35396,26.90048],[-10.25046,26.86043],[-10.18844,26.86043],[-10.12204,26.87996],[-10.06587,26.90828],[-10.03171,26.91022],[-9.97993,26.88973],[-9.89936,26.84968],[-9.81686,26.84968],[-9.73436,26.86043],[-9.56884,26.99029],[-9.48631,27.04988],[-9.41206,27.08796],[-9.35201,27.09773],[-9.20747,27.09969],[-9.08345,27.08992],[-9.00092,27.08992],[-8.88811,27.10357],[-8.7939,27.12018],[-8.75287,27.15046],[-8.75287,27.19049],[-8.77339,27.25007],[-8.79584,27.30769],[-8.80171,27.36042],[-8.78801,27.41605],[-8.77339,27.46003],[-8.78362,27.53036],[-8.81292,27.61335],[-8.81845,27.6594],[-8.81704,27.66146],[-8.68239,27.66144],[-8.68081,26.01314],[-8.68766,26.00002],[-8.70722,25.995],[-12.01531,25.9949],[-12.01531,23.49518],[-12.01934,23.461],[-12.03272,23.44498],[-12.13458,23.41935],[-12.35389,23.32248],[-12.38991,23.31253],[-12.55838,23.29029],[-12.61943,23.27083],[-13.01525,23.018],[-13.03434,22.99521],[-13.11989,22.88354],[-13.15229,22.82],[-13.1655,22.75269],[-13.15498,22.6888],[-13.10635,22.56023],[-13.09333,22.49548],[-13.01525,21.33343],[-16.95883,21.33286],[-16.96834,21.32459],[-17.00493,21.14192],[-17.04738,21.0274],[-17.05402,20.99546],[-17.07743,20.90451],[-17.08118,20.87475],[-17.05687,20.76691],[-17.06835,20.79247],[-17.10021,20.83759],[-17.10464,20.86249]]]},"source":"Natural Earth Admin 0 Countries, 1:10m, version 5.1.1","sourceUrl":"https://www.naturalearthdata.com/downloads/10m-cultural-vectors/10m-admin-0-countries/"}
