{"type":"Feature","properties":{"isoA2":"FJ","name":"Fiji"},"geometry":{"type":"MultiPolygon","coordinates":[[[[-180,-16.16961],[-180,-16.14911],[-179.98754,-16.13812],[-179.97301,-16.13104],[-179.93859,-16.12127],[-179.94848,-16.14219],[-179.96178,-16.15472],[-179.97887,-16.16277],[-180,-16.16961]]],[[[-180,-16.54112],[-180,-16.48994],[-179.9914,-16.47576],[-179.96471,-16.45745],[-179.95906,-16.44687],[-179.951,-16.44305],[-179.91181,-16.43157],[-179.89765,-16.42978],[-179.89765,-16.43646],[-179.90705,-16.43825],[-179.9112,-16.44118],[-179.91002,-16.44508],[-179.9038,-16.45029],[-179.9038,-16.4577],[-179.91963,-16.46315],[-179.92833,-16.4638],[-179.9333,-16.46803],[-179.93745,-16.47747],[-179.937,-16.48691],[-179.92833,-16.49114],[-179.92199,-16.49749],[-179.9348,-16.51084],[-179.95202,-16.52304],[-180,-16.54112]]],[[[-180,-16.96414],[-180,-16.78673],[-179.98986,-16.77117],[-179.91588,-16.69451],[-179.89765,-16.68353],[-179.87715,-16.67783],[-179.86408,-16.68133],[-179.8557,-16.69305],[-179.84651,-16.72129],[-179.84288,-16.73821],[-179.8424,-16.74871],[-179.82091,-16.76344],[-179.81566,-16.77223],[-179.82099,-16.77996],[-179.85664,-16.8139],[-179.86653,-16.83164],[-179.86933,-16.84059],[-179.87157,-16.86387],[-179.87532,-16.86549],[-179.88146,-16.86452],[-179.89013,-16.86785],[-179.95116,-16.90594],[-179.9829,-16.93239],[-180,-16.96414]]],[[[179.98439,-16.53021],[179.98715,-16.51832],[180,-16.48952],[180,-16.54127],[179.99252,-16.54314],[179.98748,-16.54241],[179.98455,-16.53826],[179.98439,-16.53021]]],[[[179.89015,-16.95387],[179.89527,-16.93914],[179.90724,-16.92702],[179.93116,-16.90944],[179.9673,-16.85833],[179.97299,-16.84482],[179.97755,-16.82822],[180,-16.78535],[180,-16.96278],[179.9922,-16.97503],[179.98121,-16.98431],[179.96681,-16.99334],[179.95395,-16.99879],[179.94109,-17.00189],[179.92872,-17.00213],[179.91749,-16.99879],[179.91245,-16.983],[179.89422,-16.96746],[179.89015,-16.95387]]],[[[178.47902,-16.76588],[178.48357,-16.75994],[178.49244,-16.76605],[178.49928,-16.76605],[178.49659,-16.74717],[178.50652,-16.7304],[178.54021,-16.70403],[178.54021,-16.72454],[178.54851,-16.71624],[178.5525,-16.70485],[178.55714,-16.69834],[178.56804,-16.70403],[178.57293,-16.6889],[178.58562,-16.66513],[178.58863,-16.64951],[178.56707,-16.66009],[178.55274,-16.65895],[178.54282,-16.64788],[178.53395,-16.629],[178.57179,-16.61549],[178.5818,-16.61468],[178.5892,-16.6194],[178.60076,-16.63551],[178.60841,-16.64202],[178.61883,-16.6452],[178.65008,-16.64951],[178.68092,-16.66806],[178.69109,-16.66985],[178.70427,-16.66709],[178.70899,-16.66302],[178.71144,-16.65732],[178.71762,-16.64951],[178.77328,-16.60328],[178.78834,-16.59694],[178.7977,-16.60662],[178.80095,-16.63584],[178.81397,-16.62998],[178.81739,-16.62273],[178.81397,-16.59759],[178.81837,-16.58685],[178.84864,-16.54632],[178.85467,-16.56032],[178.85548,-16.56699],[178.86345,-16.56219],[178.86793,-16.55706],[178.86964,-16.55006],[178.86915,-16.53965],[178.87599,-16.53965],[178.88624,-16.55234],[178.89763,-16.54306],[178.90943,-16.52654],[178.92042,-16.51784],[178.93092,-16.51263],[178.92791,-16.49993],[178.92042,-16.48447],[178.917,-16.47064],[178.93735,-16.47812],[178.94272,-16.46038],[178.95216,-16.45965],[178.9651,-16.47064],[178.98015,-16.46819],[179.00782,-16.45957],[179.05421,-16.45403],[179.10662,-16.43613],[179.13673,-16.42978],[179.16749,-16.43133],[179.17758,-16.42978],[179.19125,-16.40797],[179.21632,-16.40244],[179.22234,-16.39902],[179.24041,-16.39813],[179.26979,-16.40569],[179.29835,-16.40911],[179.31422,-16.3956],[179.32927,-16.40797],[179.33823,-16.40398],[179.3462,-16.39381],[179.35873,-16.38812],[179.36573,-16.39129],[179.37208,-16.40488],[179.37965,-16.40797],[179.39649,-16.40569],[179.40357,-16.40797],[179.40203,-16.393],[179.39576,-16.37884],[179.38648,-16.36745],[179.37615,-16.36077],[179.38648,-16.35133],[179.39772,-16.34783],[179.40854,-16.34905],[179.41782,-16.35394],[179.42262,-16.33685],[179.43141,-16.31902],[179.44321,-16.31023],[179.45818,-16.31992],[179.4651,-16.30267],[179.46681,-16.28688],[179.4712,-16.27402],[179.4861,-16.26523],[179.52166,-16.268],[179.53565,-16.26246],[179.52027,-16.24481],[179.53346,-16.24489],[179.54249,-16.25075],[179.549,-16.26051],[179.55437,-16.27264],[179.56316,-16.2374],[179.56804,-16.2243],[179.57293,-16.23642],[179.58188,-16.24196],[179.59295,-16.2457],[179.60279,-16.25213],[179.6115,-16.24334],[179.61891,-16.24261],[179.62485,-16.2483],[179.63014,-16.25897],[179.63014,-16.24342],[179.63404,-16.23789],[179.64715,-16.23854],[179.65333,-16.23528],[179.65602,-16.22796],[179.65642,-16.21746],[179.66334,-16.21819],[179.67449,-16.2243],[179.69353,-16.22576],[179.70183,-16.22308],[179.70525,-16.21404],[179.7103,-16.20778],[179.73471,-16.19793],[179.76442,-16.18141],[179.77068,-16.19655],[179.77272,-16.21942],[179.78093,-16.23113],[179.79298,-16.22649],[179.81446,-16.2077],[179.82879,-16.20436],[179.83961,-16.2077],[179.84132,-16.21347],[179.8366,-16.2195],[179.82879,-16.2243],[179.83961,-16.22812],[179.85084,-16.22796],[179.85597,-16.23113],[179.86818,-16.216],[179.90333,-16.18865],[179.91065,-16.17986],[179.98317,-16.1491],[180,-16.14911],[180,-16.16895],[179.938,-16.2243],[179.92994,-16.22715],[179.91212,-16.22796],[179.90382,-16.23113],[179.89568,-16.2387],[179.88648,-16.25449],[179.85825,-16.28265],[179.85914,-16.28631],[179.85125,-16.29095],[179.83814,-16.31406],[179.79811,-16.36956],[179.78093,-16.38128],[179.78102,-16.40301],[179.76344,-16.43279],[179.73845,-16.45924],[179.71583,-16.47064],[179.69386,-16.47731],[179.59791,-16.53981],[179.59181,-16.54534],[179.58229,-16.56699],[179.57911,-16.61142],[179.57146,-16.62558],[179.52361,-16.65895],[179.5066,-16.68353],[179.50066,-16.68719],[179.48422,-16.69313],[179.47869,-16.6972],[179.48878,-16.70762],[179.4922,-16.72503],[179.48878,-16.74383],[179.47869,-16.75872],[179.4861,-16.76605],[179.50196,-16.75465],[179.52027,-16.74961],[179.53712,-16.75262],[179.54811,-16.76605],[179.56251,-16.75482],[179.58522,-16.72942],[179.62208,-16.71787],[179.63258,-16.71022],[179.64088,-16.68727],[179.65056,-16.68222],[179.67107,-16.67685],[179.67791,-16.65553],[179.69842,-16.64951],[179.70582,-16.63812],[179.71616,-16.61346],[179.72267,-16.60442],[179.74977,-16.59246],[179.75668,-16.57675],[179.76539,-16.57195],[179.78093,-16.56699],[179.81414,-16.54632],[179.83326,-16.53037],[179.84181,-16.51507],[179.85109,-16.50856],[179.90382,-16.48431],[179.91717,-16.46689],[179.92433,-16.4638],[179.93946,-16.46331],[179.94239,-16.46746],[179.94239,-16.47584],[179.95346,-16.49961],[179.94907,-16.50905],[179.93621,-16.52467],[179.92433,-16.55316],[179.89015,-16.61468],[179.89015,-16.63584],[179.86964,-16.63584],[179.84864,-16.66237],[179.87501,-16.66432],[179.89194,-16.67596],[179.90113,-16.69476],[179.90382,-16.71771],[179.91749,-16.71657],[179.93556,-16.72039],[179.94972,-16.73008],[179.95167,-16.7457],[179.9419,-16.75262],[179.92652,-16.74961],[179.89633,-16.73821],[179.91065,-16.76605],[179.89576,-16.76181],[179.89015,-16.75872],[179.87574,-16.76946],[179.86362,-16.76482],[179.85792,-16.75189],[179.86215,-16.73821],[179.82635,-16.73707],[179.81202,-16.73121],[179.80201,-16.71771],[179.78077,-16.72503],[179.75929,-16.72373],[179.72633,-16.71771],[179.71648,-16.72194],[179.69988,-16.73528],[179.68832,-16.73821],[179.67604,-16.73846],[179.66627,-16.74066],[179.65984,-16.74676],[179.65675,-16.75872],[179.65056,-16.7457],[179.64381,-16.7457],[179.63331,-16.76588],[179.59685,-16.78875],[179.58229,-16.80706],[179.56511,-16.79168],[179.54493,-16.79078],[179.50318,-16.80023],[179.47145,-16.8012],[179.45395,-16.80511],[179.43824,-16.8139],[179.40382,-16.80234],[179.37574,-16.80104],[179.29689,-16.80682],[179.29786,-16.80446],[179.30795,-16.79746],[179.31422,-16.7833],[179.32342,-16.77117],[179.34148,-16.76507],[179.35475,-16.75848],[179.34889,-16.7457],[179.35141,-16.73138],[179.33961,-16.72438],[179.30795,-16.71771],[179.28297,-16.69891],[179.26637,-16.68987],[179.25896,-16.69378],[179.24822,-16.69411],[179.17205,-16.72259],[179.15284,-16.73447],[179.12289,-16.75872],[179.1294,-16.77581],[179.12338,-16.78965],[179.1102,-16.79998],[179.09571,-16.80706],[179.06544,-16.79892],[179.04444,-16.82383],[179.01987,-16.8952],[179.04542,-16.88014],[179.05665,-16.87803],[179.07521,-16.88152],[179.0656,-16.89349],[179.03728,-16.91269],[179.02687,-16.92311],[179.01987,-16.92311],[179.00685,-16.91774],[178.96746,-16.90635],[178.95444,-16.89902],[178.95021,-16.89072],[178.9489,-16.88299],[178.94532,-16.87754],[178.92595,-16.87314],[178.92026,-16.86696],[178.91725,-16.85833],[178.917,-16.84808],[178.91,-16.84808],[178.91,-16.86785],[178.89454,-16.85931],[178.8838,-16.85768],[178.87403,-16.8611],[178.86166,-16.86785],[178.8213,-16.9026],[178.81707,-16.91204],[178.80714,-16.95045],[178.79949,-16.95721],[178.79021,-16.96201],[178.78777,-16.96787],[178.80095,-16.97772],[178.76547,-17.00115],[178.76271,-17.00506],[178.7339,-17.00701],[178.72088,-17.00555],[178.70533,-16.99879],[178.6919,-16.98577],[178.68068,-16.95827],[178.67319,-16.92604],[178.67042,-16.89902],[178.66041,-16.87949],[178.64064,-16.86053],[178.62745,-16.83766],[178.6364,-16.80706],[178.615,-16.79974],[178.60621,-16.7929],[178.60231,-16.77972],[178.5407,-16.80918],[178.51157,-16.81422],[178.48561,-16.79339],[178.49024,-16.79119],[178.49244,-16.78672],[178.48121,-16.77728],[178.47902,-16.76588]]],[[[-178.60033,-19.14772],[-178.59712,-19.12851],[-178.58165,-19.11151],[-178.55382,-19.10915],[-178.55968,-19.11883],[-178.56635,-19.12086],[-178.57543,-19.12054],[-178.58857,-19.12282],[-178.58198,-19.1373],[-178.56635,-19.15106],[-178.54804,-19.15928],[-178.53331,-19.157],[-178.53698,-19.17718],[-178.55586,-19.17498],[-178.59166,-19.157],[-178.60033,-19.14772]]],[[[-178.97216,-18.9651],[-178.96907,-18.94264],[-178.95788,-18.92791],[-178.94359,-18.92637],[-178.93122,-18.94411],[-178.93098,-18.97137],[-178.94445,-18.98724],[-178.96154,-18.98675],[-178.97216,-18.9651]]],[[[-179.87194,-18.99375],[-179.84968,-18.92344],[-179.81269,-18.92734],[-179.78718,-18.95534],[-179.80822,-18.98642],[-179.81676,-18.95224],[-179.83776,-18.94883],[-179.85521,-18.96315],[-179.85289,-18.9826],[-179.84435,-19.00213],[-179.85827,-19.00596],[-179.87194,-18.99375]]],[[[-178.84541,-18.21738],[-178.8249,-18.18914],[-178.78978,-18.17213],[-178.76671,-18.19126],[-178.74913,-18.20322],[-178.74568,-18.22161],[-178.75182,-18.23846],[-178.76329,-18.24586],[-178.79743,-18.24586],[-178.80659,-18.24375],[-178.84541,-18.21738]]],[[[-179.0787,-17.96664],[-179.05951,-17.95252],[-179.05029,-17.95595],[-179.03183,-17.96633],[-179.02797,-17.9899],[-179.02786,-18.00301],[-179.04621,-18.00752],[-179.05912,-18.00066],[-179.06934,-17.98932],[-179.0787,-17.96664]]],[[[-178.35778,-17.91432],[-178.33788,-17.886],[-178.29316,-17.88274],[-178.28108,-17.88877],[-178.26293,-17.9013],[-178.24641,-17.91758],[-178.23913,-17.93426],[-178.24865,-17.95257],[-178.27123,-17.96168],[-178.29829,-17.96331],[-178.32103,-17.95843],[-178.35228,-17.94573],[-178.35778,-17.91432]]],[[[-179.01997,-17.1491],[-179.00605,-17.15472],[-178.9969,-17.16611],[-178.98542,-17.17588],[-178.96471,-17.17694],[-178.93293,-17.1915],[-178.91735,-17.20127],[-178.91072,-17.21453],[-178.92748,-17.2527],[-178.94628,-17.25921],[-178.96593,-17.27508],[-178.98095,-17.29502],[-178.98583,-17.31357],[-179.00068,-17.3025],[-178.99767,-17.28314],[-178.98534,-17.26377],[-178.97216,-17.2527],[-178.97578,-17.23984],[-178.97065,-17.23382],[-178.96284,-17.23024],[-178.95848,-17.22479],[-178.95832,-17.21136],[-178.96028,-17.2055],[-178.97216,-17.19744],[-178.98204,-17.19256],[-179.00377,-17.18865],[-179.01313,-17.18385],[-179.01708,-17.17653],[-179.01997,-17.1491]]],[[[179.74,-19.17742],[179.74903,-19.17327],[179.75294,-19.16383],[179.7741,-19.17067],[179.76783,-19.15545],[179.75782,-19.13991],[179.7566,-19.1277],[179.77752,-19.12282],[179.78859,-19.13047],[179.79412,-19.14804],[179.80201,-19.18426],[179.77215,-19.19134],[179.76043,-19.19232],[179.74594,-19.19012],[179.74187,-19.18621],[179.74,-19.17742]]],[[[177.95118,-19.12965],[177.98146,-19.10125],[177.99952,-19.09482],[178.01938,-19.10231],[178.0298,-19.09385],[178.03346,-19.07203],[178.04119,-19.06146],[178.05177,-19.05674],[178.06324,-19.05641],[178.11948,-19.07041],[178.12867,-19.06894],[178.13494,-19.06146],[178.13942,-19.04192],[178.14975,-19.03411],[178.16326,-19.04404],[178.17213,-19.03533],[178.17644,-19.01735],[178.17644,-18.99928],[178.19068,-18.97723],[178.22609,-18.96412],[178.26588,-18.96209],[178.29371,-18.97259],[178.30193,-18.94402],[178.30885,-18.93955],[178.32407,-18.93857],[178.32862,-18.93629],[178.33676,-18.92702],[178.34498,-18.9249],[178.36345,-18.92978],[178.37192,-18.93035],[178.38258,-18.9249],[178.38982,-18.93817],[178.4227,-18.93971],[178.43035,-18.95526],[178.43816,-18.95469],[178.47462,-18.96063],[178.48561,-18.9651],[178.49318,-18.9782],[178.49838,-18.99676],[178.49659,-19.01328],[178.4756,-19.02321],[178.46095,-19.03265],[178.45387,-19.02679],[178.42408,-19.02044],[178.42856,-19.02939],[178.42897,-19.0368],[178.42514,-19.04306],[178.41668,-19.04778],[178.40504,-19.04453],[178.38258,-19.0429],[178.35841,-19.04371],[178.34148,-19.04778],[178.34832,-19.02044],[178.33937,-19.02459],[178.33286,-19.02565],[178.32049,-19.02044],[178.33399,-19.00677],[178.3073,-18.99717],[178.28151,-19.00742],[178.23854,-19.04095],[178.22299,-19.04485],[178.20729,-19.0451],[178.19508,-19.04746],[178.19011,-19.05771],[178.19044,-19.07871],[178.18873,-19.08359],[178.18385,-19.06894],[178.17433,-19.07586],[178.17091,-19.08717],[178.17311,-19.09775],[178.18019,-19.10231],[178.195,-19.10556],[178.19947,-19.11403],[178.19752,-19.13934],[178.19467,-19.14658],[178.18784,-19.15325],[178.17897,-19.15749],[178.17018,-19.157],[178.16163,-19.15057],[178.16017,-19.14186],[178.16285,-19.11598],[178.1482,-19.12754],[178.14291,-19.12965],[178.12867,-19.12965],[178.11915,-19.13958],[178.11378,-19.14837],[178.10662,-19.15455],[178.09164,-19.157],[178.07602,-19.15472],[178.05014,-19.14495],[178.03712,-19.14276],[178.01539,-19.15594],[178.00367,-19.15749],[177.99887,-19.14276],[177.99203,-19.14276],[177.98414,-19.14707],[177.97397,-19.14479],[177.95118,-19.12965]]],[[[178.47193,-18.90716],[178.47413,-18.89528],[178.48341,-18.8803],[178.48561,-18.87314],[178.49586,-18.86297],[178.51637,-18.85735],[178.53159,-18.86045],[178.52654,-18.87656],[178.53484,-18.88453],[178.53826,-18.89227],[178.53761,-18.90049],[178.53395,-18.91058],[178.52052,-18.90618],[178.50831,-18.92645],[178.49928,-18.9249],[178.47193,-18.90716]]],[[[179.83067,-18.5893],[179.88819,-18.56693],[179.92767,-18.55799],[179.94343,-18.55635],[179.9524,-18.56854],[179.9447,-18.58062],[179.92079,-18.58604],[179.89183,-18.60964],[179.89884,-18.61747],[179.91278,-18.61147],[179.91744,-18.6115],[179.92102,-18.62264],[179.90187,-18.63815],[179.90079,-18.65859],[179.88275,-18.66252],[179.87221,-18.64593],[179.87157,-18.62882],[179.8605,-18.62103],[179.85293,-18.61105],[179.83307,-18.60025],[179.83067,-18.5893]]],[[[177.61899,-18.51189],[177.62078,-18.50408],[177.6351,-18.48602],[177.63844,-18.48968],[177.64877,-18.49285],[177.65406,-18.50408],[177.65593,-18.51702],[177.65626,-18.5407],[177.6631,-18.58847],[177.64877,-18.57928],[177.63648,-18.56276],[177.62696,-18.54371],[177.62159,-18.52703],[177.61899,-18.51189]]],[[[178.10873,-18.4035],[178.11818,-18.40154],[178.12184,-18.39918],[178.11622,-18.38982],[178.12037,-18.38494],[178.12232,-18.36932],[178.12761,-18.35166],[178.13893,-18.34873],[178.15008,-18.35784],[178.15602,-18.37615],[178.1526,-18.39739],[178.14235,-18.41188],[178.12696,-18.41546],[178.10873,-18.4035]]],[[[179.23276,-17.94476],[179.24342,-17.95094],[179.25034,-17.95127],[179.27215,-17.9345],[179.27752,-17.93401],[179.29737,-17.93792],[179.31251,-17.94744],[179.33676,-17.98935],[179.34547,-17.99879],[179.36085,-18.02597],[179.36297,-18.07977],[179.35027,-18.11883],[179.32097,-18.10182],[179.31088,-18.08978],[179.30323,-18.06219],[179.29737,-18.05039],[179.27833,-18.0276],[179.27174,-18.01572],[179.26694,-17.99879],[179.26303,-18.00953],[179.2658,-18.02988],[179.26295,-18.03672],[179.25408,-18.03916],[179.24952,-18.03216],[179.24537,-18.0036],[179.24643,-17.97487],[179.23512,-17.95469],[179.23276,-17.94476]]],[[[179.39177,-17.79306],[179.39674,-17.78037],[179.41375,-17.78899],[179.43084,-17.79404],[179.42945,-17.80137],[179.42408,-17.80706],[179.43051,-17.82293],[179.4323,-17.83278],[179.43084,-17.84108],[179.42262,-17.85052],[179.41684,-17.84547],[179.41041,-17.82806],[179.39503,-17.80641],[179.39177,-17.79306]]],[[[178.71319,-17.71098],[178.72576,-17.72471],[178.74192,-17.74958],[178.76271,-17.76198],[178.77955,-17.76605],[178.77272,-17.78037],[178.76588,-17.77288],[178.75913,-17.77752],[178.75261,-17.77614],[178.74781,-17.76995],[178.73469,-17.76757],[178.71319,-17.71098]]],[[[178.73935,-17.67333],[178.75109,-17.64336],[178.77638,-17.62884],[178.78262,-17.6229],[178.79789,-17.6186],[178.81676,-17.62895],[178.83019,-17.66577],[178.83554,-17.69316],[178.82922,-17.71886],[178.82291,-17.72913],[178.79771,-17.73595],[178.76808,-17.74717],[178.75819,-17.72992],[178.73935,-17.67333]]],[[[178.99741,-17.608],[178.99855,-17.5971],[179.00685,-17.59319],[179.0197,-17.60084],[179.02605,-17.61061],[179.0381,-17.64202],[179.04078,-17.65618],[179.03338,-17.65618],[179.02898,-17.6443],[179.0232,-17.63543],[179.00538,-17.62135],[178.99741,-17.608]]],[[[177.25164,-17.95224],[177.25457,-17.94459],[177.26791,-17.92718],[177.27215,-17.91692],[177.27149,-17.90423],[177.26157,-17.88934],[177.25904,-17.87933],[177.26564,-17.85955],[177.28207,-17.85174],[177.32732,-17.84857],[177.3615,-17.83489],[177.37143,-17.82342],[177.37289,-17.8152],[177.36891,-17.79746],[177.36891,-17.76263],[177.37029,-17.74969],[177.37428,-17.74749],[177.41603,-17.75986],[177.42351,-17.75921],[177.43434,-17.75018],[177.43531,-17.74326],[177.4297,-17.7282],[177.42351,-17.6876],[177.42058,-17.67832],[177.40398,-17.67059],[177.39568,-17.66302],[177.38893,-17.64056],[177.40211,-17.63055],[177.42042,-17.62233],[177.43434,-17.59791],[177.45655,-17.59271],[177.4651,-17.58799],[177.46901,-17.57635],[177.46713,-17.56536],[177.46746,-17.55535],[177.4782,-17.54632],[177.48959,-17.55885],[177.49952,-17.55576],[177.50392,-17.54453],[177.49928,-17.53265],[177.50636,-17.51784],[177.51515,-17.50506],[177.52443,-17.50075],[177.53338,-17.51214],[177.53956,-17.51214],[177.58131,-17.47812],[177.62208,-17.45469],[177.62818,-17.4485],[177.63111,-17.43922],[177.63893,-17.43711],[177.6526,-17.44053],[177.65626,-17.4428],[177.6526,-17.44394],[177.64682,-17.45175],[177.65008,-17.46942],[177.65724,-17.48797],[177.6631,-17.49847],[177.66928,-17.49236],[177.65919,-17.46803],[177.65895,-17.45664],[177.6631,-17.44394],[177.67058,-17.43841],[177.71013,-17.4179],[177.74879,-17.43027],[177.75392,-17.4249],[177.7562,-17.41326],[177.76092,-17.40154],[177.76547,-17.39666],[177.78728,-17.38453],[177.80763,-17.38096],[177.81414,-17.37127],[177.82993,-17.36403],[177.83326,-17.36647],[177.83448,-17.37933],[177.83367,-17.39023],[177.82667,-17.40879],[177.82016,-17.41717],[177.83627,-17.42132],[177.84986,-17.41318],[177.86231,-17.40008],[177.87599,-17.38934],[177.89731,-17.40293],[177.92661,-17.40594],[177.95623,-17.40252],[177.97836,-17.39666],[178.00717,-17.38348],[178.04225,-17.35687],[178.06593,-17.35589],[178.08139,-17.34832],[178.11378,-17.3532],[178.15105,-17.34686],[178.18084,-17.32928],[178.19011,-17.30055],[178.21168,-17.30771],[178.23911,-17.32008],[178.26271,-17.33563],[178.27272,-17.35174],[178.27556,-17.3637],[178.28647,-17.38372],[178.28631,-17.39666],[178.27955,-17.4074],[178.2544,-17.43182],[178.24537,-17.44394],[178.25603,-17.44964],[178.25807,-17.45745],[178.25375,-17.46551],[178.24537,-17.47129],[178.25864,-17.46893],[178.28598,-17.43808],[178.30372,-17.43027],[178.32748,-17.43279],[178.34832,-17.44012],[178.36459,-17.4529],[178.37574,-17.47129],[178.37721,-17.47975],[178.37428,-17.49139],[178.37574,-17.49847],[178.39747,-17.51531],[178.40357,-17.52239],[178.44549,-17.5499],[178.47877,-17.55316],[178.49627,-17.56512],[178.52296,-17.60084],[178.53028,-17.60833],[178.55193,-17.61077],[178.57301,-17.61793],[178.59083,-17.63096],[178.60231,-17.65],[178.60328,-17.67457],[178.59295,-17.69346],[178.58058,-17.71006],[178.57423,-17.7282],[178.56772,-17.75498],[178.57114,-17.76263],[178.60231,-17.78655],[178.60304,-17.79844],[178.59962,-17.80934],[178.59889,-17.81943],[178.60841,-17.82806],[178.62062,-17.8235],[178.62721,-17.82684],[178.62631,-17.83408],[178.6159,-17.84108],[178.62794,-17.8458],[178.63502,-17.85345],[178.636,-17.8637],[178.62957,-17.87591],[178.6159,-17.86907],[178.62273,-17.89023],[178.59107,-17.89756],[178.5949,-17.92604],[178.61313,-17.95696],[178.62615,-17.97145],[178.64576,-17.97324],[178.65431,-17.97845],[178.65968,-17.98699],[178.67042,-17.99879],[178.67701,-18.01141],[178.68767,-18.01238],[178.69386,-18.00994],[178.69923,-18.00384],[178.70533,-17.99196],[178.71144,-17.99196],[178.69842,-18.0193],[178.69842,-18.04314],[178.69451,-18.0569],[178.68458,-18.07041],[178.67311,-18.08148],[178.66359,-18.08815],[178.61297,-18.1124],[178.58863,-18.136],[178.58863,-18.11549],[178.55974,-18.12705],[178.54762,-18.12908],[178.55934,-18.11273],[178.56056,-18.10866],[178.55502,-18.09922],[178.54567,-18.09726],[178.53696,-18.09124],[178.52711,-18.09002],[178.49838,-18.10442],[178.48561,-18.10866],[178.4878,-18.12908],[178.47022,-18.14186],[178.44842,-18.14756],[178.43776,-18.14658],[178.43995,-18.12607],[178.43816,-18.12298],[178.42164,-18.108],[178.4131,-18.10345],[178.40309,-18.10133],[178.3899,-18.10182],[178.39617,-18.10866],[178.39129,-18.1181],[178.38575,-18.12379],[178.37843,-18.12721],[178.36891,-18.12908],[178.36939,-18.12664],[178.36606,-18.122],[178.36085,-18.11745],[178.35523,-18.11549],[178.32293,-18.12558],[178.30934,-18.14023],[178.27703,-18.14625],[178.26588,-18.15643],[178.26189,-18.16277],[178.2566,-18.17767],[178.25221,-18.18377],[178.2142,-18.2011],[178.18539,-18.23382],[178.16831,-18.24847],[178.14975,-18.2527],[178.14137,-18.2527],[178.13551,-18.25945],[178.11305,-18.23944],[178.03891,-18.26491],[178.00636,-18.25945],[177.99147,-18.25888],[177.9852,-18.25742],[177.97836,-18.2527],[177.97193,-18.25872],[177.95981,-18.26572],[177.94581,-18.26873],[177.93409,-18.26287],[177.92107,-18.26067],[177.9061,-18.2693],[177.89405,-18.27313],[177.88901,-18.25604],[177.88575,-18.25164],[177.87843,-18.25368],[177.85939,-18.2658],[177.85369,-18.26312],[177.83448,-18.24668],[177.82716,-18.23447],[177.69858,-18.20135],[177.67302,-18.19801],[177.64503,-18.1911],[177.59164,-18.16668],[177.56764,-18.1701],[177.53688,-18.15683],[177.52491,-18.15537],[177.47446,-18.15781],[177.4651,-18.15643],[177.45427,-18.15195],[177.43718,-18.136],[177.36671,-18.11907],[177.33595,-18.10556],[177.31365,-18.07391],[177.30681,-18.08131],[177.30226,-18.0709],[177.30006,-18.03973],[177.28761,-18.02215],[177.28582,-18.00897],[177.2811,-18.00368],[177.26295,-17.99383],[177.26246,-17.98854],[177.26645,-17.97942],[177.25514,-17.96282],[177.25164,-17.95224]]],[[[177.09392,-17.24529],[177.12013,-17.25547],[177.13258,-17.25449],[177.14918,-17.24529],[177.16285,-17.2658],[177.15602,-17.26702],[177.15187,-17.27516],[177.13771,-17.29485],[177.12452,-17.30682],[177.11183,-17.31032],[177.10133,-17.30055],[177.09946,-17.28395],[177.10402,-17.27028],[177.10523,-17.2597],[177.09392,-17.2527],[177.09392,-17.24529]]],[[[179.36883,-17.2868],[179.37208,-17.27337],[179.37135,-17.25986],[179.37867,-17.24944],[179.41969,-17.24375],[179.42921,-17.24114],[179.43784,-17.24179],[179.44825,-17.24912],[179.45192,-17.2903],[179.44988,-17.3161],[179.44337,-17.33864],[179.43287,-17.35833],[179.41782,-17.37567],[179.39088,-17.39625],[179.38347,-17.39056],[179.38347,-17.33123],[179.38136,-17.3152],[179.37631,-17.30055],[179.36883,-17.2868]]],[[[177.17595,-17.16334],[177.17595,-17.15594],[177.1902,-17.15594],[177.18637,-17.14625],[177.18442,-17.13258],[177.18605,-17.12029],[177.20248,-17.11102],[177.21119,-17.08082],[177.24057,-17.05682],[177.24855,-17.05348],[177.24968,-17.05771],[177.2614,-17.07594],[177.26588,-17.08082],[177.27215,-17.08082],[177.28582,-17.04665],[177.29225,-17.05853],[177.29265,-17.07236],[177.28785,-17.08522],[177.27955,-17.09442],[177.27174,-17.11273],[177.24171,-17.13274],[177.23805,-17.1491],[177.22739,-17.14121],[177.22429,-17.13543],[177.21461,-17.14129],[177.20753,-17.14821],[177.20379,-17.15732],[177.20379,-17.16961],[177.17595,-17.16334]]],[[[177.37306,-16.90293],[177.37892,-16.89365],[177.40284,-16.88152],[177.39576,-16.86614],[177.40821,-16.8611],[177.42823,-16.86289],[177.4437,-16.86785],[177.41293,-16.89129],[177.40366,-16.9026],[177.41652,-16.90944],[177.40846,-16.92449],[177.39536,-16.93678],[177.37306,-16.90293]]],[[[178.28004,-16.78672],[178.28631,-16.78672],[178.29469,-16.79209],[178.30641,-16.79388],[178.33399,-16.79339],[178.33009,-16.81406],[178.33562,-16.82513],[178.33367,-16.82887],[178.30738,-16.82757],[178.29021,-16.83441],[178.28297,-16.82236],[178.28004,-16.78672]]],[[[177.4297,-16.83441],[177.43637,-16.80364],[177.43718,-16.79339],[177.44402,-16.79339],[177.45655,-16.8056],[177.47535,-16.79665],[177.51295,-16.75872],[177.5586,-16.72145],[177.57252,-16.69948],[177.56072,-16.67685],[177.57993,-16.67816],[177.59116,-16.68621],[177.59401,-16.69996],[177.58741,-16.71771],[177.58033,-16.72845],[177.56397,-16.73992],[177.56072,-16.74871],[177.55649,-16.75384],[177.49342,-16.80267],[177.47926,-16.81707],[177.47136,-16.83441],[177.45777,-16.82757],[177.45314,-16.83319],[177.44557,-16.83856],[177.43718,-16.84002],[177.4297,-16.83441]]],[[[179.88331,-16.65553],[179.90008,-16.65016],[179.90724,-16.64951],[179.9109,-16.64625],[179.91017,-16.63209],[179.91407,-16.629],[179.93458,-16.6251],[179.945,-16.61875],[179.95167,-16.60784],[179.95265,-16.62835],[179.94744,-16.64446],[179.9358,-16.65407],[179.88331,-16.65553]]],[[[178.56039,-16.58733],[178.58823,-16.57301],[178.59669,-16.57838],[178.60515,-16.58001],[178.61378,-16.57806],[178.62257,-16.57301],[178.61573,-16.58375],[178.60613,-16.59173],[178.59246,-16.59564],[178.56674,-16.59246],[178.56039,-16.58733]]],[[[179.32814,-16.33359],[179.32814,-16.32659],[179.36231,-16.32659],[179.37664,-16.32887],[179.38966,-16.33359],[179.37745,-16.33904],[179.36118,-16.34075],[179.34376,-16.33896],[179.32814,-16.33359]]],[[[177.00587,-12.48952],[177.02084,-12.49358],[177.03297,-12.49139],[177.05974,-12.47527],[177.07521,-12.48065],[177.11118,-12.48065],[177.12477,-12.4861],[177.12908,-12.50164],[177.11362,-12.51141],[177.09107,-12.51637],[177.07342,-12.51686],[177.04363,-12.50848],[177.02711,-12.50726],[177.01148,-12.50945],[177.00587,-12.48952]]],[[[174.58888,-21.68157],[174.59401,-21.66871],[174.61411,-21.66823],[174.62664,-21.67653],[174.6312,-21.68963],[174.62778,-21.70257],[174.6159,-21.71111],[174.59685,-21.69842],[174.58888,-21.68157]]],[[[-178.73103,-20.65765],[-178.7303,-20.65008],[-178.72496,-20.64235],[-178.72423,-20.65097],[-178.72081,-20.65928],[-178.71528,-20.66619],[-178.70812,-20.67132],[-178.71907,-20.67099],[-178.72724,-20.66473],[-178.73103,-20.65765]]],[[[-178.23054,-19.83522],[-178.22895,-19.82903],[-178.21614,-19.8152],[-178.22004,-19.8279],[-178.2268,-19.84002],[-178.23054,-19.83522]]],[[[-178.42199,-19.17376],[-178.40111,-19.13348],[-178.39293,-19.12754],[-178.38927,-19.14642],[-178.39196,-19.16578],[-178.39961,-19.17099],[-178.40937,-19.17181],[-178.41881,-19.17864],[-178.4217,-19.1762],[-178.42199,-19.17376]]],[[[-178.93061,-18.88209],[-178.9073,-18.86403],[-178.89399,-18.8576],[-178.87987,-18.85426],[-178.89379,-18.87225],[-178.90722,-18.88152],[-178.91487,-18.88405],[-178.9226,-18.88437],[-178.93061,-18.88209]]],[[[-178.51631,-18.65],[-178.5111,-18.63795],[-178.49922,-18.63372],[-178.48799,-18.64137],[-178.48607,-18.65179],[-178.49031,-18.66074],[-178.49812,-18.66595],[-178.50715,-18.66522],[-178.51631,-18.65]]],[[[-179.33613,-17.75848],[-179.33422,-17.74],[-179.3203,-17.72487],[-179.29808,-17.72324],[-179.27973,-17.73944],[-179.28075,-17.76019],[-179.29646,-17.77418],[-179.32258,-17.7702],[-179.33613,-17.75848]]],[[[-179.17549,-17.43971],[-179.16601,-17.42555],[-179.14558,-17.42425],[-179.13471,-17.43532],[-179.13081,-17.45371],[-179.13707,-17.46893],[-179.15661,-17.47137],[-179.1728,-17.45794],[-179.17549,-17.43971]]],[[[-179.1573,-17.27272],[-179.15669,-17.25408],[-179.14647,-17.24798],[-179.13439,-17.25213],[-179.12788,-17.26491],[-179.13081,-17.27703],[-179.13927,-17.2833],[-179.14948,-17.28216],[-179.1573,-17.27272]]]]},"source":"Natural Earth Admin 0 Countries, 1:10m, version 5.1.1","sourceUrl":"https://www.naturalearthdata.com/downloads/10m-cultural-vectors/10m-admin-0-countries/"}
