{"type":"Feature","properties":{"isoA2":"FM","name":"Federated States of Micronesia"},"geometry":{"type":"MultiPolygon","coordinates":[[[[162.91212,5.30419],[162.92408,5.32103],[162.97145,5.36176],[162.99073,5.37482],[163.01059,5.37971],[163.02605,5.36884],[163.02735,5.3627],[163.02605,5.34089],[163.03045,5.33568],[163.04371,5.33096],[163.04656,5.32355],[163.04298,5.31094],[163.02573,5.28001],[163.01922,5.27269],[163.00554,5.26976],[162.98146,5.27766],[162.96762,5.28018],[162.94597,5.28001],[162.93133,5.28193],[162.91619,5.28693],[162.91212,5.30419]]],[[[158.12582,6.90742],[158.1325,6.94135],[158.14186,6.95099],[158.16114,6.95136],[158.17823,6.95604],[158.18092,6.97895],[158.20167,6.97004],[158.20826,6.96528],[158.21803,6.97085],[158.24236,6.96528],[158.26735,6.96638],[158.27662,6.96528],[158.27735,6.9632],[158.29396,6.9523],[158.29705,6.95165],[158.30348,6.94286],[158.30079,6.94074],[158.29078,6.93797],[158.29623,6.92813],[158.3047,6.92438],[158.31471,6.92577],[158.32496,6.93114],[158.33823,6.8791],[158.33863,6.86909],[158.33074,6.8666],[158.30885,6.86848],[158.30445,6.86595],[158.30641,6.85521],[158.3156,6.83662],[158.31756,6.82469],[158.31381,6.80866],[158.30453,6.7993],[158.29249,6.79507],[158.24448,6.78827],[158.22535,6.7895],[158.2151,6.80077],[158.19353,6.79344],[158.18019,6.80248],[158.17058,6.81753],[158.16049,6.82811],[158.16456,6.84121],[158.16603,6.85399],[158.16293,6.86579],[158.15309,6.87592],[158.16049,6.8902],[158.13299,6.89191],[158.12582,6.90742]]],[[[151.56813,7.34268],[151.57423,7.34772],[151.5818,7.34886],[151.59107,7.35342],[151.61736,7.35895],[151.62273,7.36591],[151.61842,7.37588],[151.59693,7.37275],[151.58863,7.38361],[151.62241,7.39175],[151.6364,7.38711],[151.65016,7.36937],[151.65073,7.35423],[151.64454,7.33609],[151.63429,7.32787],[151.62273,7.34268],[151.6159,7.34268],[151.60743,7.33613],[151.59596,7.33674],[151.56813,7.34268]]],[[[151.85564,7.43696],[151.85678,7.44717],[151.86305,7.46556],[151.87029,7.46353],[151.87672,7.45873],[151.8838,7.46357],[151.90317,7.45954],[151.91765,7.45873],[151.90748,7.44693],[151.89064,7.43525],[151.87192,7.42674],[151.85621,7.42463],[151.85564,7.43696]]],[[[138.06381,9.4361],[138.07301,9.4704],[138.08912,9.50117],[138.11297,9.52147],[138.12127,9.55488],[138.12623,9.56598],[138.14112,9.57437],[138.14723,9.56737],[138.15008,9.54116],[138.15496,9.56074],[138.15919,9.56953],[138.1644,9.57587],[138.18491,9.58881],[138.19361,9.58885],[138.19239,9.57587],[138.18165,9.55874],[138.18426,9.54438],[138.19752,9.53901],[138.21901,9.54857],[138.21412,9.53706],[138.2024,9.52119],[138.18873,9.50682],[138.17799,9.50019],[138.16407,9.50483],[138.15659,9.52578],[138.14381,9.52131],[138.13445,9.51187],[138.07985,9.42544],[138.06813,9.41206],[138.06381,9.4361]]],[[[154.7986,0.92446],[154.80299,0.92707],[154.80812,0.9278],[154.8143,0.92577],[154.81764,0.92219],[154.81284,0.91816],[154.80177,0.9182],[154.7986,0.92446]]],[[[154.71485,0.96556],[154.72193,0.96918],[154.73292,0.96703],[154.72682,0.96064],[154.7151,0.96137],[154.71485,0.96556]]],[[[154.77817,0.96882],[154.77849,0.9737],[154.78435,0.97549],[154.79314,0.97211],[154.79656,0.96581],[154.79233,0.96288],[154.7837,0.96369],[154.77817,0.96882]]],[[[154.87924,3.75194],[154.87672,3.76797],[154.89186,3.7788],[154.8943,3.76284],[154.87924,3.75194]]],[[[154.78932,3.79182],[154.79176,3.77656],[154.77369,3.76626],[154.77125,3.78148],[154.78932,3.79182]]],[[[153.66773,5.28604],[153.67172,5.29767],[153.68531,5.30972],[153.70086,5.31696],[153.7107,5.3146],[153.70769,5.30537],[153.6941,5.29645],[153.66773,5.28604]]],[[[157.15846,5.7792],[157.16391,5.77871],[157.16188,5.77387],[157.15846,5.7792]]],[[[149.31577,6.69693],[149.3169,6.70991],[149.31886,6.71507],[149.3235,6.71947],[149.32569,6.71255],[149.32472,6.7071],[149.31577,6.69693]]],[[[157.93637,6.71719],[157.93922,6.72736],[157.94207,6.73054],[157.9489,6.73168],[157.94825,6.72577],[157.94581,6.7226],[157.93637,6.71719]]],[[[151.8532,7.35383],[151.8545,7.37006],[151.86264,7.36176],[151.86557,7.35065],[151.86524,7.33877],[151.85678,7.3166],[151.8532,7.35383]]],[[[149.18084,7.38117],[149.18727,7.38158],[149.18824,7.37979],[149.18572,7.37165],[149.18084,7.38117]]],[[[150.40463,8.58601],[150.40935,8.58466],[150.40748,8.57551],[150.40463,8.58601]]],[[[149.66529,8.58759],[149.66782,8.60423],[149.67555,8.61644],[149.68727,8.61603],[149.68881,8.60733],[149.68295,8.59431],[149.66871,8.57469],[149.66529,8.58759]]],[[[150.11818,8.9763],[150.12428,8.9855],[150.12745,8.98749],[150.13299,8.98607],[150.13054,8.98094],[150.11818,8.9763]]],[[[140.51417,9.76781],[140.52174,9.77473],[140.53126,9.77558],[140.53289,9.77192],[140.52467,9.76447],[140.51539,9.76118],[140.51417,9.76781]]]]},"source":"Natural Earth Admin 0 Countries, 1:10m, version 5.1.1","sourceUrl":"https://www.naturalearthdata.com/downloads/10m-cultural-vectors/10m-admin-0-countries/"}
