{"type":"Feature","properties":{"isoA2":"GD","name":"Grenada"},"geometry":{"type":"MultiPolygon","coordinates":[[[[-61.79052,12.00837],[-61.75585,12.03026],[-61.7495,12.03632],[-61.74596,12.05093],[-61.75377,12.07416],[-61.75642,12.08784],[-61.75105,12.11009],[-61.73029,12.14932],[-61.72964,12.16665],[-61.67146,12.23607],[-61.6505,12.23973],[-61.62768,12.23672],[-61.60603,12.22338],[-61.60668,12.22028],[-61.61295,12.21442],[-61.60456,12.19745],[-61.60277,12.18293],[-61.60631,12.13377],[-61.61978,12.10456],[-61.61946,12.09675],[-61.61384,12.08039],[-61.61636,12.0773],[-61.62157,12.07494],[-61.6245,12.06904],[-61.62605,12.05305],[-61.63158,12.04409],[-61.67443,12.02204],[-61.67443,12.02949],[-61.68297,12.02538],[-61.68936,12.01976],[-61.69343,12.01227],[-61.69494,12.00283],[-61.71325,12.00727],[-61.72964,12.01581],[-61.73998,12.0069],[-61.75695,12.0034],[-61.77554,12.00434],[-61.79052,12.00837]]],[[[-61.49625,12.44037],[-61.48266,12.46833],[-61.49625,12.46833],[-61.48888,12.482],[-61.46728,12.47557],[-61.45434,12.49282],[-61.44347,12.51655],[-61.42805,12.52973],[-61.42162,12.51337],[-61.42333,12.49518],[-61.4274,12.47541],[-61.42805,12.45466],[-61.44567,12.45978],[-61.46255,12.45515],[-61.47924,12.44672],[-61.49625,12.44037]]]]},"source":"Natural Earth Admin 0 Countries, 1:10m, version 5.1.1","sourceUrl":"https://www.naturalearthdata.com/downloads/10m-cultural-vectors/10m-admin-0-countries/"}
