{"type":"Feature","properties":{"isoA2":"GG","name":"Guernsey"},"geometry":{"type":"MultiPolygon","coordinates":[[[[-2.67345,49.4335],[-2.67077,49.43879],[-2.66295,49.44379],[-2.65184,49.44522],[-2.65657,49.45942],[-2.65026,49.46369],[-2.62462,49.46572],[-2.58023,49.4936],[-2.55956,49.49934],[-2.5382,49.50983],[-2.51822,49.51553],[-2.5017,49.50666],[-2.50577,49.49799],[-2.52212,49.47997],[-2.52672,49.45848],[-2.53295,49.44286],[-2.53279,49.43891],[-2.53409,49.43623],[-2.54198,49.43089],[-2.55207,49.4267],[-2.57311,49.43089],[-2.66934,49.43089],[-2.67345,49.4335]]],[[[-2.37808,49.41275],[-2.37312,49.42426],[-2.37588,49.43041],[-2.37548,49.43545],[-2.36376,49.44685],[-2.35635,49.44038],[-2.3544,49.4278],[-2.37352,49.41157],[-2.37808,49.41275]]],[[[-2.22623,49.70783],[-2.21849,49.71869],[-2.2047,49.72411],[-2.19481,49.7248],[-2.17862,49.7309],[-2.17447,49.73139],[-2.17032,49.72875],[-2.17032,49.72321],[-2.1879,49.71064],[-2.20084,49.70571],[-2.21687,49.70303],[-2.22623,49.70783]]],[[[-2.45507,49.47504],[-2.45368,49.48188],[-2.44782,49.48395],[-2.44522,49.4746],[-2.45336,49.46214],[-2.45507,49.47504]]]]},"source":"Natural Earth Admin 0 Countries, 1:10m, version 5.1.1","sourceUrl":"https://www.naturalearthdata.com/downloads/10m-cultural-vectors/10m-admin-0-countries/"}
