{"type":"Feature","properties":{"isoA2":"GH","name":"Ghana"},"geometry":{"type":"Polygon","coordinates":[[[-3.26251,6.61714],[-3.26111,6.63394],[-3.25391,6.64443],[-3.23548,6.65458],[-3.23006,6.66112],[-3.21042,6.716],[-3.22623,6.74858],[-3.23874,6.76463],[-3.24308,6.77476],[-3.24168,6.8109],[-3.22494,6.8494],[-3.1096,7.04639],[-3.09546,7.05518],[-3.04593,7.07125],[-3.04087,7.07833],[-3.0326,7.12835],[-3.02754,7.13843],[-2.9817,7.19553],[-2.97281,7.21496],[-2.97209,7.2286],[-2.98322,7.24498],[-2.98953,7.25894],[-2.99046,7.27067],[-2.94152,7.57716],[-2.92816,7.61768],[-2.85595,7.77157],[-2.83817,7.79684],[-2.83791,7.80226],[-2.84083,7.81524],[-2.84,7.82025],[-2.8314,7.82836],[-2.80915,7.84169],[-2.80119,7.85022],[-2.79789,7.86128],[-2.79355,7.93595],[-2.79063,7.94329],[-2.78435,7.94401],[-2.77768,7.93962],[-2.77122,7.93073],[-2.75489,7.94437],[-2.70926,7.99672],[-2.69087,8.00975],[-2.63118,8.02959],[-2.61056,8.04],[-2.60069,8.05295],[-2.59976,8.07039],[-2.60622,8.09431],[-2.61945,8.1231],[-2.62188,8.13573],[-2.61764,8.15149],[-2.61066,8.16485],[-2.60426,8.17079],[-2.59599,8.17028],[-2.58327,8.16433],[-2.57175,8.16312],[-2.55811,8.16769],[-2.5132,8.19402],[-2.50633,8.20927],[-2.59836,8.76947],[-2.60312,8.78515],[-2.61216,8.78096],[-2.61723,8.78918],[-2.61464,8.80192],[-2.60725,8.80856],[-2.59666,8.8144],[-2.59557,8.82807],[-2.61593,8.89783],[-2.61717,8.91501],[-2.61945,8.92362],[-2.63175,8.92698],[-2.63769,8.93147],[-2.6533,8.97839],[-2.65433,8.99883],[-2.66079,9.0149],[-2.68606,9.02826],[-2.71133,9.03389],[-2.73696,9.03513],[-2.75081,9.03741],[-2.76507,9.04947],[-2.77484,9.05498],[-2.76543,9.06911],[-2.7613,9.08479],[-2.75939,9.13482],[-2.7552,9.14314],[-2.73391,9.16484],[-2.7165,9.20027],[-2.70482,9.21841],[-2.67309,9.23489],[-2.66115,9.25391],[-2.65981,9.2729],[-2.67552,9.2815],[-2.69298,9.28533],[-2.70714,9.29564],[-2.715,9.31106],[-2.71334,9.32992],[-2.70306,9.34325],[-2.67753,9.357],[-2.67242,9.37403],[-2.67242,9.401],[-2.67867,9.42555],[-2.67459,9.45749],[-2.67567,9.47172],[-2.72528,9.53386],[-2.76109,9.56624],[-2.76626,9.57652],[-2.76802,9.5928],[-2.76647,9.6089],[-2.76151,9.62525],[-2.75293,9.6399],[-2.74016,9.65083],[-2.75102,9.65918],[-2.75546,9.6775],[-2.76052,9.68559],[-2.76926,9.68993],[-2.78032,9.69024],[-2.78848,9.69925],[-2.7953,9.72],[-2.79158,9.74093],[-2.77484,9.77434],[-2.74027,9.81261],[-2.73391,9.82279],[-2.73675,9.83258],[-2.76052,9.87054],[-2.76486,9.89575],[-2.75556,9.94115],[-2.75438,9.96678],[-2.76089,9.98477],[-2.78357,10.01851],[-2.78848,10.03877],[-2.78848,10.12445],[-2.79892,10.16961],[-2.79846,10.18953],[-2.78538,10.2101],[-2.76512,10.22584],[-2.75768,10.23465],[-2.75438,10.24795],[-2.75494,10.2608],[-2.75835,10.26612],[-2.77484,10.27524],[-2.78445,10.27881],[-2.79318,10.27855],[-2.79967,10.28092],[-2.8021,10.29232],[-2.80569,10.29901],[-2.82445,10.30222],[-2.83318,10.30599],[-2.8413,10.32229],[-2.8413,10.34327],[-2.83628,10.36366],[-2.82946,10.37828],[-2.82233,10.38758],[-2.81463,10.39371],[-2.80494,10.39712],[-2.792,10.39815],[-2.78104,10.40241],[-2.77189,10.41182],[-2.76755,10.4212],[-2.77143,10.42549],[-2.79587,10.42611],[-2.81215,10.42882],[-2.82445,10.43502],[-2.85956,10.46562],[-2.86739,10.47825],[-2.87044,10.49778],[-2.89152,10.52166],[-2.89421,10.53143],[-2.89587,10.55277],[-2.89829,10.56261],[-2.92827,10.61522],[-2.9325,10.63431],[-2.92966,10.64421],[-2.91625,10.66808],[-2.91015,10.68449],[-2.90511,10.69273],[-2.90514,10.69919],[-2.90803,10.70364],[-2.91891,10.70661],[-2.92232,10.72121],[-2.91927,10.7272],[-2.90858,10.73767],[-2.9031,10.74715],[-2.89948,10.76999],[-2.88266,10.79707],[-2.87163,10.84345],[-2.86424,10.86427],[-2.8508,10.87954],[-2.83486,10.89161],[-2.8214,10.90626],[-2.81577,10.92915],[-2.82176,10.9483],[-2.83272,10.96602],[-2.83871,10.98512],[-2.83595,10.99222],[-2.83734,10.99801],[-2.75112,10.99646],[-2.75071,10.98584],[-1.59868,10.99713],[-1.587,11.00367],[-1.57982,11.02121],[-1.56241,11.02659],[-1.43606,11.02271],[-1.38035,11.00127],[-1.35529,10.99672],[-1.10755,10.99434],[-1.09871,11.00956],[-1.07034,11.0139],[-0.93247,11.0031],[-0.92405,11.00142],[-0.91645,10.9962],[-0.90948,10.98269],[-0.90436,10.97949],[-0.89392,10.9799],[-0.90059,10.96623],[-0.88317,10.96863],[-0.86079,10.99292],[-0.8394,10.99646],[-0.83366,11.00341],[-0.82777,11.00584],[-0.82214,11.00362],[-0.81697,10.9962],[-0.696,10.99403],[-0.69466,10.98274],[-0.69021,10.98181],[-0.68324,10.98434],[-0.67393,10.98352],[-0.66799,10.97651],[-0.67228,10.96851],[-0.67977,10.96057],[-0.68277,10.9536],[-0.63476,10.90797],[-0.61724,10.91864],[-0.60712,10.94122],[-0.59983,10.96577],[-0.59058,10.98243],[-0.57621,10.98775],[-0.55544,10.98995],[-0.51648,10.98863],[-0.51296,10.98974],[-0.50671,10.99367],[-0.49482,11.0078],[-0.46852,11.02013],[-0.45669,11.02961],[-0.45126,11.04021],[-0.44904,11.06289],[-0.44439,11.07744],[-0.42522,11.10147],[-0.40589,11.10147],[-0.38692,11.0864],[-0.36894,11.06522],[-0.31881,11.10136],[-0.30613,11.11354],[-0.2983,11.12839],[-0.30447,11.14679],[-0.30168,11.16294],[-0.16611,11.13498],[-0.15867,11.11844],[-0.14208,11.10333],[-0.12175,11.09219],[-0.10335,11.08754],[-0.08503,11.0894],[-0.05108,11.09826],[-0.03227,11.09857],[0.00112,11.08599],[0.01621,11.06258],[0.01941,11.03163],[0.01657,10.9962],[0.01419,10.98367],[0.00719,10.9768],[-0.00157,10.97129],[-0.00958,10.963],[-0.01444,10.9536],[-0.03609,10.85314],[-0.03532,10.84345],[-0.0302,10.82379],[-0.03206,10.81316],[-0.04069,10.80503],[-0.0611,10.79136],[-0.07521,10.77366],[-0.08281,10.75622],[-0.08813,10.71441],[-0.09769,10.67501],[-0.09834,10.65416],[-0.08813,10.63349],[-0.07934,10.62625],[-0.06836,10.62106],[-0.05645,10.61801],[-0.03335,10.61506],[-0.01093,10.59827],[0.02034,10.58804],[0.02943,10.58253],[0.03734,10.57318],[0.04902,10.55096],[0.05726,10.54111],[0.11018,10.50825],[0.12602,10.49161],[0.17986,10.39417],[0.18751,10.39495],[0.19707,10.41027],[0.22361,10.39996],[0.23322,10.39862],[0.26301,10.40893],[0.27324,10.4066],[0.28311,10.39681],[0.28355,10.38578],[0.27882,10.36663],[0.29004,10.34849],[0.30707,10.33327],[0.31758,10.31733],[0.3088,10.2971],[0.32275,10.29725],[0.3666,10.30449],[0.37618,10.29994],[0.3966,10.28322],[0.37205,10.26514],[0.36729,10.24981],[0.36443,10.23341],[0.35719,10.22],[0.35885,10.18633],[0.3536,10.11551],[0.36339,10.08967],[0.37608,10.08158],[0.38709,10.07895],[0.39515,10.07236],[0.39815,10.05213],[0.39391,10.03249],[0.38275,10.0296],[0.36729,10.03213],[0.34978,10.02882],[0.35572,10.01898],[0.35513,10.01262],[0.35174,10.00642],[0.34978,9.99717],[0.35143,9.99045],[0.36339,9.96678],[0.37019,9.94702],[0.36957,9.93883],[0.34978,9.91896],[0.34171,9.90379],[0.33967,9.88984],[0.3442,9.84976],[0.34389,9.83839],[0.32244,9.76067],[0.32389,9.74207],[0.32913,9.73129],[0.34296,9.71354],[0.34761,9.69884],[0.34988,9.68065],[0.34709,9.66316],[0.33665,9.65083],[0.31872,9.64861],[0.30192,9.65784],[0.27529,9.68559],[0.26097,9.65716],[0.26169,9.62794],[0.27764,9.60699],[0.3088,9.60368],[0.34936,9.61391],[0.36916,9.61014],[0.37773,9.58942],[0.37081,9.57564],[0.35461,9.5711],[0.33616,9.5742],[0.32244,9.58314],[0.30456,9.57156],[0.28053,9.57017],[0.2302,9.57575],[0.22774,9.56934],[0.22307,9.54118],[0.2234,9.53479],[0.22591,9.53193],[0.24312,9.5187],[0.2535,9.51425],[0.27901,9.51901],[0.29314,9.51828],[0.30192,9.50746],[0.2981,9.4971],[0.28531,9.48836],[0.26973,9.48234],[0.22805,9.47397],[0.22795,9.45973],[0.23498,9.44377],[0.22681,9.43234],[0.23136,9.41896],[0.24989,9.41695],[0.26849,9.42064],[0.31422,9.43648],[0.32182,9.44284],[0.32575,9.45134],[0.3288,9.47157],[0.33378,9.47947],[0.34895,9.48604],[0.37143,9.49002],[0.41166,9.49224],[0.43044,9.48919],[0.48351,9.47002],[0.48992,9.46113],[0.49168,9.45129],[0.48941,9.44103],[0.48279,9.42788],[0.51328,9.41679],[0.53137,9.40111],[0.53757,9.37765],[0.52827,9.32695],[0.52661,9.29765],[0.52248,9.28507],[0.51235,9.27471],[0.50109,9.2682],[0.49292,9.25861],[0.49199,9.23889],[0.50439,9.20311],[0.5047,9.18717],[0.49261,9.16675],[0.46998,9.14673],[0.46365,9.13709],[0.46375,9.12146],[0.45848,9.08924],[0.44155,9.05818],[0.43127,9.02759],[0.44468,8.99656],[0.49313,8.91522],[0.50563,8.86633],[0.48351,8.83481],[0.47845,8.82233],[0.477,8.80675],[0.47349,8.79355],[0.46248,8.7883],[0.43013,8.79474],[0.41959,8.79125],[0.42497,8.78732],[0.4183,8.7706],[0.40781,8.75905],[0.39711,8.78153],[0.38528,8.78608],[0.37267,8.78375],[0.36587,8.77427],[0.37443,8.72477],[0.40373,8.66208],[0.44352,8.60687],[0.48351,8.57979],[0.50057,8.56018],[0.52475,8.53803],[0.5508,8.51933],[0.61632,8.48876],[0.63379,8.45202],[0.64671,8.41417],[0.68505,8.38256],[0.68939,8.34605],[0.68919,8.3313],[0.69312,8.32789],[0.7051,8.32598],[0.70883,8.32257],[0.71275,8.29797],[0.70521,8.28275],[0.68919,8.27285],[0.64506,8.25343],[0.62831,8.24247],[0.59503,8.21273],[0.58666,8.20875],[0.57901,8.20782],[0.57385,8.20394],[0.57271,8.191],[0.57684,8.18048],[0.59152,8.16449],[0.59328,8.15067],[0.5878,8.13772],[0.57994,8.1317],[0.57498,8.12462],[0.58025,8.10008],[0.58397,8.05305],[0.59317,8.01574],[0.59286,7.95931],[0.6034,7.8883],[0.60258,7.82841],[0.61167,7.77126],[0.6095,7.71896],[0.61229,7.69943],[0.58335,7.70428],[0.57054,7.68393],[0.56744,7.65292],[0.56775,7.62574],[0.56206,7.6123],[0.54852,7.60538],[0.53251,7.60104],[0.51938,7.5952],[0.50925,7.58538],[0.50305,7.57468],[0.49943,7.56238],[0.49561,7.5043],[0.50057,7.45505],[0.51669,7.41102],[0.54821,7.38327],[0.5664,7.38079],[0.58625,7.38436],[0.62304,7.3979],[0.62966,7.38916],[0.64568,7.32358],[0.64444,7.30193],[0.6311,7.26524],[0.6218,7.21884],[0.59772,7.15889],[0.59431,7.11972],[0.59875,7.07471],[0.59803,7.0312],[0.57891,6.99678],[0.56599,6.98965],[0.52382,6.9787],[0.50915,6.97761],[0.49457,6.97312],[0.50605,6.95782],[0.53447,6.93591],[0.54625,6.91477],[0.54387,6.89793],[0.52279,6.86284],[0.51607,6.84181],[0.51928,6.83225],[0.54108,6.81718],[0.57002,6.76352],[0.57664,6.75473],[0.59379,6.75111],[0.61126,6.74153],[0.62583,6.72776],[0.63431,6.71161],[0.63534,6.69538],[0.62666,6.64489],[0.63224,6.62399],[0.65942,6.60172],[0.66821,6.58583],[0.70552,6.58577],[0.71461,6.58391],[0.72743,6.57144],[0.72681,6.56211],[0.71978,6.55273],[0.71347,6.53999],[0.71172,6.51338],[0.71792,6.48883],[0.72991,6.46509],[0.74572,6.4409],[0.7668,6.41935],[0.81621,6.39506],[0.84132,6.37922],[0.87388,6.34013],[0.8868,6.33039],[0.90726,6.32491],[0.98354,6.3246],[1.00968,6.24445],[1.02519,6.22233],[1.03315,6.21655],[1.04813,6.20939],[1.05578,6.20063],[1.06891,6.18035],[1.07966,6.16792],[1.0934,6.16092],[1.17619,6.15151],[1.18797,6.13565],[1.18539,6.10049],[1.13307,6.07364],[1.09881,6.04702],[1.04802,5.99266],[1.03639,5.97516],[1.01173,5.92626],[1.00709,5.90668],[1.00563,5.88605],[0.99529,5.83934],[0.98658,5.82075],[0.95485,5.79108],[0.9144,5.77709],[0.72348,5.75544],[0.36492,5.78148],[0.32195,5.7792],[0.29811,5.77367],[0.28598,5.76887],[0.28093,5.76301],[0.27589,5.76016],[0.25172,5.7591],[0.24334,5.75617],[0.22438,5.74262],[0.1574,5.72455],[0.1421,5.71426],[0.11459,5.68867],[0.07569,5.67756],[0.0617,5.66283],[0.05063,5.64476],[0.03452,5.62836],[-0.04503,5.60163],[-0.06859,5.5812],[-0.07738,5.57807],[-0.09325,5.57665],[-0.30785,5.50739],[-0.3531,5.50169],[-0.37157,5.49274],[-0.44506,5.43138],[-0.45287,5.42011],[-0.45812,5.40473],[-0.47159,5.39081],[-0.50744,5.36884],[-0.57738,5.35163],[-0.58935,5.35151],[-0.61286,5.33202],[-0.62947,5.32673],[-0.63777,5.34089],[-0.68952,5.30476],[-0.7023,5.29999],[-0.76073,5.25218],[-0.7845,5.22427],[-0.79955,5.21483],[-0.87389,5.20401],[-0.89684,5.20502],[-0.91149,5.218],[-0.91828,5.20942],[-0.92772,5.20612],[-0.95246,5.20441],[-0.97655,5.19831],[-0.98839,5.1988],[-0.99706,5.21678],[-1.00503,5.21455],[-1.01732,5.20441],[-1.0338,5.20295],[-1.04979,5.19868],[-1.15412,5.15388],[-1.1647,5.13923],[-1.17365,5.13056],[-1.19408,5.1186],[-1.23363,5.10074],[-1.25414,5.0965],[-1.31924,5.09455],[-1.32999,5.09154],[-1.35314,5.07779],[-1.364,5.07343],[-1.40494,5.07343],[-1.42345,5.06745],[-1.45971,5.04975],[-1.52929,5.03986],[-1.55187,5.0314],[-1.56949,5.01879],[-1.58385,5.02538],[-1.60147,5.02668],[-1.61848,5.02245],[-1.63085,5.01264],[-1.63244,5.00454],[-1.62548,4.98949],[-1.62776,4.98159],[-1.63402,4.97443],[-1.63817,4.97069],[-1.70665,4.93692],[-1.71882,4.92768],[-1.74767,4.8959],[-1.74991,4.88858],[-1.74812,4.8819],[-1.74861,4.87718],[-1.76675,4.8747],[-1.83544,4.85513],[-1.9121,4.82087],[-1.92809,4.80679],[-1.95226,4.77245],[-1.96728,4.75812],[-1.98144,4.75243],[-2.05036,4.74364],[-2.06383,4.73819],[-2.09057,4.73713],[-2.09659,4.73847],[-2.10387,4.74506],[-2.10668,4.75536],[-2.10562,4.76655],[-2.10798,4.77558],[-2.14415,4.78498],[-2.15538,4.78608],[-2.15437,4.79068],[-2.16373,4.80052],[-2.20629,4.83446],[-2.22741,4.84341],[-2.23705,4.84919],[-2.24283,4.86538],[-2.25276,4.87914],[-2.3566,4.91962],[-2.52579,4.95441],[-2.69042,5.0102],[-2.82087,5.02009],[-2.965,5.04532],[-3.10375,5.08771],[-3.11962,5.09133],[-3.11531,5.10782],[-3.09899,5.11323],[-3.08764,5.11498],[-3.0161,5.11445],[-2.9945,5.10814],[-2.98852,5.10224],[-2.97631,5.08462],[-2.97094,5.08088],[-2.95775,5.08267],[-2.92634,5.09455],[-2.92903,5.12202],[-2.90123,5.13361],[-2.86531,5.13931],[-2.8437,5.14912],[-2.80385,5.14757],[-2.78089,5.15088],[-2.76662,5.16103],[-2.75701,5.17987],[-2.77882,5.201],[-2.77964,5.21012],[-2.77489,5.23958],[-2.77934,5.25108],[-2.79329,5.2711],[-2.79613,5.28498],[-2.78957,5.34686],[-2.75587,5.34071],[-2.74259,5.34314],[-2.73267,5.35572],[-2.73014,5.37316],[-2.73443,5.39114],[-2.76171,5.45491],[-2.77944,5.52649],[-2.78181,5.57888],[-2.78559,5.59503],[-2.79344,5.60813],[-2.80626,5.6185],[-2.87749,5.63682],[-2.89375,5.63035],[-2.9263,5.61072],[-2.94586,5.60829],[-2.9695,5.62144],[-2.9749,5.64728],[-2.9648,5.70978],[-3.02976,5.70425],[-3.01997,5.81835],[-3.02252,5.8545],[-3.03472,5.8907],[-3.07324,5.96096],[-3.08777,5.99669],[-3.11807,6.16348],[-3.13936,6.21929],[-3.16879,6.24605],[-3.1836,6.26391],[-3.26251,6.61714]]]},"source":"Natural Earth Admin 0 Countries, 1:10m, version 5.1.1","sourceUrl":"https://www.naturalearthdata.com/downloads/10m-cultural-vectors/10m-admin-0-countries/"}
