{"type":"Feature","properties":{"isoA2":"GU","name":"Guam"},"geometry":{"type":"Polygon","coordinates":[[[144.6242,13.43122],[144.62867,13.43879],[144.63648,13.4431],[144.64064,13.43781],[144.65447,13.43915],[144.71485,13.47346],[144.72877,13.48558],[144.78346,13.51667],[144.79412,13.52709],[144.80323,13.53913],[144.81121,13.55362],[144.8322,13.62067],[144.83863,13.63276],[144.85043,13.64374],[144.86671,13.65302],[144.88063,13.65412],[144.89666,13.61799],[144.91432,13.60541],[144.93442,13.59984],[144.95192,13.59858],[144.95216,13.58686],[144.93767,13.56053],[144.90699,13.51667],[144.87184,13.48517],[144.80828,13.44579],[144.78346,13.42048],[144.76938,13.37914],[144.7601,13.28563],[144.73561,13.24917],[144.71803,13.24185],[144.69752,13.24103],[144.68068,13.24677],[144.67042,13.26484],[144.65357,13.28701],[144.64747,13.3249],[144.6395,13.33747],[144.62631,13.34536],[144.63657,13.35541],[144.64308,13.36571],[144.64649,13.37848],[144.64747,13.39623],[144.64552,13.40449],[144.63478,13.42353],[144.6242,13.43122]]]},"source":"Natural Earth Admin 0 Countries, 1:10m, version 5.1.1","sourceUrl":"https://www.naturalearthdata.com/downloads/10m-cultural-vectors/10m-admin-0-countries/"}
