{"type":"Feature","properties":{"isoA2":"IL","name":"Israel"},"geometry":{"type":"Polygon","coordinates":[[[34.24835,31.21145],[34.2644,31.22419],[34.31587,31.2569],[34.3509,31.28925],[34.3538,31.30636],[34.34553,31.34072],[34.34584,31.35772],[34.36734,31.39281],[34.48041,31.48562],[34.4957,31.49441],[34.55603,31.53983],[34.52013,31.55833],[34.4812,31.58314],[34.48951,31.60041],[34.51393,31.62714],[34.60271,31.75776],[34.60963,31.76553],[34.69321,31.92646],[34.71193,31.95161],[34.74334,32.03986],[34.74334,32.06037],[34.75701,32.0666],[34.83766,32.28071],[34.90414,32.56061],[34.90984,32.57026],[34.91586,32.61489],[34.92091,32.62824],[34.91912,32.64297],[34.94207,32.72451],[34.94752,32.81415],[34.95558,32.83438],[34.97047,32.84138],[34.98316,32.83877],[35.00343,32.82754],[35.01873,32.82502],[35.02768,32.82661],[35.06276,32.85834],[35.06707,32.86685],[35.0796,32.90583],[35.07781,32.91787],[35.06544,32.92308],[35.07154,32.93793],[35.07846,32.99885],[35.09197,33.03119],[35.0962,33.05036],[35.09213,33.06769],[35.10646,33.08076],[35.09962,33.08759],[35.10524,33.08902],[35.18527,33.08398],[35.20067,33.09274],[35.20718,33.0948],[35.23447,33.09093],[35.27147,33.10119],[35.28366,33.10119],[35.29462,33.09697],[35.30578,33.08938],[35.3157,33.07922],[35.32263,33.06736],[35.33193,33.05716],[35.34516,33.05558],[35.40159,33.06793],[35.44944,33.08522],[35.48014,33.08739],[35.4851,33.10261],[35.5037,33.13061],[35.51228,33.14741],[35.51766,33.17289],[35.52003,33.22219],[35.52778,33.24425],[35.54949,33.28102],[35.56117,33.28213],[35.58504,33.25221],[35.60385,33.24009],[35.60458,33.24435],[35.61806,33.25612],[35.62006,33.26954],[35.63109,33.27457],[35.65214,33.27666],[35.66049,33.28926],[35.69852,33.32267],[35.74369,33.33117],[35.76942,33.34264],[35.78575,33.35789],[35.8057,33.39135],[35.8211,33.40672],[35.82244,33.40137],[35.81697,33.3952],[35.81542,33.37887],[35.81231,33.37336],[35.80994,33.36003],[35.79351,33.34993],[35.78575,33.34287],[35.76384,33.3344],[35.80208,33.31249],[35.7686,33.2727],[35.77562,33.2649],[35.80363,33.24846],[35.80766,33.20172],[35.8302,33.18999],[35.8334,33.16113],[35.82244,33.14157],[35.81149,33.12676],[35.81149,33.11191],[35.8489,33.09868],[35.8458,33.08542],[35.85903,32.99021],[35.86461,32.97773],[35.88807,32.94494],[35.87402,32.92233],[35.86689,32.92078],[35.84973,32.89582],[35.83805,32.86603],[35.84187,32.85358],[35.83423,32.82795],[35.7842,32.77795],[35.75759,32.74435],[35.74018,32.74054],[35.68519,32.71123],[35.65201,32.68617],[35.636,32.67914],[35.61176,32.6819],[35.59383,32.67036],[35.57874,32.65343],[35.56985,32.64677],[35.56272,32.64421],[35.56055,32.6409],[35.56003,32.63269],[35.56406,32.62548],[35.57254,32.62124],[35.57254,32.61501],[35.56561,32.61501],[35.56561,32.60755],[35.5713,32.59855],[35.5744,32.57277],[35.57998,32.56039],[35.5744,32.5544],[35.57254,32.56039],[35.56561,32.5461],[35.55941,32.55295],[35.56282,32.53202],[35.56561,32.52559],[35.55197,32.52559],[35.55197,32.51882],[35.56137,32.51918],[35.57057,32.50603],[35.57998,32.49773],[35.57998,32.49148],[35.57099,32.48921],[35.56499,32.48391],[35.55941,32.4704],[35.56809,32.46497],[35.57254,32.46419],[35.57254,32.45673],[35.55941,32.45053],[35.56561,32.44371],[35.55197,32.43621],[35.55786,32.43412],[35.55941,32.42944],[35.55197,32.42944],[35.55197,32.42324],[35.55817,32.418],[35.5591,32.41397],[35.55486,32.41118],[35.54515,32.40957],[35.54959,32.39854],[35.56096,32.38472],[35.45668,32.40761],[35.4328,32.40826],[35.40686,32.41479],[35.40138,32.44001],[35.4018,32.47096],[35.39291,32.49448],[35.36314,32.51011],[35.33338,32.51308],[35.27044,32.51047],[35.25225,32.51595],[35.22372,32.5359],[35.20863,32.54264],[35.19075,32.54171],[35.1768,32.53269],[35.15168,32.50791],[35.12068,32.49133],[35.0907,32.47923],[35.06435,32.46314],[35.04471,32.43412],[35.0288,32.36516],[35.02156,32.34459],[35.00068,32.33573],[34.99655,32.32304],[34.99304,32.29157],[34.98994,32.27847],[35.00244,32.27514],[35.00937,32.26764],[35.01112,32.2571],[35.00761,32.24439],[35.00027,32.23201],[34.96141,32.20158],[34.95822,32.18645],[34.96268,32.17346],[34.97704,32.14999],[34.98694,32.12399],[34.98422,32.08958],[35.00724,32.02077],[34.99677,32.0111],[34.99883,31.9939],[34.99784,31.97878],[34.98669,31.96723],[35.00122,31.94962],[35.00773,31.94492],[35.00378,31.93921],[35.00542,31.93377],[35.01635,31.92659],[35.0299,31.92443],[35.03901,31.90864],[35.03432,31.86111],[35.03011,31.85701],[35.00657,31.85606],[34.99854,31.85384],[34.97874,31.83733],[34.97743,31.83337],[34.98031,31.83132],[35.00155,31.8285],[35.01294,31.82934],[35.02749,31.83273],[35.04562,31.84827],[35.05602,31.85332],[35.07632,31.85416],[35.08809,31.84813],[35.09759,31.83127],[35.11247,31.82396],[35.12139,31.82484],[35.13696,31.81429],[35.17392,31.80755],[35.18617,31.80874],[35.18577,31.81412],[35.18223,31.81992],[35.18359,31.82512],[35.19664,31.82644],[35.21327,31.81876],[35.21576,31.82011],[35.21613,31.83915],[35.21296,31.85339],[35.2048,31.8711],[35.20526,31.87725],[35.21205,31.88149],[35.22202,31.87918],[35.22655,31.86725],[35.22565,31.85724],[35.22746,31.85031],[35.23335,31.84261],[35.24477,31.84514],[35.24998,31.84437],[35.25723,31.83859],[35.25157,31.83128],[35.25361,31.82935],[35.26018,31.82877],[35.26494,31.82627],[35.25587,31.81222],[35.25995,31.79257],[35.2629,31.78968],[35.25814,31.78371],[35.2527,31.76965],[35.25315,31.76252],[35.25972,31.75693],[35.26281,31.74863],[35.25247,31.73805],[35.24921,31.72357],[35.24432,31.71936],[35.24242,31.71085],[35.23797,31.70933],[35.2314,31.71261],[35.228,31.71743],[35.22415,31.71916],[35.21939,31.71512],[35.20526,31.72319],[35.17942,31.7201],[35.16673,31.73205],[35.15436,31.73343],[35.14895,31.73735],[35.12574,31.7331],[35.11423,31.71768],[35.05923,31.6768],[34.97361,31.63037],[34.95531,31.61187],[34.93733,31.582],[34.93288,31.55492],[34.93247,31.52697],[34.92679,31.49441],[34.88173,31.42987],[34.86715,31.39643],[34.87883,31.36284],[34.90095,31.34848],[34.92741,31.34491],[34.9549,31.34863],[34.98032,31.35618],[35.04017,31.3632],[35.16491,31.36227],[35.22331,31.38103],[35.33234,31.4588],[35.39012,31.48707],[35.45854,31.49162],[35.45688,31.42351],[35.45285,31.40082],[35.43508,31.36062],[35.41647,31.33184],[35.42392,31.3246],[35.42226,31.303],[35.40821,31.28202],[35.3957,31.25768],[35.40118,31.23029],[35.41069,31.20461],[35.43621,31.15955],[35.44324,31.13221],[35.43849,31.10374],[35.39156,31.02395],[35.38516,30.99465],[35.38526,30.96328],[35.3741,30.94514],[35.33493,30.91258],[35.32222,30.88995],[35.31953,30.86732],[35.32005,30.84494],[35.31663,30.82282],[35.31085,30.81331],[35.28614,30.79233],[35.27953,30.78024],[35.27157,30.74371],[35.26382,30.71978],[35.20532,30.6171],[35.16212,30.49468],[35.15737,30.47085],[35.14001,30.43019],[35.14001,30.40615],[35.14496,30.39587],[35.15933,30.37561],[35.16212,30.3614],[35.15995,30.3475],[35.14176,30.31396],[35.13236,30.26187],[35.12523,30.24467],[35.12481,30.21609],[35.14528,30.1549],[35.14528,30.12338],[35.12905,30.08974],[35.08626,30.03403],[35.07469,29.9946],[35.07406,29.98256],[35.06146,29.95735],[35.05412,29.92339],[35.05319,29.86262],[35.04895,29.84231],[35.00254,29.7331],[34.9951,29.70816],[34.98983,29.65196],[34.98032,29.627],[34.96699,29.60812],[34.95986,29.58621],[34.95558,29.55899],[34.95135,29.54564],[34.91977,29.50739],[34.91407,29.4938],[34.91082,29.48994],[34.88673,29.49006],[34.85527,29.54572],[34.84824,29.56964],[34.8501,29.63876],[34.82437,29.7417],[34.74137,29.94024],[34.73507,29.99455],[34.73497,30.0067],[34.73321,30.01259],[34.59947,30.34451],[34.58841,30.35882],[34.53384,30.40021],[34.52692,30.40962],[34.52475,30.42114],[34.5265,30.43871],[34.53601,30.46858],[34.53622,30.48217],[34.51038,30.51333],[34.50438,30.53033],[34.50221,30.57167],[34.48041,30.65121],[34.32951,30.99449],[34.24835,31.21145]]]},"source":"Natural Earth Admin 0 Countries, 1:10m, version 5.1.1","sourceUrl":"https://www.naturalearthdata.com/downloads/10m-cultural-vectors/10m-admin-0-countries/"}
