{"type":"Feature","properties":{"isoA2":"IQ","name":"Iraq"},"geometry":{"type":"Polygon","coordinates":[[[38.77451,33.37168],[40.69047,34.3315],[40.93603,34.38607],[40.96528,34.40185],[40.98802,34.42852],[41.02399,34.49433],[41.19566,34.76847],[41.20423,34.79312],[41.20651,34.81932],[41.19803,34.99404],[41.19152,35.18214],[41.20134,35.24302],[41.24309,35.36653],[41.25188,35.46409],[41.26108,35.49417],[41.34221,35.59369],[41.35802,35.62392],[41.3635,35.65524],[41.35926,35.79275],[41.35451,35.82557],[41.34366,35.85766],[41.26625,35.99429],[41.24061,36.04302],[41.23669,36.06033],[41.23658,36.07702],[41.26883,36.32796],[41.27699,36.35478],[41.36536,36.49416],[41.38541,36.51638],[41.41487,36.52738],[41.47977,36.53612],[41.78993,36.58929],[41.81732,36.59973],[41.84378,36.61787],[42.28158,36.99397],[42.34587,37.04291],[42.37719,37.06224],[42.37687,37.07676],[42.35724,37.10998],[42.40189,37.11414],[42.45914,37.12931],[42.54524,37.14089],[42.56126,37.14662],[42.57697,37.17923],[42.70233,37.32535],[42.70616,37.33323],[42.70947,37.34718],[42.71567,37.35529],[42.72218,37.35891],[42.77158,37.3749],[42.79246,37.37434],[42.80114,37.36909],[42.80548,37.35186],[42.81406,37.34682],[42.89674,37.32491],[42.93705,37.32015],[42.97963,37.33183],[43.00516,37.34726],[43.0435,37.36025],[43.08371,37.36883],[43.11482,37.37113],[43.13197,37.36726],[43.27031,37.30868],[43.27863,37.30775],[43.28752,37.30915],[43.29687,37.31674],[43.30566,37.31997],[43.32416,37.32222],[43.33615,37.32023],[43.37604,37.29553],[43.41676,37.27917],[43.46327,37.24868],[43.4796,37.24336],[43.49242,37.24476],[43.51712,37.2523],[43.52952,37.2539],[43.54244,37.2523],[43.5689,37.2377],[43.59422,37.22946],[43.6183,37.22698],[43.72082,37.23261],[43.74692,37.23065],[43.77064,37.22584],[43.78056,37.22037],[43.80206,37.20357],[43.8094,37.19969],[43.82201,37.20238],[43.83999,37.21711],[43.89363,37.22491],[43.92417,37.25308],[43.95378,37.28747],[43.99037,37.3125],[44.03559,37.31824],[44.08804,37.31116],[44.18447,37.27917],[44.20689,37.26752],[44.22317,37.25406],[44.23501,37.23677],[44.24353,37.21383],[44.24854,37.19192],[44.24963,37.17944],[44.24834,37.16967],[44.24012,37.15797],[44.2302,37.15432],[44.21878,37.15262],[44.20596,37.14662],[44.18922,37.12921],[44.18064,37.10892],[44.18002,37.08761],[44.18746,37.06694],[44.23428,36.98366],[44.24327,36.97777],[44.28482,36.96917],[44.29722,36.96994],[44.30663,36.97723],[44.31588,36.99397],[44.33164,37.01547],[44.33515,37.03115],[44.34311,37.04244],[44.42807,37.06477],[44.45442,37.07634],[44.47923,37.092],[44.50341,37.11662],[44.53938,37.14368],[44.57824,37.16642],[44.61028,37.17835],[44.62893,37.17902],[44.73379,37.16724],[44.75384,37.15915],[44.76613,37.14192],[44.75254,37.11314],[44.7527,37.10332],[44.76066,37.08564],[44.76655,37.07895],[44.78112,37.07448],[44.78836,37.07024],[44.79223,37.06373],[44.7973,37.04849],[44.8019,37.04353],[44.8112,37.04193],[44.83094,37.04684],[44.8406,37.0472],[44.84758,37.04404],[44.85895,37.03412],[44.88075,37.02493],[44.88737,37.01593],[44.88571,37.00508],[44.87476,36.99402],[44.86918,36.96736],[44.87486,36.94966],[44.88406,36.93335],[44.88882,36.91093],[44.88344,36.88685],[44.86964,36.86897],[44.83414,36.83403],[44.82339,36.80933],[44.83125,36.79192],[44.85119,36.78122],[44.87724,36.77646],[44.90825,36.77786],[44.92271,36.7759],[44.93522,36.76711],[44.94442,36.75827],[44.95475,36.75233],[44.96643,36.74933],[44.97946,36.74902],[44.9962,36.74169],[45.01098,36.72556],[45.03527,36.6896],[45.04591,36.66805],[45.04431,36.64934],[45.02488,36.61317],[45.01418,36.57901],[45.01325,36.55792],[44.99341,36.54966],[44.99139,36.53374],[45.00591,36.5187],[45.02534,36.50521],[45.03816,36.494],[45.03909,36.47984],[45.06209,36.45535],[45.07227,36.42341],[45.08374,36.41282],[45.11082,36.40253],[45.13996,36.40439],[45.19598,36.42243],[45.2213,36.42093],[45.23887,36.403],[45.24962,36.37794],[45.25448,36.35478],[45.25701,36.31169],[45.26393,36.29427],[45.28269,36.27489],[45.25851,36.26223],[45.26419,36.25019],[45.2828,36.23841],[45.29737,36.22673],[45.30202,36.20756],[45.29954,36.16141],[45.3046,36.14038],[45.33561,36.10772],[45.34832,36.08751],[45.34419,36.06746],[45.33189,36.0516],[45.31959,36.03103],[45.3137,36.01041],[45.32031,35.99403],[45.33809,35.9793],[45.35959,35.97687],[45.38181,35.98297],[45.40217,35.99424],[45.41995,35.99827],[45.45312,36.01165],[45.47927,36.01201],[45.53999,35.99398],[45.57694,35.96623],[45.58986,35.95961],[45.61704,35.95543],[45.64686,35.93321],[45.69321,35.87988],[45.71874,35.82831],[45.73104,35.81513],[45.74902,35.81099],[45.78675,35.82024],[45.79791,35.81838],[45.81419,35.80934],[45.83475,35.81053],[45.85408,35.81833],[45.87832,35.83523],[45.90911,35.8313],[45.94126,35.84035],[46.00492,35.83797],[46.02497,35.84329],[46.0443,35.85228],[46.06042,35.85724],[46.07696,35.85699],[46.11505,35.84644],[46.11985,35.84288],[46.12481,35.82247],[46.1291,35.81554],[46.14336,35.80453],[46.16352,35.79751],[46.18496,35.79818],[46.22744,35.80572],[46.24641,35.81141],[46.26351,35.82112],[46.28139,35.82831],[46.30299,35.82655],[46.31963,35.81688],[46.32707,35.8035],[46.32506,35.78784],[46.31338,35.77151],[46.29751,35.75989],[46.26713,35.74412],[46.25349,35.72774],[46.23788,35.71555],[46.217,35.71358],[46.17773,35.71539],[46.1276,35.69369],[46.10704,35.68981],[46.03706,35.69157],[46.0165,35.68573],[46.00379,35.67426],[45.99588,35.65839],[45.99236,35.64088],[45.99231,35.62439],[46.00203,35.58594],[45.99924,35.57214],[45.9687,35.57974],[45.95934,35.57871],[45.96803,35.5585],[45.98456,35.53106],[45.98322,35.52698],[45.97133,35.51804],[45.96606,35.51148],[45.96358,35.50341],[45.96399,35.49417],[45.97702,35.46533],[46.04099,35.38156],[46.09629,35.34115],[46.12016,35.31852],[46.1274,35.28906],[46.12006,35.2749],[46.10766,35.26276],[46.09877,35.25005],[46.10145,35.23428],[46.11541,35.22633],[46.15416,35.22664],[46.16925,35.21625],[46.16548,35.18995],[46.14383,35.15961],[46.13039,35.1314],[46.15106,35.1116],[46.14311,35.09951],[46.13236,35.09476],[46.09453,35.08582],[46.07665,35.08969],[46.06657,35.08881],[46.03975,35.07554],[46.02508,35.06427],[46.00921,35.06091],[45.97924,35.07155],[45.96637,35.07073],[45.95604,35.07424],[45.93495,35.08546],[45.92017,35.08964],[45.9132,35.08732],[45.8994,35.06861],[45.89837,35.06391],[45.90116,35.05161],[45.89909,35.04691],[45.8931,35.04437],[45.87248,35.04143],[45.86188,35.0328],[45.85703,35.02127],[45.85682,35.00805],[45.85971,34.99425],[45.86896,34.96836],[45.86633,34.94955],[45.85785,34.93131],[45.8502,34.90681],[45.83501,34.89017],[45.80804,34.89787],[45.77827,34.91089],[45.75512,34.90996],[45.7485,34.89074],[45.75047,34.86537],[45.7454,34.84098],[45.71771,34.82511],[45.68923,34.82263],[45.67657,34.81829],[45.66675,34.80692],[45.6636,34.79493],[45.66593,34.77473],[45.66282,34.76325],[45.63502,34.73695],[45.62738,34.72083],[45.64226,34.70687],[45.65952,34.69721],[45.66686,34.68998],[45.67347,34.67117],[45.6835,34.66021],[45.68763,34.65324],[45.69078,34.63432],[45.69125,34.61551],[45.69445,34.59856],[45.70561,34.58559],[45.70856,34.57908],[45.7083,34.56838],[45.70561,34.55774],[45.70153,34.55128],[45.69559,34.55024],[45.67357,34.55665],[45.60484,34.56115],[45.57394,34.5673],[45.53963,34.58223],[45.50066,34.59169],[45.49653,34.56425],[45.50485,34.52378],[45.50346,34.49417],[45.49302,34.47901],[45.47927,34.46725],[45.42677,34.45751],[45.41705,34.44436],[45.44795,34.36209],[45.46077,34.34046],[45.47927,34.32915],[45.49922,34.3424],[45.52154,34.3425],[45.54221,34.3316],[45.55756,34.31196],[45.56304,34.28928],[45.56102,34.2646],[45.54769,34.21649],[45.52867,34.18856],[45.52666,34.17931],[45.53146,34.16792],[45.54454,34.15063],[45.54454,34.13949],[45.53436,34.1282],[45.49395,34.10068],[45.47927,34.08764],[45.45488,34.06986],[45.44361,34.04766],[45.43519,34.02214],[45.41995,33.99426],[45.41147,33.98715],[45.40176,33.98162],[45.38036,33.97356],[45.40103,33.94945],[45.42372,33.93878],[45.44971,33.93739],[45.47927,33.94118],[45.48578,33.93865],[45.57477,33.80393],[45.61673,33.76869],[45.62391,33.75207],[45.6282,33.73184],[45.63513,33.71417],[45.64515,33.69792],[45.65879,33.68169],[45.67399,33.66903],[45.72112,33.64076],[45.72799,33.62565],[45.72773,33.5901],[45.73455,33.58312],[45.75202,33.58676],[45.76845,33.59591],[45.79754,33.61932],[45.81579,33.6258],[45.86436,33.62642],[45.88596,33.63092],[45.88204,33.6002],[45.89971,33.58516],[45.9209,33.57299],[45.92793,33.55087],[45.91563,33.53581],[45.86819,33.51157],[45.85258,33.49437],[45.86974,33.48212],[45.8994,33.4763],[45.92968,33.47951],[45.94818,33.49426],[45.95314,33.49659],[45.96327,33.49656],[45.97443,33.4908],[46.00802,33.45566],[46.01939,33.4384],[46.02745,33.41951],[46.0305,33.3992],[46.03107,33.38251],[46.03624,33.36794],[46.06972,33.34086],[46.10952,33.29371],[46.14135,33.27211],[46.1553,33.26022],[46.16419,33.24335],[46.1644,33.23306],[46.15835,33.21386],[46.15768,33.20567],[46.16212,33.19637],[46.1737,33.19022],[46.17432,33.18118],[46.16719,33.16834],[46.15344,33.15426],[46.12647,33.13178],[46.10538,33.11839],[46.08915,33.11568],[46.07241,33.11677],[46.0504,33.11511],[46.0303,33.10568],[46.02931,33.09351],[46.04327,33.08346],[46.08719,33.07922],[46.106,33.0725],[46.12042,33.06168],[46.12616,33.04798],[46.11949,33.03101],[46.10466,33.01806],[46.08802,33.00672],[46.07572,32.9945],[46.09701,32.95432],[46.15556,32.94835],[46.27343,32.95949],[46.37963,32.93176],[46.47931,32.89179],[46.50732,32.86802],[46.60442,32.82068],[46.65036,32.78937],[46.71589,32.75601],[46.75733,32.71619],[47.0584,32.49448],[47.09059,32.47456],[47.12103,32.46104],[47.15255,32.45518],[47.1878,32.45838],[47.20547,32.46404],[47.25126,32.48546],[47.26531,32.48468],[47.32195,32.46823],[47.34334,32.45869],[47.35611,32.44619],[47.36732,32.43076],[47.38412,32.41257],[47.41083,32.39529],[47.41641,32.38797],[47.41796,32.37642],[47.41435,32.36986],[47.40877,32.36433],[47.39998,32.34578],[47.39595,32.34198],[47.39579,32.33702],[47.40246,32.32351],[47.40706,32.31777],[47.43688,32.29369],[47.46303,32.26183],[47.46943,32.25612],[47.47915,32.25206],[47.48452,32.23935],[47.504,32.22674],[47.50922,32.2138],[47.50767,32.19984],[47.49641,32.18134],[47.49248,32.17049],[47.49041,32.15654],[47.49134,32.14863],[47.49817,32.14414],[47.51382,32.14031],[47.52669,32.13339],[47.54364,32.11458],[47.55873,32.11298],[47.57806,32.10616],[47.59501,32.08543],[47.6178,32.04187],[47.63314,32.02694],[47.66808,32.01241],[47.67795,31.99469],[47.68265,31.97691],[47.71841,31.92234],[47.72523,31.91433],[47.74332,31.90425],[47.75097,31.89821],[47.75655,31.88917],[47.76528,31.8641],[47.78135,31.84886],[47.82078,31.82359],[47.83447,31.80571],[47.83727,31.78447],[47.83132,31.76184],[47.67893,31.40785],[47.67294,30.9947],[48.00155,30.99465],[48.01224,30.98907],[48.01545,30.97625],[48.01203,30.49452],[48.01359,30.46388],[48.11942,30.4508],[48.13058,30.4475],[48.14092,30.44192],[48.15766,30.42631],[48.17048,30.40667],[48.17947,30.38487],[48.18768,30.34084],[48.19208,30.33128],[48.20009,30.32394],[48.2112,30.31965],[48.22298,30.3181],[48.23507,30.31851],[48.27166,30.32383],[48.28427,30.32332],[48.29636,30.31975],[48.30571,30.31283],[48.32602,30.28348],[48.35816,30.2518],[48.39702,30.221],[48.40359,30.21252],[48.4087,30.20234],[48.41062,30.19154],[48.40803,30.1809],[48.40075,30.17227],[48.38328,30.15646],[48.38111,30.14534],[48.38307,30.13842],[48.39558,30.11522],[48.41553,30.09563],[48.42121,30.08535],[48.42395,30.08364],[48.44219,30.03393],[48.44426,30.02091],[48.45314,30.00143],[48.46431,29.98913],[48.49304,29.97176],[48.53102,29.96133],[48.53077,29.9562],[48.55494,29.95649],[48.55926,29.9466],[48.54689,29.93472],[48.52052,29.9289],[48.41188,29.93842],[48.33546,29.96141],[48.29957,29.98452],[48.26466,29.99396],[48.20924,30.02448],[48.16578,30.03754],[48.11915,30.04499],[48.07635,30.04564],[48.03826,30.03685],[47.96901,30.00406],[47.96193,30.03034],[47.95851,30.06061],[47.95167,30.08832],[47.93482,30.10708],[47.94711,30.07453],[47.9485,30.06232],[47.94606,30.04938],[47.94174,30.03726],[47.94093,30.02652],[47.9485,30.01765],[47.94801,29.99404],[47.73143,30.08855],[47.67417,30.09822],[47.41579,30.09822],[47.35822,30.09212],[47.1971,30.03424],[47.1447,30.00334],[47.11049,29.96091],[47.02543,29.77214],[46.98884,29.71266],[46.98367,29.69829],[46.97737,29.65798],[46.95784,29.62044],[46.88311,29.51252],[46.85345,29.44456],[46.83857,29.42497],[46.77449,29.36353],[46.71186,29.27139],[46.53244,29.09575],[46.35746,29.06314],[44.71746,29.1931],[44.69183,29.20184],[42.85871,30.49468],[42.0754,31.07986],[40.42413,31.92053],[40.37028,31.93847],[40.02901,31.99448],[39.15774,32.12135],[39.14637,32.11814],[39.14617,32.12584],[39.26647,32.21287],[39.292,32.24452],[39.27112,32.31196],[39.25634,32.34268],[39.23577,32.35286],[39.04633,32.30849],[39.0362,32.31335],[39.02876,32.32834],[38.97822,32.47497],[39.05718,32.4966],[38.77451,33.37168]]]},"source":"Natural Earth Admin 0 Countries, 1:10m, version 5.1.1","sourceUrl":"https://www.naturalearthdata.com/downloads/10m-cultural-vectors/10m-admin-0-countries/"}
