{"type":"Feature","properties":{"isoA2":"JE","name":"Jersey"},"geometry":{"type":"Polygon","coordinates":[[[-2.24201,49.24795],[-2.24112,49.26024],[-2.22936,49.26301],[-2.2152,49.26024],[-2.19628,49.2534],[-2.17235,49.25625],[-2.15168,49.26703],[-2.14379,49.26187],[-2.12198,49.25829],[-2.11067,49.2534],[-2.10387,49.2582],[-2.08267,49.26024],[-2.06786,49.25068],[-2.02066,49.23526],[-2.02196,49.22549],[-2.00829,49.21247],[-2.017,49.20722],[-2.02099,49.20075],[-2.02196,49.18138],[-2.02453,49.17133],[-2.03116,49.17145],[-2.04922,49.17829],[-2.07999,49.1787],[-2.097,49.18366],[-2.12023,49.19916],[-2.13793,49.20563],[-2.14485,49.20563],[-2.15294,49.19994],[-2.16869,49.17829],[-2.17715,49.18016],[-2.18969,49.18911],[-2.2001,49.19196],[-2.22338,49.18472],[-2.23363,49.18452],[-2.22647,49.206],[-2.23323,49.2285],[-2.24201,49.24795]]]},"source":"Natural Earth Admin 0 Countries, 1:10m, version 5.1.1","sourceUrl":"https://www.naturalearthdata.com/downloads/10m-cultural-vectors/10m-admin-0-countries/"}
