{"type":"Feature","properties":{"isoA2":"JM","name":"Jamaica"},"geometry":{"type":"Polygon","coordinates":[[[-78.37466,18.26557],[-78.36913,18.27387],[-78.35432,18.28384],[-78.34732,18.29222],[-78.34439,18.30536],[-78.34582,18.33552],[-78.3439,18.34406],[-78.33629,18.3559],[-78.33544,18.36343],[-78.33194,18.36738],[-78.3164,18.3686],[-78.30663,18.37466],[-78.29869,18.38638],[-78.2884,18.39436],[-78.27164,18.38906],[-78.2613,18.41738],[-78.23062,18.44424],[-78.19498,18.45547],[-78.16926,18.43683],[-78.15441,18.45352],[-78.13854,18.45384],[-78.11998,18.44733],[-78.09724,18.44306],[-78.03254,18.45063],[-78.01098,18.45051],[-77.98135,18.44135],[-77.96996,18.44306],[-77.95983,18.4499],[-77.95914,18.4641],[-77.95295,18.47443],[-77.93029,18.50202],[-77.91999,18.51118],[-77.90233,18.51879],[-77.86189,18.52509],[-77.81607,18.52342],[-77.66454,18.49193],[-77.56725,18.49018],[-77.52428,18.48021],[-77.45499,18.47533],[-77.42886,18.46922],[-77.40827,18.45734],[-77.37654,18.46515],[-77.32531,18.46503],[-77.27261,18.45938],[-77.23632,18.45051],[-77.23184,18.44603],[-77.22814,18.43366],[-77.2233,18.42939],[-77.21744,18.42935],[-77.21203,18.43179],[-77.20885,18.43496],[-77.20963,18.43683],[-77.16495,18.42939],[-77.13736,18.40892],[-77.10473,18.40786],[-77.05199,18.41633],[-77.04003,18.41348],[-77.01915,18.40412],[-77.00731,18.40209],[-76.94815,18.40449],[-76.93662,18.4103],[-76.92034,18.4122],[-76.90712,18.4112],[-76.89492,18.40925],[-76.88783,18.40055],[-76.89092,18.38995],[-76.89095,18.37644],[-76.87978,18.36677],[-76.81275,18.32801],[-76.80762,18.31831],[-76.79833,18.29206],[-76.79239,18.28339],[-76.78283,18.27782],[-76.76464,18.27302],[-76.71288,18.26919],[-76.69571,18.26557],[-76.68102,18.25812],[-76.66198,18.23981],[-76.64733,18.23078],[-76.63036,18.22574],[-76.59716,18.22775],[-76.57977,18.21603],[-76.57421,18.21467],[-76.56306,18.20596],[-76.5548,18.20409],[-76.47973,18.20409],[-76.47448,18.20108],[-76.463,18.18236],[-76.38939,18.16918],[-76.35115,18.15599],[-76.34626,18.1352],[-76.31786,18.10928],[-76.29581,18.07917],[-76.24877,17.97785],[-76.23404,17.95393],[-76.21524,17.93496],[-76.18798,17.91547],[-76.19839,17.90742],[-76.25007,17.89496],[-76.28649,17.87588],[-76.30736,17.8701],[-76.32519,17.8745],[-76.31542,17.88272],[-76.31151,17.89496],[-76.32958,17.88866],[-76.34561,17.86587],[-76.36303,17.86083],[-76.37853,17.86506],[-76.39656,17.87299],[-76.41491,17.87751],[-76.44494,17.86677],[-76.52355,17.86026],[-76.57901,17.86831],[-76.59459,17.8666],[-76.60277,17.86762],[-76.61315,17.8745],[-76.61767,17.88353],[-76.62271,17.90501],[-76.63858,17.91161],[-76.65478,17.92914],[-76.6848,17.93602],[-76.70767,17.94595],[-76.72842,17.94477],[-76.76464,17.93659],[-76.7801,17.9348],[-76.83227,17.93659],[-76.83227,17.94343],[-76.7224,17.94961],[-76.73436,17.9606],[-76.74747,17.96345],[-76.79816,17.96342],[-76.83683,17.98636],[-76.84997,17.99228],[-76.85776,17.9714],[-76.87017,17.95805],[-76.874,17.95035],[-76.88716,17.95186],[-76.89104,17.9445],[-76.89494,17.92168],[-76.91283,17.86129],[-76.9261,17.84333],[-76.94213,17.83356],[-76.95531,17.83344],[-76.98306,17.84658],[-77.03832,17.84658],[-77.03832,17.85399],[-77.0172,17.86083],[-77.02798,17.86982],[-77.04149,17.88715],[-77.05199,17.89496],[-77.0642,17.89948],[-77.09301,17.90249],[-77.11911,17.8938],[-77.14165,17.88113],[-77.16198,17.84077],[-77.15441,17.81306],[-77.18171,17.79999],[-77.17492,17.77827],[-77.18562,17.7829],[-77.19636,17.78339],[-77.20678,17.77985],[-77.21646,17.77212],[-77.19888,17.76179],[-77.18033,17.75788],[-77.16088,17.75943],[-77.14074,17.76529],[-77.13061,17.72769],[-77.13366,17.71044],[-77.15811,17.70319],[-77.17894,17.70417],[-77.19758,17.7082],[-77.21605,17.7167],[-77.30289,17.79084],[-77.32087,17.81245],[-77.39562,17.85395],[-77.41771,17.86172],[-77.44103,17.86465],[-77.45946,17.85741],[-77.48062,17.84374],[-77.50182,17.84195],[-77.54548,17.85399],[-77.58837,17.86099],[-77.72387,17.85358],[-77.7307,17.8548],[-77.75154,17.86831],[-77.78673,17.88496],[-77.79556,17.89155],[-77.81615,17.9392],[-77.83406,17.9453],[-77.83967,17.94961],[-77.84113,17.97061],[-77.83934,17.99584],[-77.84557,18.01703],[-77.871,18.02595],[-77.94034,18.02652],[-77.95629,18.03217],[-77.97997,18.08446],[-77.98786,18.09536],[-78.00642,18.10586],[-78.01439,18.10786],[-78.02058,18.11311],[-78.02538,18.12519],[-78.03148,18.14887],[-78.05028,18.18513],[-78.07519,18.19843],[-78.14879,18.19668],[-78.19376,18.20393],[-78.21019,18.20409],[-78.21959,18.19587],[-78.22728,18.19184],[-78.23404,18.19318],[-78.26114,18.20409],[-78.27514,18.20624],[-78.3059,18.21564],[-78.34073,18.22187],[-78.35774,18.23273],[-78.37027,18.24811],[-78.37466,18.26557]]]},"source":"Natural Earth Admin 0 Countries, 1:10m, version 5.1.1","sourceUrl":"https://www.naturalearthdata.com/downloads/10m-cultural-vectors/10m-admin-0-countries/"}
