{"type":"Feature","properties":{"isoA2":"JO","name":"Jordan"},"geometry":{"type":"Polygon","coordinates":[[[34.94938,29.35169],[34.96241,29.35977],[34.96901,29.45083],[34.97608,29.47704],[34.99781,29.51797],[34.99684,29.53388],[34.97608,29.55215],[34.96241,29.55215],[34.96022,29.55952],[34.95558,29.55899],[34.95986,29.58621],[34.96699,29.60812],[34.98032,29.627],[34.98983,29.65196],[34.9951,29.70816],[35.00254,29.7331],[35.04895,29.84231],[35.05319,29.86262],[35.05412,29.92339],[35.06146,29.95735],[35.07406,29.98256],[35.07469,29.9946],[35.08626,30.03403],[35.12905,30.08974],[35.14528,30.12338],[35.14528,30.1549],[35.12481,30.21609],[35.12523,30.24467],[35.13236,30.26187],[35.14176,30.31396],[35.15995,30.3475],[35.16212,30.3614],[35.15933,30.37561],[35.14496,30.39587],[35.14001,30.40615],[35.14001,30.43019],[35.15737,30.47085],[35.16212,30.49468],[35.20532,30.6171],[35.26382,30.71978],[35.27157,30.74371],[35.27953,30.78024],[35.28614,30.79233],[35.31085,30.81331],[35.31663,30.82282],[35.32005,30.84494],[35.31953,30.86732],[35.32222,30.88995],[35.33493,30.91258],[35.3741,30.94514],[35.38526,30.96328],[35.38516,30.99465],[35.39156,31.02395],[35.43849,31.10374],[35.44324,31.13221],[35.43621,31.15955],[35.41069,31.20461],[35.40118,31.23029],[35.3957,31.25768],[35.40821,31.28202],[35.42226,31.303],[35.42392,31.3246],[35.41647,31.33184],[35.43508,31.36062],[35.45285,31.40082],[35.45688,31.42351],[35.45813,31.49193],[35.45916,31.49188],[35.46422,31.56856],[35.48014,31.64112],[35.52758,31.73507],[35.55941,31.76535],[35.53833,31.8193],[35.53833,31.82674],[35.54908,31.8392],[35.52468,31.91924],[35.52747,31.92735],[35.5406,31.93201],[35.54515,31.93661],[35.54587,31.94456],[35.53998,31.95562],[35.53554,31.98823],[35.52468,32.01169],[35.52282,32.05784],[35.5283,32.0751],[35.54515,32.08683],[35.53461,32.09923],[35.53523,32.11081],[35.55197,32.1352],[35.5467,32.1416],[35.5467,32.14703],[35.55125,32.15153],[35.55941,32.15509],[35.55941,32.16253],[35.55517,32.17439],[35.57254,32.23759],[35.55941,32.23759],[35.56375,32.24682],[35.57254,32.25191],[35.56458,32.26359],[35.56086,32.28263],[35.56117,32.3017],[35.56561,32.31335],[35.55652,32.32821],[35.55734,32.35821],[35.55197,32.36795],[35.55197,32.37482],[35.55941,32.37482],[35.55941,32.36795],[35.56561,32.36795],[35.56096,32.38472],[35.54959,32.39854],[35.54515,32.40957],[35.55486,32.41118],[35.5591,32.41397],[35.55817,32.418],[35.55197,32.42324],[35.55197,32.42944],[35.55941,32.42944],[35.55786,32.43412],[35.55197,32.43621],[35.56561,32.44371],[35.55941,32.45053],[35.57254,32.45673],[35.57254,32.46419],[35.56809,32.46497],[35.55941,32.4704],[35.56127,32.47709],[35.56499,32.48391],[35.57099,32.48921],[35.57998,32.49148],[35.57998,32.49773],[35.57057,32.50603],[35.56137,32.51918],[35.55197,32.51882],[35.55197,32.52559],[35.56561,32.52559],[35.56282,32.53202],[35.55941,32.55295],[35.56561,32.5461],[35.57254,32.56039],[35.5744,32.5544],[35.57998,32.56039],[35.5744,32.57277],[35.5713,32.59855],[35.56561,32.60755],[35.56561,32.61501],[35.57254,32.61501],[35.57254,32.62124],[35.56406,32.62548],[35.56003,32.63269],[35.56055,32.6409],[35.56272,32.64421],[35.56985,32.64677],[35.57874,32.65343],[35.59383,32.67036],[35.61176,32.6819],[35.636,32.67914],[35.65201,32.68617],[35.68519,32.71123],[35.74018,32.74054],[35.76384,32.74697],[35.7749,32.74728],[35.78823,32.73441],[35.89572,32.71328],[35.90523,32.70857],[35.92249,32.69377],[35.92745,32.69237],[35.94037,32.6925],[35.94419,32.69077],[35.94574,32.6841],[35.9444,32.67762],[35.9412,32.67354],[35.93747,32.674],[35.95535,32.65744],[35.96579,32.65436],[35.98026,32.65661],[36.00362,32.65509],[36.00827,32.64372],[36.00527,32.62669],[36.006,32.60791],[36.0154,32.59116],[36.06047,32.53326],[36.06605,32.52161],[36.06625,32.51732],[36.09622,32.51587],[36.13323,32.52011],[36.15586,32.5152],[36.16082,32.51722],[36.17219,32.52592],[36.17736,32.52732],[36.18821,32.52228],[36.22077,32.49458],[36.28526,32.45694],[36.37311,32.38642],[36.38789,32.37932],[36.40763,32.37423],[36.46395,32.36939],[36.48018,32.36079],[36.6535,32.34286],[36.68957,32.31966],[36.70694,32.32834],[36.72864,32.3278],[36.79251,32.31353],[36.80657,32.31304],[36.81938,32.31679],[36.9801,32.41004],[37.13316,32.49453],[38.05673,32.99434],[38.52956,33.24425],[38.77451,33.37168],[39.05718,32.4966],[38.97822,32.47497],[39.02876,32.32834],[39.0362,32.31335],[39.04633,32.30849],[39.23577,32.35286],[39.25634,32.34268],[39.27112,32.31196],[39.292,32.24452],[39.26647,32.21287],[39.14617,32.12584],[39.14637,32.11814],[39.13625,32.11535],[39.11682,32.1029],[38.99806,32.00694],[38.96344,31.99433],[37.95048,31.74447],[36.95953,31.491],[37.48002,31.00726],[37.98138,30.49881],[37.6707,30.34761],[37.64755,30.33086],[37.63453,30.31278],[37.4917,30.01119],[37.4702,29.99455],[36.75624,29.86552],[36.72875,29.85353],[36.70487,29.83115],[36.47708,29.49461],[36.06946,29.20003],[36.04382,29.19088],[36.01644,29.18995],[34.94938,29.35169]]]},"source":"Natural Earth Admin 0 Countries, 1:10m, version 5.1.1","sourceUrl":"https://www.naturalearthdata.com/downloads/10m-cultural-vectors/10m-admin-0-countries/"}
