{"type":"Feature","properties":{"isoA2":"KE","name":"Kenya"},"geometry":{"type":"MultiPolygon","coordinates":[[[[33.89047,0.09007],[33.89357,0.10981],[34.04064,0.30587],[34.07661,0.33378],[34.08519,0.34701],[34.08798,0.36737],[34.07671,0.40385],[34.07568,0.42225],[34.08012,0.43134],[34.10441,0.46225],[34.13242,0.57283],[34.14957,0.60363],[34.17913,0.62389],[34.21975,0.63857],[34.2521,0.655],[34.27618,0.68084],[34.2923,0.72373],[34.2984,0.75928],[34.30667,0.76807],[34.37085,0.80021],[34.38801,0.81582],[34.40237,0.85607],[34.43121,0.89354],[34.45715,0.95762],[34.46304,0.97808],[34.46366,1.02294],[34.46883,1.04423],[34.4772,1.06459],[34.48702,1.08247],[34.50749,1.10252],[34.52402,1.09864],[34.54035,1.08939],[34.56123,1.09337],[34.57198,1.11172],[34.57363,1.13425],[34.58045,1.15254],[34.62893,1.1636],[34.66303,1.19636],[34.6838,1.20907],[34.76607,1.2175],[34.79791,1.23192],[34.81052,1.27253],[34.80008,1.31232],[34.78271,1.35299],[34.77899,1.38855],[34.83842,1.43717],[34.8595,1.51792],[34.88255,1.55223],[34.89258,1.55727],[34.91356,1.56156],[34.92348,1.56611],[34.93371,1.57569],[34.94095,1.58704],[34.97268,1.65424],[34.97867,1.67595],[34.9797,1.8703],[34.98405,1.88247],[35.00275,1.90614],[35.00647,1.91686],[35.00141,1.928],[34.97795,1.94991],[34.96916,1.96029],[34.96203,1.97781],[34.9579,1.99784],[34.95666,2.01851],[34.95821,2.03796],[34.96761,2.08256],[34.96751,2.10191],[34.8656,2.34751],[34.85909,2.38678],[34.86788,2.41148],[34.88596,2.42543],[34.90612,2.43691],[34.9209,2.45463],[34.92358,2.47732],[34.91439,2.49437],[34.8871,2.52238],[34.88131,2.54145],[34.87563,2.59121],[34.8656,2.60486],[34.85651,2.60346],[34.84183,2.58775],[34.82809,2.58878],[34.81868,2.59798],[34.77651,2.68562],[34.76132,2.77249],[34.73693,2.84437],[34.73011,2.85285],[34.69652,2.86773],[34.68887,2.87915],[34.68505,2.88096],[34.68256,2.87936],[34.67812,2.87156],[34.66034,2.85864],[34.65414,2.85652],[34.6405,2.86014],[34.63141,2.86954],[34.61642,2.89342],[34.58469,2.92871],[34.57466,2.94613],[34.54562,3.09738],[34.53384,3.11847],[34.51286,3.13237],[34.46573,3.14586],[34.44485,3.15914],[34.434,3.18203],[34.42408,3.30481],[34.41116,3.34471],[34.38656,3.37638],[34.38398,3.38835],[34.38698,3.39966],[34.397,3.42416],[34.39855,3.43364],[34.39442,3.44462],[34.38212,3.46604],[34.38129,3.47687],[34.38687,3.48563],[34.4155,3.49702],[34.43452,3.52622],[34.44392,3.5663],[34.4464,3.6467],[34.43969,3.66774],[34.42501,3.67719],[34.4063,3.68293],[34.38749,3.69275],[34.35504,3.72737],[34.33706,3.73458],[34.30987,3.7267],[34.29944,3.71693],[34.2951,3.70735],[34.29044,3.70316],[34.27887,3.70972],[34.26378,3.75006],[34.24156,3.77874],[34.24094,3.78362],[34.2304,3.78274],[34.21055,3.77713],[34.19091,3.77584],[34.17365,3.7714],[34.16518,3.77083],[34.15247,3.77564],[34.15908,3.78336],[34.17903,3.7961],[34.16652,3.81132],[34.15081,3.81721],[34.14895,3.82269],[34.1967,3.84739],[34.20755,3.86088],[34.20497,3.87454],[34.18285,3.8861],[34.16342,3.8862],[34.12374,3.87204],[34.10803,3.86894],[34.08477,3.87734],[34.08622,3.89467],[34.09893,3.91772],[34.10958,3.94335],[34.1071,3.9595],[34.09552,3.971],[34.08084,3.98079],[34.06896,3.99188],[34.0611,4.00777],[34.06152,4.01792],[34.06979,4.04136],[34.07268,4.06466],[34.07237,4.07642],[34.06927,4.08802],[34.0609,4.09926],[34.04973,4.10947],[34.04095,4.12042],[34.03971,4.13404],[34.04105,4.16481],[34.02855,4.18801],[34.00602,4.20571],[33.97708,4.21969],[34.38119,4.62016],[34.66628,4.76498],[35.24573,4.98172],[35.26342,4.94855],[35.4116,5.03038],[35.43371,5.00384],[35.39612,4.92643],[35.49564,4.92643],[35.57084,4.90431],[35.52218,4.78046],[35.61064,4.62001],[35.70036,4.58911],[35.71152,4.66161],[35.7394,4.68113],[35.77844,4.67834],[35.78122,4.61992],[35.92083,4.61933],[35.9228,4.60207],[35.93603,4.57853],[35.93706,4.55926],[35.93406,4.53921],[35.93375,4.52218],[35.94047,4.50805],[35.95835,4.49686],[35.99711,4.46296],[36.0184,4.44914],[36.04134,4.44368],[36.19131,4.44492],[36.22573,4.4496],[36.23627,4.44965],[36.24609,4.44699],[36.26428,4.43821],[36.2772,4.43645],[36.6195,4.44337],[36.62818,4.44146],[36.64296,4.4326],[36.65133,4.43058],[36.84409,4.43224],[36.90372,4.41578],[36.97483,4.37994],[37.01565,4.37059],[37.02537,4.36327],[37.04108,4.33682],[37.04841,4.33196],[37.06847,4.33346],[37.07591,4.33108],[37.08252,4.32217],[37.08645,4.31248],[37.09162,4.29026],[37.09482,4.28488],[37.11187,4.2823],[37.97673,3.72644],[37.99533,3.70791],[38.02076,3.66717],[38.03616,3.64893],[38.04897,3.64185],[38.07884,3.63267],[38.10189,3.61265],[38.11409,3.61061],[38.14561,3.61844],[38.17692,3.62092],[38.38994,3.59689],[38.44595,3.60167],[38.49691,3.62394],[38.49815,3.62968],[38.49732,3.63859],[38.49939,3.64691],[38.509,3.65081],[38.51427,3.64851],[38.53318,3.63283],[38.54124,3.62329],[38.54321,3.61539],[38.54713,3.60952],[38.57411,3.60456],[38.59375,3.61084],[38.59664,3.60213],[38.60191,3.59867],[38.66031,3.59446],[38.66103,3.62195],[38.68811,3.58629],[38.70372,3.57043],[38.72201,3.5604],[38.89523,3.51358],[38.92127,3.514],[38.96323,3.52209],[38.97998,3.51981],[38.99496,3.51426],[39.01047,3.51446],[39.06793,3.52658],[39.07754,3.52426],[39.18048,3.477],[39.21945,3.4687],[39.25758,3.46969],[39.30275,3.49568],[39.31587,3.4949],[39.32053,3.48454],[39.31133,3.46609],[39.43618,3.46237],[39.46698,3.45201],[39.47566,3.4408],[39.48093,3.42726],[39.48847,3.4139],[39.50439,3.40333],[39.53632,3.40501],[39.55317,3.43132],[39.57498,3.4979],[39.60082,3.52891],[39.7451,3.66058],[39.76422,3.68574],[39.78075,3.71657],[39.8283,3.84258],[39.84845,3.86728],[40.16244,4.01939],[40.16698,4.02526],[40.16719,4.03547],[40.18559,4.03216],[40.36573,4.09487],[40.37111,4.09993],[40.377,4.11608],[40.38268,4.12138],[40.7007,4.24352],[40.76374,4.28493],[40.78576,4.25584],[40.84601,4.21499],[40.87061,4.18698],[40.88735,4.15605],[40.89769,4.14592],[40.91588,4.13665],[40.96363,4.12037],[40.97975,4.11076],[41.0059,4.08668],[41.07008,3.99691],[41.11452,3.96234],[41.163,3.94268],[41.21529,3.93661],[41.42954,3.94888],[41.47977,3.96294],[41.50623,3.96438],[41.58633,3.98415],[41.60225,3.98306],[41.6287,3.97208],[41.64297,3.96945],[41.65744,3.9727],[41.69981,3.99691],[41.74735,3.98141],[41.79138,3.95816],[41.83593,3.94945],[41.88502,3.97723],[41.34273,3.20115],[40.97975,2.8419],[40.96538,2.81414],[40.96849,2.49711],[40.96849,-0.00274],[40.97975,-0.8708],[41.52287,-1.57277],[41.53496,-1.59478],[41.53858,-1.6137],[41.53509,-1.6963],[41.45834,-1.77483],[41.42237,-1.82977],[41.41765,-1.84726],[41.39601,-1.86061],[41.33912,-1.91237],[41.30348,-1.95615],[41.28272,-1.96852],[41.26734,-1.94964],[41.24871,-1.95729],[41.23146,-1.9555],[41.21998,-1.94402],[41.21901,-1.92246],[41.19899,-1.94313],[41.19508,-1.96705],[41.1858,-1.99017],[41.15691,-1.98748],[41.11785,-1.97829],[41.10914,-1.97763],[41.09685,-1.98528],[41.077,-2.00709],[41.04998,-2.01849],[41.02866,-2.04323],[41.01295,-2.04241],[40.99025,-2.0289],[40.98365,-2.0193],[40.9795,-2.00498],[40.98024,-1.99017],[40.99008,-1.9625],[40.98699,-1.93646],[40.99106,-1.92409],[41.00611,-1.90179],[40.97071,-1.92897],[40.96664,-2.04656],[40.94532,-2.07317],[40.92677,-2.05926],[40.90821,-1.99774],[40.88999,-1.98382],[40.87957,-1.9778],[40.87037,-1.96722],[40.86101,-1.96347],[40.84913,-1.97763],[40.85564,-1.99261],[40.85857,-2.00579],[40.85597,-2.01849],[40.87224,-2.01141],[40.8851,-2.01483],[40.89381,-2.02606],[40.89682,-2.04241],[40.89471,-2.04909],[40.88543,-2.05446],[40.88315,-2.06015],[40.88649,-2.06976],[40.90113,-2.07366],[40.90431,-2.08034],[40.90602,-2.15325],[40.91196,-2.19199],[40.92482,-2.21722],[40.93377,-2.21966],[40.95688,-2.21893],[40.96949,-2.22772],[40.97926,-2.24212],[40.98072,-2.25303],[40.96949,-2.27899],[40.94483,-2.30934],[40.92262,-2.31373],[40.91944,-2.30242],[40.95216,-2.28606],[40.93491,-2.27988],[40.92107,-2.2706],[40.89682,-2.24505],[40.89308,-2.23707],[40.89373,-2.2282],[40.88315,-2.22405],[40.88445,-2.22633],[40.86305,-2.23138],[40.83806,-2.24505],[40.81568,-2.2719],[40.79469,-2.29046],[40.77394,-2.27923],[40.77719,-2.29681],[40.78256,-2.3043],[40.79558,-2.30999],[40.79371,-2.3165],[40.78696,-2.32733],[40.79347,-2.34197],[40.82179,-2.36077],[40.82862,-2.37477],[40.8169,-2.39788],[40.78932,-2.42498],[40.75815,-2.44744],[40.71176,-2.46657],[40.65056,-2.53932],[40.6159,-2.5525],[40.58522,-2.54583],[40.55543,-2.5324],[40.52361,-2.52508],[40.4909,-2.5285],[40.38982,-2.56032],[40.34832,-2.5901],[40.32309,-2.59808],[40.29371,-2.61639],[40.24391,-2.65667],[40.23211,-2.66904],[40.22332,-2.68304],[40.20484,-2.72487],[40.17498,-2.76263],[40.17066,-2.77947],[40.17262,-2.78721],[40.18751,-2.80706],[40.18865,-2.81357],[40.18377,-2.83758],[40.16489,-2.90146],[40.16261,-2.93426],[40.18377,-2.95029],[40.17856,-2.97649],[40.19068,-2.98805],[40.21127,-2.98602],[40.23211,-2.97064],[40.23292,-2.98187],[40.22511,-2.99375],[40.19011,-3.02703],[40.1692,-3.05495],[40.16383,-3.06699],[40.15952,-3.11777],[40.15317,-3.13519],[40.11915,-3.18353],[40.11842,-3.19695],[40.12924,-3.23333],[40.12908,-3.25189],[40.12289,-3.26735],[40.11402,-3.28167],[40.10239,-3.2942],[40.08814,-3.30364],[40.03981,-3.32562],[40.02662,-3.3344],[40.00261,-3.36248],[39.98911,-3.37322],[39.97145,-3.37607],[39.97926,-3.35906],[39.99008,-3.3209],[39.99195,-3.30706],[39.97397,-3.31146],[39.96607,-3.32122],[39.96363,-3.3576],[39.95777,-3.38226],[39.96518,-3.39918],[39.9476,-3.42799],[39.92726,-3.48138],[39.90056,-3.52418],[39.89015,-3.58172],[39.87867,-3.60508],[39.86598,-3.61647],[39.85727,-3.61826],[39.83562,-3.60882],[39.83082,-3.60589],[39.81772,-3.59075],[39.78639,-3.58758],[39.79127,-3.57488],[39.78093,-3.56658],[39.77312,-3.58489],[39.77589,-3.60019],[39.78793,-3.60914],[39.80812,-3.60882],[39.79607,-3.62298],[39.80014,-3.6347],[39.81422,-3.63934],[39.84897,-3.62518],[39.86012,-3.63323],[39.86647,-3.64853],[39.86899,-3.66334],[39.86704,-3.69492],[39.78639,-3.91717],[39.76075,-3.94183],[39.73211,-3.94638],[39.71193,-3.93133],[39.71209,-3.89739],[39.68995,-3.9096],[39.68377,-3.91717],[39.68735,-3.92718],[39.6941,-3.93727],[39.702,-3.95582],[39.71209,-3.96502],[39.73422,-3.96331],[39.74529,-3.96868],[39.74244,-3.98594],[39.72136,-4.00921],[39.71551,-4.02516],[39.70834,-4.03753],[39.69947,-4.04843],[39.69077,-4.05316],[39.68116,-4.04795],[39.67449,-4.025],[39.66668,-4.01971],[39.65984,-4.00758],[39.66196,-3.98463],[39.66049,-3.9708],[39.64308,-3.98553],[39.61736,-3.97145],[39.60572,-3.96966],[39.59474,-3.97869],[39.60467,-3.98821],[39.61647,-3.99285],[39.64308,-3.9992],[39.63559,-4.01702],[39.62615,-4.02549],[39.59474,-4.03265],[39.56422,-4.03289],[39.56056,-4.03981],[39.56129,-4.06097],[39.56324,-4.0709],[39.56739,-4.08115],[39.58188,-4.06162],[39.61508,-4.05934],[39.65008,-4.06959],[39.66969,-4.08799],[39.66586,-4.11207],[39.6159,-4.19785],[39.58383,-4.27939],[39.55112,-4.40211],[39.54005,-4.43043],[39.5311,-4.41741],[39.52247,-4.41814],[39.50603,-4.43808],[39.5044,-4.44354],[39.50538,-4.45599],[39.50221,-4.4616],[39.48487,-4.47894],[39.45069,-4.58196],[39.44435,-4.56341],[39.44744,-4.53428],[39.44386,-4.51995],[39.431,-4.52996],[39.40968,-4.57448],[39.4048,-4.57391],[39.39772,-4.57008],[39.39137,-4.57106],[39.38868,-4.58514],[39.39064,-4.59344],[39.40626,-4.61517],[39.39617,-4.629],[39.36248,-4.63397],[39.32439,-4.62461],[39.30047,-4.59499],[39.29965,-4.60076],[39.29371,-4.61549],[39.26433,-4.60662],[39.24269,-4.62737],[39.22438,-4.65586],[39.20484,-4.6701],[39.19386,-4.67327],[39.1906,-4.6775],[37.77096,-3.65544],[37.75721,-3.63745],[37.74718,-3.61699],[37.72982,-3.55539],[37.72228,-3.53999],[37.70832,-3.52717],[37.68941,-3.51808],[37.66833,-3.5125],[37.64693,-3.51064],[37.59908,-3.51343],[37.59618,-3.49968],[37.60414,-3.48015],[37.60817,-3.46361],[37.60311,-3.45576],[37.58668,-3.45369],[37.57944,-3.44635],[37.57789,-3.43581],[37.58048,-3.42413],[37.58523,-3.41297],[37.59029,-3.40408],[37.60487,-3.38796],[37.62719,-3.37028],[37.65096,-3.35757],[37.66988,-3.35613],[37.66843,-3.33825],[37.67194,-3.32429],[37.68187,-3.31571],[37.70005,-3.31437],[37.66016,-3.07056],[37.64487,-3.04596],[34.05253,-1.0404],[34.01542,-1.03751],[34.00199,-1.02872],[34.00002,-1.00257],[33.90421,-1.00257],[33.89481,-0.66275],[33.95351,-0.15436],[33.95248,-0.1157],[33.89047,0.09007]]],[[[40.95729,-2.17401],[40.95737,-2.1513],[40.96925,-2.11981],[40.98292,-2.09734],[41.00115,-2.08717],[41.02467,-2.08017],[41.04518,-2.06976],[41.05397,-2.04957],[41.06568,-2.03631],[41.09278,-2.03802],[41.12273,-2.04778],[41.14332,-2.0595],[41.16277,-2.09092],[41.15528,-2.11207],[41.13689,-2.11549],[41.12338,-2.09368],[41.12428,-2.10467],[41.12281,-2.1159],[41.11891,-2.12428],[41.10963,-2.129],[41.10483,-2.13405],[41.09889,-2.13535],[41.09197,-2.13299],[41.08644,-2.12835],[41.0818,-2.12152],[41.06861,-2.12347],[41.05079,-2.12949],[41.01352,-2.14886],[41.0044,-2.14219],[40.99562,-2.14381],[40.98894,-2.15228],[40.98618,-2.16595],[40.99155,-2.17376],[41.00229,-2.18011],[41.00994,-2.18719],[41.00611,-2.19736],[40.99366,-2.1972],[40.98585,-2.19134],[40.98146,-2.18157],[40.9795,-2.16937],[40.95729,-2.17401]]]]},"source":"Natural Earth Admin 0 Countries, 1:10m, version 5.1.1","sourceUrl":"https://www.naturalearthdata.com/downloads/10m-cultural-vectors/10m-admin-0-countries/"}
