{"type":"Feature","properties":{"isoA2":"KI","name":"Kiribati"},"geometry":{"type":"MultiPolygon","coordinates":[[[[173.01124,1.33735],[173.05958,1.35977],[173.08473,1.36668],[173.15154,1.37181],[173.16065,1.37495],[173.14332,1.38032],[173.15317,1.38654],[173.16432,1.38325],[173.17172,1.37417],[173.1714,1.36237],[173.16293,1.35651],[173.15064,1.35643],[173.12647,1.36107],[173.1045,1.36197],[173.07862,1.36001],[173.05445,1.35358],[173.03826,1.34105],[173.02443,1.33662],[173.01808,1.33592],[173.01124,1.33735]]],[[[-151.81953,-11.42099],[-151.81892,-11.39967],[-151.80773,-11.38592],[-151.79792,-11.40146],[-151.78449,-11.42938],[-151.78096,-11.45468],[-151.80089,-11.46111],[-151.81249,-11.44354],[-151.81953,-11.42099]]],[[[-155.93346,-5.60914],[-155.9239,-5.60809],[-155.91499,-5.60906],[-155.89932,-5.61679],[-155.87963,-5.60947],[-155.86506,-5.61517],[-155.85981,-5.62509],[-155.86799,-5.6303],[-155.90644,-5.63535],[-155.92247,-5.62998],[-155.93346,-5.60914]]],[[[-155.01842,-4.0512],[-155.01171,-4.04705],[-154.96227,-4.03216],[-154.9403,-4.032],[-154.9466,-4.05316],[-154.9536,-4.06072],[-154.95857,-4.07122],[-154.95922,-4.08319],[-154.95336,-4.09482],[-154.96479,-4.09499],[-154.97753,-4.07871],[-154.99092,-4.07431],[-154.99848,-4.07],[-155.01081,-4.06064],[-155.01842,-4.0512]]],[[[-171.72785,-2.77842],[-171.72761,-2.7719],[-171.71508,-2.75905],[-171.68029,-2.77581],[-171.64985,-2.7973],[-171.62963,-2.82724],[-171.62446,-2.85613],[-171.62572,-2.86891],[-171.63935,-2.86207],[-171.64843,-2.84979],[-171.6601,-2.84051],[-171.67414,-2.83416],[-171.70788,-2.82513],[-171.71272,-2.8222],[-171.66401,-2.83538],[-171.65807,-2.83856],[-171.63313,-2.86207],[-171.62694,-2.85573],[-171.62731,-2.8519],[-171.65388,-2.80592],[-171.6667,-2.79314],[-171.6787,-2.78493],[-171.69746,-2.77532],[-171.71459,-2.77288],[-171.72191,-2.78631],[-171.72785,-2.77842]]],[[[176.77231,-2.60817],[176.78224,-2.60491],[176.78614,-2.60817],[176.81316,-2.61443],[176.83823,-2.63388],[176.85092,-2.65407],[176.84067,-2.66277],[176.82732,-2.65618],[176.77231,-2.60817]]],[[[175.97315,-2.48968],[175.98512,-2.49831],[175.99318,-2.51035],[175.98943,-2.51092],[175.9817,-2.50596],[175.97315,-2.48968]]],[[[175.55226,-1.81927],[175.55958,-1.8261],[175.59148,-1.8742],[175.59995,-1.89512],[175.58627,-1.92246],[175.58326,-1.91107],[175.58627,-1.87078],[175.55909,-1.83229],[175.55226,-1.81927]]],[[[175.00847,-1.52679],[175.02084,-1.49993],[175.0451,-1.48415],[175.0451,-1.49098],[175.03614,-1.49717],[175.02589,-1.50726],[175.01856,-1.51963],[175.01832,-1.53191],[175.02801,-1.54119],[175.03785,-1.53525],[175.05828,-1.50677],[175.05885,-1.48056],[175.05177,-1.45273],[175.03826,-1.43629],[175.0451,-1.42889],[175.05112,-1.4345],[175.05877,-1.43629],[175.06666,-1.46103],[175.06861,-1.497],[175.06056,-1.53167],[175.03826,-1.55242],[175.01254,-1.54925],[175.00847,-1.52679]]],[[[176.39568,-1.31959],[176.40235,-1.32049],[176.40545,-1.3235],[176.40935,-1.3327],[176.42644,-1.3471],[176.44484,-1.37379],[176.45932,-1.40586],[176.46404,-1.43629],[176.44988,-1.42539],[176.44215,-1.40879],[176.43678,-1.3904],[176.42986,-1.37428],[176.41033,-1.35036],[176.40113,-1.33636],[176.39568,-1.31959]]],[[[175.93702,-1.29306],[175.94215,-1.28485],[175.95802,-1.28021],[175.97731,-1.28485],[175.98927,-1.30682],[176.00929,-1.33424],[176.02345,-1.36289],[176.01832,-1.38787],[176.01197,-1.38128],[176.00278,-1.37558],[175.98357,-1.36745],[175.98357,-1.36061],[175.99318,-1.36256],[176.01832,-1.37428],[176.0149,-1.35654],[176.00636,-1.34271],[175.98357,-1.31959],[175.96583,-1.29518],[175.9559,-1.28655],[175.94313,-1.28485],[175.94939,-1.29852],[175.93702,-1.29306]]],[[[174.71664,-1.1347],[174.72535,-1.13551],[174.73162,-1.13795],[174.74399,-1.14837],[174.74757,-1.16611],[174.76515,-1.2029],[174.77272,-1.24774],[174.77882,-1.26442],[174.75587,-1.2575],[174.7483,-1.23748],[174.75074,-1.19948],[174.74676,-1.18597],[174.71664,-1.1347]]],[[[174.4629,-0.64813],[174.47657,-0.66912],[174.47657,-0.70957],[174.47934,-0.72039],[174.49073,-0.74717],[174.49838,-0.78916],[174.49732,-0.80511],[174.48341,-0.81943],[174.47389,-0.81276],[174.46974,-0.80674],[174.47234,-0.80185],[174.48341,-0.79892],[174.48081,-0.80576],[174.48341,-0.81259],[174.49757,-0.79689],[174.49773,-0.79477],[174.49391,-0.77549],[174.47657,-0.74033],[174.4629,-0.64813]]],[[[174.38087,-0.59287],[174.39389,-0.59287],[174.4026,-0.60223],[174.42994,-0.62347],[174.44711,-0.63079],[174.45867,-0.63787],[174.46363,-0.64479],[174.45265,-0.64813],[174.43718,-0.6408],[174.39161,-0.60564],[174.38087,-0.59287]]],[[[173.60621,0.21597],[173.62867,0.21914],[173.63648,0.21674],[173.64112,0.20844],[173.6408,0.19212],[173.63754,0.1765],[173.62062,0.13337],[173.60987,0.14305],[173.61451,0.1551],[173.63413,0.17402],[173.63836,0.19522],[173.6338,0.20087],[173.6233,0.20799],[173.60621,0.21597]]],[[[173.80494,0.43439],[173.81324,0.44693],[173.82545,0.45551],[173.83229,0.44868],[173.89088,0.4184],[173.91725,0.39948],[173.92164,0.37979],[173.86769,0.41958],[173.83204,0.43635],[173.80494,0.43439]]],[[[172.98341,0.83129],[172.99024,0.83397],[172.99,0.82543],[172.98341,0.83129]]],[[[172.96941,0.83967],[172.97576,0.83967],[172.98243,0.83116],[172.97535,0.83169],[172.96941,0.83967]]],[[[172.99,1.02408],[173.00367,1.02408],[173.01466,1.00886],[173.06495,0.97626],[173.07993,0.96039],[173.07927,0.94522],[173.06121,0.91421],[173.04981,0.9042],[173.01124,0.85415],[172.99098,0.83442],[172.99659,0.84504],[173.01368,0.86034],[173.02272,0.88272],[173.04664,0.90152],[173.05592,0.92772],[173.0713,0.9499],[173.07179,0.96259],[173.06227,0.97516],[173.04493,0.98778],[173.02556,0.99803],[173.00978,1.00361],[173.00978,0.98994],[173.00367,0.98994],[173.00343,1.00141],[173.0005,1.01065],[172.99,1.02408]]],[[[172.94898,1.62735],[172.9629,1.62059],[172.97234,1.59024],[172.98317,1.5312],[172.97828,1.5312],[172.96941,1.53799],[172.96314,1.56025],[172.95916,1.60969],[172.94898,1.62735]]],[[[172.99,1.71552],[173.02377,1.7211],[173.03549,1.74356],[173.03338,1.77432],[173.02467,1.80488],[173.02735,1.81045],[173.03614,1.77717],[173.03834,1.74238],[173.02931,1.71629],[173.00367,1.7093],[172.99318,1.71206],[172.99,1.71552]]],[[[172.9336,1.93146],[172.93474,1.94269],[172.94174,1.92695],[172.96941,1.90705],[172.97576,1.89765],[172.98032,1.88203],[173.02027,1.82807],[173.02345,1.82144],[172.97576,1.87376],[172.96144,1.89964],[172.95509,1.90795],[172.93849,1.92316],[172.9336,1.93146]]],[[[-157.58117,1.88032],[-157.57824,1.90795],[-157.57234,1.91279],[-157.54353,1.92902],[-157.53014,1.93057],[-157.52123,1.92768],[-157.51757,1.92365],[-157.53283,1.91608],[-157.54536,1.90233],[-157.54951,1.88447],[-157.5373,1.86636],[-157.52693,1.86481],[-157.51305,1.8666],[-157.50092,1.86587],[-157.49067,1.85017],[-157.47883,1.84797],[-157.45478,1.84707],[-157.43468,1.83853],[-157.42854,1.83857],[-157.43737,1.85017],[-157.46809,1.86835],[-157.47521,1.8806],[-157.46235,1.87629],[-157.45165,1.87641],[-157.44579,1.88373],[-157.44734,1.90111],[-157.43659,1.89387],[-157.43,1.87279],[-157.4237,1.86323],[-157.41198,1.85847],[-157.40795,1.86616],[-157.41002,1.87938],[-157.42443,1.90184],[-157.42638,1.91206],[-157.42439,1.92121],[-157.41999,1.92902],[-157.40831,1.92145],[-157.40315,1.92422],[-157.40632,1.94269],[-157.39472,1.93574],[-157.39399,1.92674],[-157.39586,1.91698],[-157.39208,1.90795],[-157.38207,1.90217],[-157.37719,1.90526],[-157.37397,1.91136],[-157.36384,1.91738],[-157.35847,1.9239],[-157.35412,1.93183],[-157.35237,1.93895],[-157.35505,1.94766],[-157.36168,1.95148],[-157.37963,1.95572],[-157.40888,1.96931],[-157.45104,1.9973],[-157.4663,2.01333],[-157.47753,2.01813],[-157.48265,2.00723],[-157.4879,2.00056],[-157.49889,2.00218],[-157.50841,2.01069],[-157.50939,2.0246],[-157.49629,2.03441],[-157.4746,2.03335],[-157.42382,2.02045],[-157.38585,1.99046],[-157.32185,1.97211],[-157.31013,1.97309],[-157.31139,1.96259],[-157.31505,1.95279],[-157.32067,1.9455],[-157.33617,1.93911],[-157.34044,1.93024],[-157.34492,1.90795],[-157.34773,1.86078],[-157.32543,1.83584],[-157.28978,1.81875],[-157.25243,1.79531],[-157.23839,1.78364],[-157.22297,1.77359],[-157.2069,1.76655],[-157.19099,1.7639],[-157.17939,1.75389],[-157.17463,1.73379],[-157.17878,1.71849],[-157.19408,1.72297],[-157.21325,1.7128],[-157.22411,1.7097],[-157.23506,1.7093],[-157.24641,1.71332],[-157.26085,1.72687],[-157.27119,1.73298],[-157.28157,1.74706],[-157.28686,1.75023],[-157.30928,1.7519],[-157.41059,1.78193],[-157.44896,1.80024],[-157.48265,1.82539],[-157.50862,1.8496],[-157.52827,1.86249],[-157.5373,1.85668],[-157.54682,1.85643],[-157.56603,1.86376],[-157.58117,1.88032]]],[[[172.75034,3.03197],[172.77149,3.02387],[172.78826,3.02904],[172.80226,3.04169],[172.81463,3.05622],[172.82911,3.06428],[172.86801,3.06778],[172.88697,3.07294],[172.88575,3.06192],[172.88014,3.05248],[172.84441,3.0598],[172.81227,3.04047],[172.78647,3.01691],[172.77027,3.01146],[172.75758,3.01903],[172.75034,3.03197]]],[[[172.88697,3.10025],[172.94418,3.12739],[172.96209,3.14183],[172.96705,3.1354],[172.96941,3.12816],[172.94703,3.12303],[172.89975,3.10025],[172.88697,3.10025]]],[[[-159.41002,3.86205],[-159.40632,3.90257],[-159.37682,3.9333],[-159.34228,3.92577],[-159.33137,3.91071],[-159.32677,3.90119],[-159.3249,3.89167],[-159.3199,3.8791],[-159.3081,3.87645],[-159.29467,3.87726],[-159.28454,3.87482],[-159.2779,3.86644],[-159.26643,3.84536],[-159.25329,3.82868],[-159.24999,3.81977],[-159.25263,3.81005],[-159.26342,3.79914],[-159.28376,3.79019],[-159.30871,3.78465],[-159.33345,3.78644],[-159.35285,3.79914],[-159.36079,3.8194],[-159.34276,3.81957],[-159.29479,3.80598],[-159.28523,3.81143],[-159.28388,3.82392],[-159.28718,3.83784],[-159.29137,3.8476],[-159.29967,3.85464],[-159.32514,3.8653],[-159.33544,3.87149],[-159.34203,3.8815],[-159.34785,3.90278],[-159.35285,3.909],[-159.36616,3.91144],[-159.37824,3.90717],[-159.38789,3.89875],[-159.39379,3.88858],[-159.36714,3.84016],[-159.41002,3.86205]]],[[[-172.2296,-4.49733],[-172.20047,-4.49342],[-172.20104,-4.50009],[-172.22277,-4.50628],[-172.21471,-4.51735],[-172.20202,-4.52069],[-172.18769,-4.51849],[-172.17439,-4.51312],[-172.20344,-4.53216],[-172.22716,-4.51873],[-172.2296,-4.49733]]],[[[-174.52156,-4.68385],[-174.51671,-4.68426],[-174.50642,-4.68914],[-174.50068,-4.69427],[-174.50154,-4.69736],[-174.51216,-4.69199],[-174.52156,-4.68385]]],[[[-174.54174,-4.67278],[-174.54011,-4.67205],[-174.53588,-4.6775],[-174.52766,-4.68385],[-174.53388,-4.68076],[-174.54174,-4.67278]]],[[[-174.54341,-4.66025],[-174.5384,-4.65651],[-174.5244,-4.66448],[-174.50154,-4.68768],[-174.50084,-4.69109],[-174.51399,-4.6762],[-174.52827,-4.66741],[-174.53807,-4.66522],[-174.54341,-4.66025]]],[[[-171.26403,-4.45631],[-171.25996,-4.44411],[-171.24499,-4.44134],[-171.23388,-4.44899],[-171.23005,-4.46054],[-171.23652,-4.46852],[-171.24958,-4.46982],[-171.25963,-4.46526],[-171.26403,-4.45631]]],[[[-171.09358,-3.13144],[-171.08544,-3.11126],[-171.08312,-3.12998],[-171.08727,-3.14316],[-171.09248,-3.14544],[-171.09358,-3.13144]]],[[[169.52215,-0.865],[169.52508,-0.85377],[169.5276,-0.85084],[169.53639,-0.84791],[169.54518,-0.84791],[169.55445,-0.85605],[169.55592,-0.85915],[169.55535,-0.86614],[169.5525,-0.87379],[169.54811,-0.87689],[169.54314,-0.87803],[169.53549,-0.872],[169.5276,-0.87249],[169.52508,-0.87086],[169.52215,-0.865]]],[[[173.25587,1.98566],[173.2562,1.98998],[173.25847,1.99283],[173.26148,1.99323],[173.26393,1.98847],[173.26393,1.97801],[173.29371,1.96914],[173.30592,1.96988],[173.30787,1.97329],[173.30592,1.9807],[173.29737,1.98989],[173.29152,2.01512],[173.29152,2.02668],[173.28972,2.03384],[173.28712,2.03856],[173.27703,2.04438],[173.27052,2.04556],[173.26612,2.04385],[173.26466,2.03677],[173.26856,2.01142],[173.26677,2.0043],[173.26271,1.99746],[173.25782,1.99702],[173.26051,2.01284],[173.2575,2.02847],[173.25961,2.0434],[173.26466,2.05516],[173.26856,2.05931],[173.27801,2.05866],[173.28289,2.05634],[173.28907,2.05036],[173.29347,2.04344],[173.29835,2.01398],[173.30942,1.98432],[173.31837,1.977],[173.31788,1.97077],[173.313,1.96552],[173.30445,1.96158],[173.28484,1.96377],[173.26027,1.97114],[173.2575,1.9746],[173.25587,1.98566]]],[[[-160.41662,4.71711],[-160.41181,4.72163],[-160.40119,4.72309],[-160.39,4.72102],[-160.3789,4.71328],[-160.38276,4.70698],[-160.39538,4.70478],[-160.41039,4.70917],[-160.41662,4.71711]]]]},"source":"Natural Earth Admin 0 Countries, 1:10m, version 5.1.1","sourceUrl":"https://www.naturalearthdata.com/downloads/10m-cultural-vectors/10m-admin-0-countries/"}
