{"type":"Feature","properties":{"isoA2":"KN","name":"Saint Kitts and Nevis"},"geometry":{"type":"MultiPolygon","coordinates":[[[[-62.62637,17.14069],[-62.61864,17.18281],[-62.59923,17.20295],[-62.57844,17.20254],[-62.56037,17.19672],[-62.5465,17.18378],[-62.53844,17.16193],[-62.53677,17.12971],[-62.53844,17.121],[-62.54357,17.10887],[-62.5476,17.10464],[-62.56574,17.10053],[-62.61217,17.10415],[-62.62637,17.14069]]],[[[-62.86107,17.36229],[-62.85314,17.39472],[-62.84655,17.39997],[-62.82665,17.40717],[-62.82234,17.4101],[-62.81957,17.41584],[-62.71996,17.35855],[-62.69546,17.33324],[-62.67813,17.29222],[-62.66686,17.27351],[-62.63683,17.25821],[-62.62483,17.24185],[-62.62474,17.22529],[-62.64704,17.21719],[-62.65974,17.22549],[-62.67048,17.26317],[-62.6903,17.27497],[-62.70336,17.28913],[-62.71255,17.2923],[-62.74405,17.29059],[-62.75695,17.2923],[-62.78873,17.30467],[-62.83161,17.33015],[-62.86107,17.36229]]]]},"source":"Natural Earth Admin 0 Countries, 1:10m, version 5.1.1","sourceUrl":"https://www.naturalearthdata.com/downloads/10m-cultural-vectors/10m-admin-0-countries/"}
