{"type":"Feature","properties":{"isoA2":"KY","name":"Cayman Islands"},"geometry":{"type":"MultiPolygon","coordinates":[[[[-81.41654,19.37003],[-81.41424,19.38235],[-81.40835,19.39021],[-81.39412,19.39476],[-81.37572,19.38898],[-81.37859,19.37582],[-81.369,19.35908],[-81.36059,19.3401],[-81.36405,19.31995],[-81.34972,19.30211],[-81.32244,19.30225],[-81.3035,19.30906],[-81.30126,19.32062],[-81.29381,19.33438],[-81.28808,19.33137],[-81.2733,19.32758],[-81.27343,19.3321],[-81.27953,19.34178],[-81.2733,19.33438],[-81.27798,19.34406],[-81.2733,19.34805],[-81.28075,19.35627],[-81.28629,19.36848],[-81.26814,19.36628],[-81.23156,19.35155],[-81.21182,19.34805],[-81.15779,19.35505],[-81.1361,19.35488],[-81.11754,19.35277],[-81.09952,19.34732],[-81.08951,19.33539],[-81.08659,19.30993],[-81.10668,19.29532],[-81.1351,19.29074],[-81.1695,19.29956],[-81.23346,19.28923],[-81.26647,19.26606],[-81.27636,19.26484],[-81.35788,19.27409],[-81.37572,19.27228],[-81.38749,19.26386],[-81.39794,19.27416],[-81.39593,19.28956],[-81.3889,19.30751],[-81.38543,19.32431],[-81.3855,19.33886],[-81.39033,19.35226],[-81.41654,19.37003]]],[[[-80.11316,19.65866],[-80.09855,19.67686],[-80.08154,19.68593],[-80.06209,19.70068],[-80.03783,19.70404],[-80.00874,19.70395],[-79.98103,19.7143],[-79.96426,19.7049],[-79.97794,19.69746],[-80.00392,19.69027],[-80.07797,19.65402],[-80.11316,19.65866]]],[[[-79.89375,19.67967],[-79.87189,19.70464],[-79.80284,19.73283],[-79.7689,19.75204],[-79.7459,19.75763],[-79.73152,19.7521],[-79.72664,19.73706],[-79.77389,19.71336],[-79.89375,19.67967]]]]},"source":"Natural Earth Admin 0 Countries, 1:10m, version 5.1.1","sourceUrl":"https://www.naturalearthdata.com/downloads/10m-cultural-vectors/10m-admin-0-countries/"}
