{"type":"Feature","properties":{"isoA2":"LC","name":"Saint Lucia"},"geometry":{"type":"Polygon","coordinates":[[[-61.07852,13.87979],[-61.07592,13.89037],[-61.06688,13.909],[-61.05948,13.93122],[-61.03555,13.96491],[-61.0266,13.98737],[-61.00227,14.02314],[-60.98729,14.03254],[-60.98233,14.03734],[-60.97606,14.06118],[-60.94762,14.10228],[-60.93346,14.11188],[-60.91413,14.1057],[-60.91861,14.08845],[-60.91194,14.07949],[-60.90103,14.07339],[-60.89297,14.06468],[-60.89021,14.05223],[-60.88296,13.98062],[-60.88305,13.95441],[-60.89509,13.87735],[-60.8922,13.8332],[-60.9073,13.77733],[-60.92284,13.77269],[-60.92711,13.76992],[-60.93175,13.76032],[-60.94078,13.72211],[-60.94701,13.7163],[-60.95507,13.71467],[-60.97338,13.739],[-61.04817,13.76732],[-61.06493,13.78693],[-61.07421,13.79873],[-61.07811,13.8063],[-61.07116,13.82197],[-61.07006,13.8321],[-61.07116,13.85179],[-61.07811,13.86961],[-61.07852,13.87979]]]},"source":"Natural Earth Admin 0 Countries, 1:10m, version 5.1.1","sourceUrl":"https://www.naturalearthdata.com/downloads/10m-cultural-vectors/10m-admin-0-countries/"}
