{"type":"Feature","properties":{"isoA2":"MH","name":"Marshall Islands"},"geometry":{"type":"MultiPolygon","coordinates":[[[[168.10109,5.59931],[168.11524,5.5954],[168.1211,5.59736],[168.12566,5.6057],[168.12761,5.61424],[168.12729,5.62279],[168.12452,5.63105],[168.13201,5.61856],[168.12794,5.60163],[168.11622,5.59138],[168.10109,5.59931]]],[[[171.72169,6.09097],[171.72462,6.10171],[171.73243,6.09211],[171.74318,6.0832],[171.74513,6.07913],[171.7282,6.07929],[171.72283,6.08344],[171.72169,6.09097]]],[[[171.8921,7.09081],[171.89601,7.0939],[171.90968,7.09878],[171.91773,7.10513],[171.92189,7.11176],[171.92123,7.11848],[171.91538,7.12515],[171.92888,7.11831],[171.92384,7.1044],[171.90895,7.09227],[171.8921,7.09081]]],[[[168.68539,4.5738],[168.73504,4.59052],[168.74431,4.59862],[168.76808,4.62906],[168.75847,4.60464],[168.74138,4.58584],[168.71681,4.57477],[168.68539,4.5738]]],[[[169.59034,5.80093],[169.61012,5.81192],[169.61752,5.81826],[169.62965,5.84016],[169.63868,5.87035],[169.64519,5.91714],[169.65553,5.94286],[169.67604,5.96101],[169.70021,5.97602],[169.7186,5.99311],[169.73455,6.01313],[169.72145,5.97663],[169.66521,5.93879],[169.65252,5.89985],[169.6478,5.87002],[169.63502,5.82905],[169.61524,5.79877],[169.59034,5.80093]]],[[[171.94842,6.06778],[171.96648,6.062],[171.9961,6.06098],[172.0298,6.05415],[172.00831,6.05622],[171.98414,6.0517],[171.96241,6.05183],[171.94842,6.06778]]],[[[171.57732,7.04719],[171.58725,7.03408],[171.59799,7.02473],[171.61118,7.01992],[171.67612,7.02285],[171.68946,7.01992],[171.73406,6.98469],[171.75668,6.97211],[171.73032,6.97557],[171.68873,7.00658],[171.66041,7.01309],[171.61394,7.00609],[171.59262,7.01529],[171.57732,7.04719]]],[[[171.03565,7.1551],[171.0503,7.17072],[171.05055,7.16104],[171.05714,7.14346],[171.22641,7.07575],[171.23748,7.07591],[171.26336,7.0808],[171.28484,7.08832],[171.39356,7.10993],[171.36687,7.09447],[171.29347,7.08369],[171.26319,7.06769],[171.2352,7.06769],[171.20216,7.07245],[171.06088,7.1354],[171.03565,7.1551]]],[[[168.67506,7.32087],[168.67921,7.33519],[168.69402,7.32176],[168.73829,7.30907],[168.83009,7.30793],[168.81528,7.29247],[168.79152,7.2934],[168.7461,7.30419],[168.69581,7.31338],[168.67506,7.32087]]],[[[168.55372,7.44986],[168.56251,7.46434],[168.56642,7.45099],[168.57252,7.41779],[168.57683,7.40412],[168.56397,7.41275],[168.55519,7.43032],[168.55372,7.44986]]],[[[166.83578,11.15925],[166.87184,11.1623],[166.90414,11.17292],[166.89422,11.15518],[166.87526,11.14496],[166.85336,11.14541],[166.83578,11.15925]]],[[[169.11451,5.63813],[169.11647,5.64924],[169.12062,5.64741],[169.11451,5.63813]]],[[[171.76417,7.01952],[171.77019,7.02888],[171.79591,7.06021],[171.80095,7.06269],[171.79444,7.04975],[171.78598,7.03824],[171.77589,7.02814],[171.76417,7.01952]]],[[[168.93849,7.59638],[168.95183,7.59919],[168.95965,7.59858],[168.96559,7.59536],[168.96974,7.58389],[168.9686,7.57123],[168.96559,7.57465],[168.96811,7.5845],[168.96209,7.5917],[168.95135,7.59569],[168.93849,7.59638]]],[[[167.4017,8.31782],[167.40772,8.30728],[167.39967,8.31078],[167.4017,8.31782]]],[[[167.73032,8.73526],[167.73308,8.73969],[167.74024,8.74384],[167.74155,8.7377],[167.74,8.73322],[167.73162,8.7246],[167.73032,8.73526]]],[[[170.83717,8.88959],[170.84132,8.89859],[170.84457,8.90078],[170.85011,8.90143],[170.85174,8.89777],[170.84474,8.8865],[170.83717,8.88959]]],[[[170.24024,9.44977],[170.23878,9.4667],[170.24391,9.46638],[170.24708,9.45775],[170.24024,9.44977]]],[[[170.87468,10.2746],[170.87452,10.28661],[170.87859,10.28718],[170.87875,10.27509],[170.87468,10.2746]]],[[[165.54021,11.63377],[165.54689,11.63101],[165.55063,11.62694],[165.55372,11.61982],[165.54021,11.63377]]],[[[165.28224,11.69579],[165.28224,11.70844],[165.28679,11.71088],[165.28891,11.70596],[165.28224,11.69579]]],[[[168.98731,14.58686],[168.9983,14.59903],[169.01075,14.61017],[169.01368,14.6105],[168.99692,14.59309],[168.98731,14.58686]]]]},"source":"Natural Earth Admin 0 Countries, 1:10m, version 5.1.1","sourceUrl":"https://www.naturalearthdata.com/downloads/10m-cultural-vectors/10m-admin-0-countries/"}
