{"type":"Feature","properties":{"isoA2":"MO","name":"Macau"},"geometry":{"type":"MultiPolygon","coordinates":[[[[113.53224,22.15253],[113.53443,22.1612],[113.55291,22.16584],[113.5586,22.16303],[113.57407,22.16075],[113.57407,22.15611],[113.57179,22.1529],[113.56788,22.15058],[113.56324,22.15058],[113.56023,22.14155],[113.57252,22.13732],[113.57797,22.13963],[113.57488,22.13504],[113.57976,22.1319],[113.58595,22.13194],[113.58749,22.12486],[113.58359,22.12332],[113.57748,22.12665],[113.57797,22.12092],[113.57407,22.11937],[113.56674,22.12336],[113.5652,22.11262],[113.56633,22.10769],[113.56324,22.10692],[113.55738,22.11115],[113.55152,22.10615],[113.5468,22.10537],[113.54371,22.10769],[113.54111,22.11327],[113.54526,22.11424],[113.54233,22.14073],[113.53411,22.14879],[113.53224,22.15253]]],[[[113.51987,22.18374],[113.52215,22.1905],[113.53525,22.20755],[113.5337,22.21076],[113.53207,22.21076],[113.53289,22.20917],[113.52735,22.20755],[113.52434,22.21255],[113.5289,22.21463],[113.53525,22.21463],[113.53891,22.22077],[113.5538,22.21149],[113.55681,22.20356],[113.55152,22.20441],[113.54843,22.20205],[113.55071,22.19896],[113.55714,22.20246],[113.5538,22.19587],[113.55226,22.19741],[113.55071,22.19587],[113.55152,22.18956],[113.53989,22.18264],[113.53598,22.18264],[113.53289,22.1787],[113.5289,22.1787],[113.52475,22.17373],[113.51987,22.18374]]]]},"source":"Natural Earth Admin 0 Countries, 1:10m, version 5.1.1","sourceUrl":"https://www.naturalearthdata.com/downloads/10m-cultural-vectors/10m-admin-0-countries/"}
