{"type":"Feature","properties":{"isoA2":"MR","name":"Mauritania"},"geometry":{"type":"MultiPolygon","coordinates":[[[[-17.08118,20.87475],[-17.07743,20.90451],[-17.05402,20.99546],[-17.04738,21.0274],[-17.00493,21.14192],[-16.96834,21.32459],[-16.95883,21.33286],[-13.01525,21.33343],[-13.09333,22.49548],[-13.10635,22.56023],[-13.15498,22.6888],[-13.1655,22.75269],[-13.15229,22.82],[-13.11989,22.88354],[-13.03434,22.99521],[-13.01525,23.018],[-12.61943,23.27083],[-12.55838,23.29029],[-12.38991,23.31253],[-12.35389,23.32248],[-12.13458,23.41935],[-12.03272,23.44498],[-12.01934,23.461],[-12.01531,23.49518],[-12.01531,25.9949],[-8.70722,25.995],[-8.68766,26.00002],[-8.68081,26.01314],[-8.68239,27.28542],[-5.51596,25.42326],[-4.82161,24.99507],[-6.59311,24.99413],[-6.50567,24.27028],[-6.0641,20.49544],[-5.94911,19.49563],[-5.62335,16.52783],[-5.60588,16.49589],[-5.36491,16.33492],[-5.3553,16.32479],[-5.35329,16.31198],[-5.51173,15.49342],[-9.34922,15.49564],[-9.34296,15.58693],[-9.32932,15.65525],[-9.33242,15.68757],[-9.35645,15.69785],[-9.37594,15.68592],[-9.43702,15.61489],[-9.45169,15.58833],[-9.45185,15.55921],[-9.43588,15.4959],[-9.42389,15.44053],[-9.67212,15.43066],[-9.72082,15.42092],[-9.74072,15.4126],[-9.79736,15.3803],[-9.8356,15.3711],[-9.9514,15.38121],[-10.06762,15.36475],[-10.10829,15.36589],[-10.1316,15.37263],[-10.16798,15.39518],[-10.18839,15.40472],[-10.19609,15.40529],[-10.21449,15.40198],[-10.22322,15.40203],[-10.30875,15.43521],[-10.32265,15.43709],[-10.37076,15.4335],[-10.39841,15.4387],[-10.50041,15.44035],[-10.5155,15.43774],[-10.53499,15.44169],[-10.55152,15.43916],[-10.58738,15.42725],[-10.60713,15.42443],[-10.64888,15.42487],[-10.70919,15.43387],[-10.72536,15.43306],[-10.73637,15.42263],[-10.74014,15.40358],[-10.7389,15.36216],[-10.74681,15.34113],[-10.75451,15.33364],[-10.77068,15.32467],[-10.78174,15.30842],[-10.80019,15.30684],[-10.81104,15.30312],[-10.82722,15.2877],[-10.8344,15.2714],[-10.84406,15.23455],[-10.85533,15.21765],[-10.88225,15.19285],[-10.89088,15.17675],[-10.90623,15.11978],[-10.91517,15.1029],[-10.94804,15.152],[-10.98519,15.1875],[-11.01273,15.23959],[-11.04539,15.27021],[-11.29819,15.45105],[-11.3169,15.47167],[-11.40956,15.6022],[-11.43483,15.62339],[-11.45824,15.63295],[-11.51539,15.64442],[-11.52438,15.64347],[-11.52733,15.64256],[-11.52562,15.63835],[-11.51539,15.63026],[-11.51312,15.62528],[-11.51234,15.62018],[-11.51539,15.61008],[-11.52428,15.60029],[-11.53596,15.59492],[-11.56257,15.58724],[-11.57921,15.57797],[-11.61487,15.54117],[-11.64412,15.52644],[-11.67083,15.52841],[-11.69755,15.5368],[-11.72706,15.54117],[-11.72706,15.50699],[-11.72943,15.49606],[-11.75486,15.46908],[-11.76768,15.4372],[-11.78349,15.36589],[-11.81692,15.2961],[-11.82106,15.2801],[-11.82679,15.23256],[-11.84566,15.17907],[-11.84819,15.15815],[-11.84421,15.13484],[-11.84514,15.12456],[-11.85676,15.08425],[-11.85914,15.05407],[-11.8609,15.049],[-11.85103,15.04195],[-11.84447,15.04433],[-11.8392,15.049],[-11.83284,15.049],[-11.82116,15.03975],[-11.81377,15.02854],[-11.81108,15.0143],[-11.8132,14.99593],[-11.82059,14.98028],[-11.82581,14.96247],[-11.83093,14.92643],[-11.8301,14.92033],[-11.82044,14.9064],[-11.82038,14.89997],[-11.83708,14.8931],[-11.85082,14.87648],[-11.86261,14.85408],[-11.87749,14.84152],[-11.89573,14.83207],[-11.93599,14.82362],[-11.9503,14.81155],[-11.97397,14.77985],[-11.99149,14.76804],[-12.01107,14.76274],[-12.03107,14.76282],[-12.04967,14.76721],[-12.05706,14.76194],[-12.06233,14.74626],[-12.07039,14.7344],[-12.08145,14.74003],[-12.12367,14.77664],[-12.13887,14.78453],[-12.16021,14.78101],[-12.20326,14.76618],[-12.22478,14.76344],[-12.24679,14.76701],[-12.26413,14.77494],[-12.31958,14.81719],[-12.3825,14.84602],[-12.40009,14.86039],[-12.43384,14.89943],[-12.44763,14.90744],[-12.4482,14.91821],[-12.47151,14.998],[-12.47626,15.00774],[-12.48489,15.01728],[-12.49556,15.02301],[-12.51897,15.02828],[-12.54706,15.04717],[-12.60215,15.07877],[-12.62295,15.10226],[-12.63227,15.10544],[-12.64765,15.10316],[-12.67927,15.09378],[-12.69031,15.09239],[-12.71705,15.10342],[-12.75457,15.13856],[-12.77976,15.14639],[-12.784,15.15815],[-12.78467,15.16603],[-12.77927,15.1914],[-12.77947,15.19962],[-12.78198,15.20729],[-12.78722,15.21416],[-12.79632,15.22029],[-12.8064,15.22308],[-12.81696,15.22308],[-12.83833,15.21876],[-12.84789,15.21894],[-12.85678,15.22199],[-12.88836,15.25088],[-12.89438,15.26336],[-12.8842,15.27083],[-12.85004,15.26739],[-12.83345,15.27],[-12.82805,15.28387],[-12.83454,15.30023],[-12.84727,15.31328],[-12.90683,15.35268],[-12.91897,15.36537],[-12.92722,15.38074],[-12.93102,15.39705],[-12.93117,15.43053],[-12.93306,15.43828],[-12.95091,15.46541],[-12.95494,15.49306],[-12.95802,15.50174],[-12.96432,15.50916],[-12.98019,15.51629],[-12.99584,15.51422],[-13.01055,15.50629],[-13.02377,15.49595],[-13.03889,15.48688],[-13.05323,15.4851],[-13.08385,15.49275],[-13.08958,15.49704],[-13.09496,15.51471],[-13.09509,15.52342],[-13.08945,15.56104],[-13.09181,15.57512],[-13.09901,15.58688],[-13.10971,15.59641],[-13.12222,15.60349],[-13.15255,15.61241],[-13.17105,15.62535],[-13.17824,15.62819],[-13.19281,15.62897],[-13.22281,15.62385],[-13.23784,15.62344],[-13.2473,15.6483],[-13.24875,15.65672],[-13.24766,15.66561],[-13.24399,15.67372],[-13.22888,15.69661],[-13.22712,15.70395],[-13.22826,15.71129],[-13.24394,15.73578],[-13.25066,15.74276],[-13.27397,15.75749],[-13.28097,15.76281],[-13.28613,15.76963],[-13.28745,15.77816],[-13.27968,15.80353],[-13.27996,15.82286],[-13.28477,15.83991],[-13.29365,15.85531],[-13.31603,15.88177],[-13.31818,15.88849],[-13.31818,15.89671],[-13.31373,15.92213],[-13.31593,15.93045],[-13.32177,15.93815],[-13.34701,15.95675],[-13.3558,15.96554],[-13.36977,15.98549],[-13.38367,16.01918],[-13.38605,16.0444],[-13.38856,16.0521],[-13.39458,16.05928],[-13.4221,16.07721],[-13.44003,16.10186],[-13.45509,16.10222],[-13.49155,16.08843],[-13.5017,16.09514],[-13.49987,16.11065],[-13.4831,16.14103],[-13.48493,16.15498],[-13.49726,16.15607],[-13.51641,16.14904],[-13.56906,16.13819],[-13.60697,16.12326],[-13.63503,16.1216],[-13.66242,16.10744],[-13.66895,16.10574],[-13.67813,16.10822],[-13.68469,16.1138],[-13.69601,16.11891],[-13.69996,16.12563],[-13.70448,16.12884],[-13.71957,16.13561],[-13.72278,16.1461],[-13.71262,16.17607],[-13.71058,16.18888],[-13.72942,16.1895],[-13.73823,16.18713],[-13.7467,16.18237],[-13.75425,16.17535],[-13.772,16.15044],[-13.77882,16.1432],[-13.79494,16.13121],[-13.8192,16.11928],[-13.82732,16.1185],[-13.83577,16.12057],[-13.84483,16.12605],[-13.85277,16.13349],[-13.85907,16.14227],[-13.86383,16.15183],[-13.87228,16.17875],[-13.87724,16.18687],[-13.88382,16.19374],[-13.90783,16.21002],[-13.94705,16.22113],[-13.96408,16.23007],[-13.9678,16.24604],[-13.96268,16.26397],[-13.96304,16.27239],[-13.96744,16.28139],[-13.97728,16.29384],[-13.97932,16.30035],[-13.97116,16.32422],[-13.97186,16.3312],[-13.97785,16.33797],[-14.00671,16.35027],[-14.0156,16.35585],[-14.03984,16.3821],[-14.07304,16.40065],[-14.13244,16.45264],[-14.16639,16.49088],[-14.19719,16.51346],[-14.21417,16.53496],[-14.22228,16.53961],[-14.25765,16.54318],[-14.26806,16.54788],[-14.27326,16.55563],[-14.27458,16.57351],[-14.27796,16.58126],[-14.28765,16.58571],[-14.32597,16.5824],[-14.33532,16.58648],[-14.33703,16.59413],[-14.33176,16.61315],[-14.33134,16.6241],[-14.33553,16.63154],[-14.34325,16.63666],[-14.40663,16.66079],[-14.42625,16.6596],[-14.43583,16.65599],[-14.47195,16.6364],[-14.49309,16.63247],[-14.50392,16.63268],[-14.54446,16.64085],[-14.55513,16.64059],[-14.59701,16.62917],[-14.60807,16.6288],[-14.61908,16.63067],[-14.64719,16.64353],[-14.65597,16.64591],[-14.6659,16.64565],[-14.69969,16.63713],[-14.71122,16.63578],[-14.88201,16.64767],[-14.9125,16.64064],[-14.93094,16.64338],[-14.94133,16.65604],[-14.94986,16.67232],[-14.96293,16.6858],[-14.9743,16.69139],[-14.99662,16.68245],[-15.00691,16.67583],[-15.01337,16.66658],[-15.01874,16.64612],[-15.02365,16.63997],[-15.03693,16.63258],[-15.04437,16.63191],[-15.05156,16.63418],[-15.062,16.64379],[-15.06985,16.65526],[-15.07889,16.66498],[-15.09331,16.66916],[-15.10757,16.66539],[-15.11626,16.65552],[-15.11827,16.6426],[-15.11233,16.62922],[-15.09615,16.61397],[-15.09285,16.60762],[-15.09321,16.60018],[-15.0975,16.59449],[-15.10401,16.59036],[-15.12509,16.58271],[-15.23248,16.56638],[-15.2486,16.56581],[-15.29594,16.57305],[-15.32803,16.57196],[-15.34363,16.56871],[-15.38575,16.55176],[-15.39981,16.54835],[-15.41453,16.54803],[-15.42688,16.55315],[-15.43944,16.57268],[-15.44885,16.58018],[-15.46399,16.58147],[-15.47851,16.57516],[-15.49091,16.56452],[-15.5152,16.53093],[-15.52481,16.5222],[-15.5367,16.51651],[-15.55147,16.51512],[-15.59442,16.52364],[-15.60966,16.52132],[-15.6215,16.51424],[-15.64361,16.49465],[-15.65741,16.48618],[-15.67219,16.48137],[-15.68754,16.48055],[-15.7032,16.48442],[-15.73529,16.4977],[-15.76774,16.49946],[-15.81296,16.51377],[-15.82893,16.51455],[-15.85357,16.51026],[-15.862,16.51026],[-15.89693,16.51842],[-15.91104,16.51687],[-15.95068,16.49982],[-15.95806,16.49843],[-15.96437,16.49899],[-15.98561,16.50587],[-15.9931,16.50463],[-16.00731,16.49615],[-16.03119,16.4929],[-16.05377,16.49543],[-16.07403,16.50489],[-16.09098,16.5222],[-16.10307,16.53956],[-16.11046,16.54695],[-16.11966,16.55238],[-16.13227,16.55475],[-16.14431,16.55269],[-16.15578,16.54752],[-16.18518,16.52731],[-16.19536,16.52271],[-16.20673,16.52075],[-16.21795,16.52153],[-16.25102,16.52762],[-16.27381,16.52318],[-16.2951,16.51062],[-16.31355,16.49331],[-16.3274,16.47455],[-16.33494,16.45579],[-16.34016,16.4159],[-16.38109,16.24666],[-16.38538,16.23493],[-16.39168,16.22475],[-16.40729,16.21483],[-16.44419,16.2063],[-16.45876,16.19415],[-16.46599,16.17405],[-16.47044,16.10636],[-16.4878,16.06605],[-16.5016,16.02187],[-16.50754,16.01039],[-16.50992,15.90151],[-16.51974,15.84637],[-16.54235,15.80882],[-16.52733,15.97736],[-16.52929,16.06582],[-16.53921,16.26724],[-16.52929,16.33271],[-16.52221,16.35053],[-16.4945,16.4016],[-16.48616,16.45173],[-16.47769,16.4665],[-16.46715,16.49286],[-16.46719,16.60025],[-16.45922,16.64395],[-16.37914,16.84101],[-16.35782,16.87466],[-16.34309,16.94229],[-16.326,16.97525],[-16.27807,17.04072],[-16.19253,17.21931],[-16.18668,17.24384],[-16.1726,17.26236],[-16.07897,17.54483],[-16.04898,17.66718],[-16.04141,17.79999],[-16.02416,17.96015],[-16.03523,18.14143],[-16.06941,18.48404],[-16.08056,18.51972],[-16.13199,18.62865],[-16.15567,18.75251],[-16.17296,18.79312],[-16.16397,18.81684],[-16.1656,18.84418],[-16.20458,18.98273],[-16.23892,19.06102],[-16.28279,19.13044],[-16.34187,19.19575],[-16.36473,19.21459],[-16.36828,19.2215],[-16.38646,19.2246],[-16.41185,19.23924],[-16.45092,19.25019],[-16.46719,19.25926],[-16.4746,19.27082],[-16.49128,19.31306],[-16.4945,19.33096],[-16.50475,19.35],[-16.52408,19.36591],[-16.53547,19.3808],[-16.52184,19.39643],[-16.46373,19.38154],[-16.40779,19.38923],[-16.3592,19.41584],[-16.32323,19.45791],[-16.29955,19.49665],[-16.29385,19.5161],[-16.2849,19.52928],[-16.28283,19.53608],[-16.28588,19.54271],[-16.29255,19.54658],[-16.29914,19.54702],[-16.30211,19.5432],[-16.30728,19.54361],[-16.3629,19.48583],[-16.39147,19.46406],[-16.35049,19.54662],[-16.36465,19.53925],[-16.40518,19.50715],[-16.42626,19.48249],[-16.43224,19.47138],[-16.43419,19.45954],[-16.42935,19.44794],[-16.42894,19.44172],[-16.43749,19.4228],[-16.43993,19.41324],[-16.44245,19.41035],[-16.45507,19.40827],[-16.46508,19.41254],[-16.46886,19.43122],[-16.46719,19.46406],[-16.45775,19.47968],[-16.43163,19.50593],[-16.42626,19.52302],[-16.42252,19.54385],[-16.41283,19.55419],[-16.39948,19.56175],[-16.38463,19.57392],[-16.28913,19.71113],[-16.27082,19.7259],[-16.26863,19.73534],[-16.26741,19.75528],[-16.26427,19.76284],[-16.25796,19.76569],[-16.25601,19.76952],[-16.2338,19.79365],[-16.23351,19.80435],[-16.23595,19.8133],[-16.24096,19.82099],[-16.24804,19.82783],[-16.24022,19.83446],[-16.23518,19.84243],[-16.23306,19.85163],[-16.2338,19.86197],[-16.24962,19.85346],[-16.25487,19.84829],[-16.2578,19.86416],[-16.24348,19.88874],[-16.24804,19.9029],[-16.26651,19.91372],[-16.27916,19.90522],[-16.28913,19.88247],[-16.30557,19.87303],[-16.31273,19.87763],[-16.3133,19.88972],[-16.30956,19.9029],[-16.29796,19.92251],[-16.23908,19.97919],[-16.22248,20.00357],[-16.21398,20.03327],[-16.21837,20.05793],[-16.24861,20.10847],[-16.26114,20.13569],[-16.24608,20.13573],[-16.23961,20.13813],[-16.2338,20.14313],[-16.21166,20.17561],[-16.20311,20.1955],[-16.1997,20.21515],[-16.20226,20.2333],[-16.20897,20.24836],[-16.23762,20.28998],[-16.24372,20.29312],[-16.25796,20.29393],[-16.26749,20.29825],[-16.27514,20.31704],[-16.27916,20.32123],[-16.29507,20.33055],[-16.32323,20.39639],[-16.34789,20.41755],[-16.35049,20.42744],[-16.34773,20.43085],[-16.338,20.43549],[-16.33995,20.44107],[-16.34923,20.45742],[-16.3535,20.47639],[-16.39118,20.56949],[-16.40103,20.58324],[-16.41568,20.58877],[-16.4239,20.60126],[-16.4252,20.62612],[-16.42956,20.64423],[-16.44668,20.63654],[-16.46719,20.6496],[-16.46719,20.65705],[-16.42195,20.66914],[-16.40868,20.67504],[-16.42935,20.67756],[-16.46467,20.67194],[-16.48082,20.67512],[-16.4945,20.69115],[-16.48705,20.69798],[-16.50133,20.72598],[-16.50805,20.73062],[-16.52929,20.73896],[-16.53628,20.69538],[-16.52843,20.59862],[-16.54235,20.56086],[-16.55248,20.5764],[-16.5655,20.58735],[-16.59073,20.60244],[-16.59899,20.61107],[-16.61181,20.63447],[-16.62117,20.64647],[-16.63366,20.65498],[-16.66503,20.67056],[-16.67268,20.67756],[-16.67345,20.68895],[-16.66869,20.69367],[-16.66234,20.69538],[-16.65901,20.69798],[-16.65929,20.70653],[-16.66503,20.71475],[-16.67113,20.73713],[-16.68252,20.74921],[-16.71019,20.77001],[-16.71398,20.77765],[-16.71369,20.79621],[-16.71736,20.80414],[-16.73412,20.82152],[-16.74543,20.8686],[-16.75154,20.87987],[-16.76203,20.89203],[-16.76895,20.90681],[-16.7731,20.92255],[-16.77505,20.93765],[-16.78869,20.92398],[-16.80321,20.93745],[-16.80899,20.95258],[-16.81163,20.9689],[-16.81664,20.98603],[-16.8404,21.00951],[-16.84398,21.02387],[-16.84935,21.03364],[-16.87328,21.06464],[-16.87873,21.07852],[-16.88077,21.0926],[-16.88581,21.10859],[-16.89855,21.13687],[-16.91759,21.15917],[-16.93122,21.15152],[-16.95726,21.10586],[-17.00007,21.05097],[-17.01012,21.04295],[-17.01586,21.03124],[-17.00841,21.01337],[-16.99718,21.0185],[-16.99596,21.00141],[-17.00227,20.96491],[-17.00438,20.93244],[-17.00841,20.92398],[-17.01806,20.91791],[-17.04125,20.91136],[-17.04943,20.90351],[-17.05012,20.89476],[-17.04552,20.88719],[-17.03576,20.87678],[-17.02855,20.86083],[-17.0279,20.85423],[-17.02892,20.84203],[-17.03844,20.79979],[-17.04695,20.77782],[-17.05687,20.76691],[-17.08118,20.87475]]],[[[-16.46398,19.68464],[-16.45714,19.70335],[-16.42626,19.74897],[-16.4274,19.77798],[-16.42626,19.78685],[-16.4182,19.80561],[-16.40538,19.82111],[-16.39094,19.82612],[-16.3778,19.81354],[-16.35839,19.85318],[-16.34594,19.86835],[-16.33682,19.8557],[-16.36706,19.7211],[-16.39232,19.65835],[-16.43248,19.60126],[-16.4497,19.62279],[-16.45295,19.62922],[-16.45019,19.65648],[-16.45665,19.66673],[-16.46398,19.68464]]],[[[-16.39769,19.59992],[-16.39273,19.61713],[-16.35855,19.67744],[-16.32091,19.7285],[-16.30956,19.73078],[-16.30163,19.7226],[-16.31339,19.70466],[-16.34219,19.67642],[-16.35871,19.64789],[-16.39452,19.59992],[-16.39769,19.59992]]],[[[-16.4969,19.70551],[-16.49112,19.72508],[-16.47716,19.73151],[-16.46959,19.72997],[-16.46898,19.71971],[-16.47155,19.69965],[-16.4779,19.68553],[-16.48424,19.67772],[-16.49185,19.68407],[-16.4969,19.70551]]],[[[-16.47423,20.59418],[-16.46911,20.60908],[-16.4593,20.61469],[-16.45067,20.61254],[-16.4464,20.60733],[-16.44811,20.57453],[-16.45417,20.57111],[-16.46728,20.57624],[-16.47423,20.59418]]]]},"source":"Natural Earth Admin 0 Countries, 1:10m, version 5.1.1","sourceUrl":"https://www.naturalearthdata.com/downloads/10m-cultural-vectors/10m-admin-0-countries/"}
