{"type":"Feature","properties":{"isoA2":"MS","name":"Montserrat"},"geometry":{"type":"Polygon","coordinates":[[[-62.23013,16.72761],[-62.21886,16.77631],[-62.20202,16.81932],[-62.18293,16.81273],[-62.17467,16.81314],[-62.17931,16.7945],[-62.17003,16.777],[-62.15632,16.76032],[-62.14737,16.74429],[-62.14769,16.73705],[-62.15176,16.72451],[-62.14118,16.70185],[-62.14053,16.69648],[-62.14403,16.68822],[-62.14977,16.68179],[-62.15783,16.67731],[-62.16788,16.67536],[-62.21886,16.68871],[-62.23013,16.72761]]]},"source":"Natural Earth Admin 0 Countries, 1:10m, version 5.1.1","sourceUrl":"https://www.naturalearthdata.com/downloads/10m-cultural-vectors/10m-admin-0-countries/"}
