{"type":"Feature","properties":{"isoA2":"MU","name":"Mauritius"},"geometry":{"type":"MultiPolygon","coordinates":[[[[57.30348,-20.43092],[57.31935,-20.42506],[57.34409,-20.42986],[57.35776,-20.42742],[57.36378,-20.41448],[57.36899,-20.38641],[57.36785,-20.37615],[57.35694,-20.37037],[57.365,-20.34596],[57.36598,-20.29078],[57.37062,-20.26051],[57.37745,-20.2431],[57.40016,-20.20062],[57.41049,-20.18922],[57.43263,-20.17181],[57.47364,-20.15749],[57.49073,-20.1408],[57.49383,-20.12233],[57.49448,-20.10369],[57.50961,-20.07741],[57.52198,-20.0416],[57.53248,-20.02483],[57.56007,-20.00384],[57.5669,-20.00091],[57.58033,-19.99993],[57.58611,-19.99676],[57.59653,-19.9826],[57.60711,-19.97942],[57.62289,-19.9817],[57.66774,-19.99407],[57.6797,-19.99993],[57.68482,-20.011],[57.67921,-20.02825],[57.68312,-20.03777],[57.6902,-20.0473],[57.70623,-20.07838],[57.70883,-20.08994],[57.71388,-20.09612],[57.73365,-20.09612],[57.7448,-20.10508],[57.74773,-20.11151],[57.74448,-20.14381],[57.75221,-20.15423],[57.76254,-20.16204],[57.77215,-20.19053],[57.79135,-20.21217],[57.79575,-20.22275],[57.79396,-20.24676],[57.78891,-20.27418],[57.77817,-20.30478],[57.77589,-20.32041],[57.78151,-20.33571],[57.75709,-20.34336],[57.72926,-20.36395],[57.71225,-20.38746],[57.71998,-20.40398],[57.72071,-20.41107],[57.72608,-20.41961],[57.72682,-20.42506],[57.72332,-20.43426],[57.71762,-20.43613],[57.71127,-20.4358],[57.70582,-20.43874],[57.68474,-20.47161],[57.67221,-20.47967],[57.58839,-20.50482],[57.50359,-20.51735],[57.47364,-20.51507],[57.42693,-20.50091],[57.39926,-20.49798],[57.3781,-20.50701],[57.32057,-20.45819],[57.30787,-20.44427],[57.30348,-20.43092]]],[[[56.52418,-10.33001],[56.52768,-10.32537],[56.53565,-10.32391],[56.54282,-10.34645],[56.56861,-10.38641],[56.56935,-10.40651],[56.54851,-10.38201],[56.5298,-10.35296],[56.52459,-10.34002],[56.52418,-10.33001]]],[[[63.33229,-19.73642],[63.33522,-19.71787],[63.34327,-19.70973],[63.35524,-19.70469],[63.38917,-19.68475],[63.42115,-19.67441],[63.45428,-19.66985],[63.47625,-19.67783],[63.49391,-19.6819],[63.48959,-19.70143],[63.46941,-19.72291],[63.43873,-19.733],[63.41651,-19.73642],[63.40064,-19.74489],[63.38559,-19.75604],[63.36638,-19.76719],[63.33774,-19.73846],[63.33229,-19.73642]]]]},"source":"Natural Earth Admin 0 Countries, 1:10m, version 5.1.1","sourceUrl":"https://www.naturalearthdata.com/downloads/10m-cultural-vectors/10m-admin-0-countries/"}
