{"type":"Feature","properties":{"isoA2":"MV","name":"Maldives"},"geometry":{"type":"MultiPolygon","coordinates":[[[[73.1631,-0.68182],[73.17254,-0.68857],[73.16586,-0.68841],[73.16358,-0.68662],[73.1631,-0.68182]]],[[[73.19142,-0.68279],[73.19223,-0.67718],[73.19516,-0.67449],[73.20411,-0.67116],[73.19646,-0.68133],[73.19142,-0.68279]]],[[[73.1233,-0.66253],[73.12428,-0.65618],[73.12696,-0.66627],[73.12387,-0.66473],[73.1233,-0.66253]]],[[[73.22682,-0.63258],[73.22999,-0.6233],[73.23487,-0.6194],[73.24,-0.62558],[73.22731,-0.64284],[73.22682,-0.63258]]],[[[73.23634,-0.59238],[73.23902,-0.5844],[73.24733,-0.5779],[73.24838,-0.58082],[73.24464,-0.60719],[73.23829,-0.60036],[73.23634,-0.59238]]],[[[73.43458,-0.28875],[73.43507,-0.28362],[73.44304,-0.29274],[73.44508,-0.29754],[73.44451,-0.30429],[73.438,-0.2986],[73.43458,-0.28875]]],[[[73.09547,0.22801],[73.10255,0.22281],[73.10434,0.21963],[73.10287,0.21345],[73.09889,0.21638],[73.09547,0.22801]]],[[[73.209,0.23998],[73.21746,0.23774],[73.21266,0.23208],[73.21095,0.23216],[73.209,0.23998]]],[[[73.03541,0.26317],[73.03679,0.26992],[73.04037,0.25934],[73.03614,0.26093],[73.03541,0.26317]]],[[[73.36964,0.28002],[73.3711,0.28596],[73.37371,0.28693],[73.37916,0.28522],[73.36964,0.28002]]],[[[72.98097,0.30362],[72.98365,0.30524],[72.98813,0.30191],[72.98601,0.29955],[72.98121,0.30207],[72.98097,0.30362]]],[[[73.50587,0.38618],[73.5066,0.38776],[73.51344,0.38776],[73.50856,0.38056],[73.50587,0.38618]]],[[[72.95721,0.39916],[72.95834,0.40331],[72.96119,0.39403],[72.95721,0.39916]]],[[[72.94093,0.49628],[72.9406,0.48729],[72.93702,0.49144],[72.93702,0.49364],[72.94093,0.49628]]],[[[73.48976,0.50259],[73.49195,0.508],[73.49464,0.49897],[73.49041,0.50068],[73.48976,0.50259]]],[[[73.38356,0.6389],[73.38787,0.64175],[73.38673,0.6354],[73.38478,0.63557],[73.38356,0.6389]]],[[[73.36883,0.76044],[73.37306,0.76309],[73.37184,0.75658],[73.36996,0.75702],[73.36883,0.76044]]],[[[73.34978,0.84406],[73.35385,0.84772],[73.35287,0.84154],[73.35108,0.84064],[73.34978,0.84406]]],[[[72.82797,3.50544],[72.83139,3.51057],[72.83513,3.50544],[72.83106,3.50357],[72.82797,3.50544]]],[[[72.79078,3.51203],[72.79371,3.51691],[72.79884,3.51195],[72.79119,3.51089],[72.79078,3.51203]]],[[[72.91163,3.54165],[72.9157,3.54898],[72.91993,3.55215],[72.9284,3.55191],[72.91163,3.54165]]],[[[72.93849,3.61372],[72.94191,3.61884],[72.94557,3.61372],[72.94158,3.61188],[72.93849,3.61372]]],[[[72.68971,3.71796],[72.69256,3.72695],[72.69744,3.71882],[72.69459,3.71499],[72.68971,3.71796]]],[[[73.46754,3.93366],[73.46925,3.93696],[73.47731,3.94212],[73.46754,3.93366]]],[[[72.69907,3.9995],[72.70314,4.00332],[72.70672,3.99795],[72.7046,3.99641],[72.69947,3.99811],[72.69907,3.9995]]],[[[73.50229,4.10077],[73.50815,4.10358],[73.50831,4.09333],[73.50245,4.09854],[73.50229,4.10077]]],[[[72.97047,4.26594],[72.9756,4.26236],[72.97576,4.2604],[72.9725,4.2604],[72.97047,4.26594]]],[[[73.70281,4.43472],[73.70086,4.43228],[73.6976,4.43146],[73.69744,4.43138],[73.70281,4.43472]]],[[[73.70281,4.45303],[73.70265,4.45291],[73.69988,4.44916],[73.69996,4.45165],[73.70281,4.45303]]],[[[73.37387,4.46699],[73.37672,4.47443],[73.37729,4.46528],[73.37387,4.46699]]],[[[73.40121,4.62983],[73.40496,4.635],[73.40528,4.6284],[73.403,4.62743],[73.40121,4.62983]]],[[[73.48666,4.71821],[73.49049,4.72337],[73.49073,4.71674],[73.48846,4.71597],[73.48666,4.71821]]],[[[72.96949,4.88052],[72.97006,4.89037],[72.97267,4.89436],[72.97934,4.89545],[72.96949,4.88052]]],[[[72.91749,4.89859],[72.92286,4.89907],[72.92091,4.89785],[72.91749,4.89859]]],[[[73.43653,4.96988],[73.43897,4.97455],[73.44117,4.97492],[73.44728,4.97134],[73.43653,4.96988]]],[[[72.91285,5.03408],[72.90943,5.03079],[72.90919,5.03059],[72.91017,5.0327],[72.91285,5.03408]]],[[[72.92433,5.03303],[72.92775,5.03653],[72.92709,5.03392],[72.92433,5.03303]]],[[[73.04477,5.12181],[73.04477,5.12165],[73.04347,5.11884],[73.04127,5.11839],[73.04477,5.12181]]],[[[73.04526,5.12889],[73.04908,5.13329],[73.05144,5.12665],[73.04762,5.12637],[73.04526,5.12889]]],[[[73.09132,5.16136],[73.09099,5.15852],[73.0879,5.15799],[73.08774,5.15794],[73.09132,5.16136]]],[[[73.10385,5.17304],[73.10418,5.17292],[73.10694,5.17178],[73.11052,5.17032],[73.1102,5.17036],[73.10711,5.17097],[73.10385,5.17304]]],[[[72.85662,5.23444],[72.86012,5.23794],[72.85922,5.2355],[72.85662,5.23444]]],[[[73.13185,5.24457],[73.13185,5.2425],[73.12843,5.24116],[73.13185,5.24457]]],[[[73.49383,5.246],[73.49977,5.24689],[73.49724,5.24502],[73.49383,5.246]]],[[[73.57,5.27676],[73.58204,5.28181],[73.5936,5.2827],[73.58286,5.27558],[73.57765,5.27456],[73.57,5.27676]]],[[[73.1128,5.29857],[73.11264,5.29845],[73.10922,5.29515],[73.10922,5.2967],[73.1128,5.29857]]],[[[73.4642,5.30683],[73.46705,5.30834],[73.47022,5.30777],[73.4642,5.30683]]],[[[73.62957,5.33283],[73.62941,5.33275],[73.62721,5.33112],[73.6233,5.33186],[73.62957,5.33283]]],[[[73.6399,5.34219],[73.6434,5.34394],[73.64666,5.34325],[73.6399,5.34219]]],[[[72.95314,5.35277],[72.9524,5.35008],[72.94956,5.34931],[72.95314,5.35277]]],[[[73.39601,5.35847],[73.39747,5.36221],[73.40121,5.35615],[73.39942,5.35546],[73.39601,5.35847]]],[[[73.31772,5.36579],[73.32325,5.36823],[73.32488,5.36677],[73.33009,5.36685],[73.32887,5.36424],[73.31935,5.36294],[73.31772,5.36579]]],[[[73.35076,5.42768],[73.3449,5.42683],[73.34457,5.42674],[73.3475,5.42878],[73.35076,5.42768]]],[[[73.53745,5.4514],[73.53492,5.44986],[73.53126,5.45043],[73.53745,5.4514]]],[[[73.36069,5.45783],[73.36297,5.46308],[73.36313,5.45938],[73.36069,5.45783]]],[[[72.93702,5.46552],[72.94313,5.4676],[72.94028,5.46214],[72.93824,5.46149],[72.93702,5.46552]]],[[[73.00978,5.49091],[73.01588,5.49287],[73.01303,5.48745],[73.011,5.4868],[73.00978,5.49091]]],[[[73.46241,5.54361],[73.45932,5.54173],[73.45647,5.54263],[73.45631,5.54267],[73.46241,5.54361]]],[[[72.99879,5.71198],[73.00563,5.71332],[73.00229,5.7071],[72.99977,5.70698],[72.99879,5.71198]]],[[[72.94777,6.34593],[72.94939,6.3498],[72.95395,6.34561],[72.95314,6.34349],[72.9485,6.34443],[72.94777,6.34593]]],[[[72.89088,6.44823],[72.89259,6.45209],[72.89723,6.44782],[72.89633,6.44579],[72.89177,6.44672],[72.89088,6.44823]]],[[[73.09116,-0.58603],[73.10499,-0.5792],[73.10499,-0.5866],[73.09881,-0.58717],[73.0975,-0.59971],[73.10499,-0.60654],[73.11158,-0.61712],[73.11638,-0.62957],[73.11866,-0.64129],[73.11118,-0.64129],[73.0949,-0.60467],[73.09116,-0.58603]]],[[[73.365,1.79108],[73.37582,1.78856],[73.37045,1.78254],[73.36817,1.78295],[73.365,1.79108]]],[[[73.39438,1.79475],[73.39479,1.79877],[73.40024,1.80634],[73.40309,1.798],[73.40211,1.7956],[73.39438,1.79475]]],[[[73.45265,1.82681],[73.46363,1.82632],[73.45672,1.82038],[73.45411,1.82054],[73.45265,1.82681]]],[[[73.49781,1.82925],[73.50733,1.83837],[73.51808,1.84272],[73.4992,1.8277],[73.49781,1.82925]]],[[[73.5315,1.86351],[73.53647,1.8701],[73.5324,1.86009],[73.5315,1.86351]]],[[[73.24366,1.88874],[73.24399,1.89411],[73.24562,1.89484],[73.25172,1.8924],[73.24366,1.88874]]],[[[73.54086,1.8924],[73.55307,1.93244],[73.54884,1.91136],[73.54086,1.8924]]],[[[73.5477,1.96833],[73.55006,1.97639],[73.54981,1.96552],[73.5477,1.96833]]],[[[73.31544,1.98505],[73.31723,1.9914],[73.32325,1.98648],[73.31837,1.9831],[73.31544,1.98505]]],[[[73.54029,2.02253],[73.5442,2.0266],[73.54298,2.02216],[73.54029,2.02253]]],[[[73.38697,2.03303],[73.38697,2.02863],[73.38624,2.03034],[73.38697,2.03303]]],[[[73.55047,2.07587],[73.55567,2.08251],[73.55144,2.07241],[73.55047,2.07587]]],[[[73.56178,2.09471],[73.563,2.10236],[73.56764,2.10993],[73.58546,2.10961],[73.56178,2.09471]]],[[[73.04371,2.16645],[73.04135,2.1647],[73.03981,2.16462],[73.03826,2.16454],[73.03842,2.16462],[73.04371,2.16645]]],[[[73.09889,2.18464],[73.10385,2.18659],[73.10231,2.18098],[73.09946,2.18195],[73.09889,2.18464]]],[[[73.11394,2.19351],[73.11549,2.19969],[73.12086,2.1918],[73.115,2.1918],[73.11394,2.19351]]],[[[72.94842,2.27489],[72.94638,2.27241],[72.9463,2.27237],[72.94313,2.27302],[72.94842,2.27489]]],[[[72.92237,2.32209],[72.92612,2.32746],[72.92701,2.31607],[72.92254,2.31957],[72.92237,2.32209]]],[[[73.344,2.34805],[73.34392,2.34744],[73.3436,2.34418],[73.3423,2.34239],[73.34205,2.34211],[73.344,2.34805]]],[[[73.35385,2.42902],[73.35426,2.4372],[73.36134,2.42471],[73.36622,2.41153],[73.36704,2.39802],[73.36256,2.38491],[73.35385,2.42902]]],[[[73.31153,2.49925],[73.31479,2.50581],[73.3152,2.49404],[73.31178,2.49677],[73.31153,2.49925]]],[[[73.14552,2.55329],[73.14381,2.55036],[73.14112,2.55036],[73.14096,2.55036],[73.14552,2.55329]]],[[[72.90008,2.6822],[72.90642,2.67967],[72.90447,2.67573],[72.90113,2.67617],[72.90008,2.6822]]],[[[72.86695,2.68895],[72.87257,2.69416],[72.87371,2.68358],[72.86736,2.68667],[72.86695,2.68895]]],[[[73.02231,2.74168],[73.03224,2.7451],[73.028,2.73823],[73.0254,2.73762],[73.02231,2.74168]]],[[[73.34848,2.77538],[73.34929,2.77717],[73.35353,2.77827],[73.35353,2.77192],[73.35141,2.7707],[73.34848,2.77538]]],[[[73.39064,2.77538],[73.39186,2.78148],[73.39438,2.78433],[73.39926,2.78571],[73.39064,2.77538]]],[[[73.5486,2.89273],[73.55104,2.89061],[73.54908,2.88813],[73.5486,2.89273]]],[[[73.35727,2.89981],[73.36036,2.90388],[73.3628,2.89838],[73.36069,2.89753],[73.35727,2.89981]]],[[[73.00847,2.95331],[73.0149,2.94741],[73.01043,2.94526],[73.00904,2.94644],[73.00847,2.95331]]],[[[73.56129,2.94847],[73.56422,2.95474],[73.56202,2.94611],[73.56129,2.94847]]],[[[73.57748,2.95116],[73.57846,2.95734],[73.58131,2.96015],[73.58595,2.96162],[73.57748,2.95116]]],[[[72.86492,2.96088],[72.87013,2.96918],[72.86769,2.96088],[72.86508,2.95816],[72.86492,2.96088]]],[[[72.89942,3.07819],[72.90162,3.08381],[72.90602,3.08039],[72.90447,3.07738],[72.89991,3.07685],[72.89942,3.07819]]],[[[73.61305,3.10676],[73.61256,3.10297],[73.60841,3.10041],[73.61305,3.10676]]],[[[72.97511,3.10419],[72.97787,3.11017],[72.98178,3.10505],[72.9782,3.10273],[72.97511,3.10419]]],[[[73.04021,3.19977],[73.04225,3.20547],[73.04689,3.20205],[73.0451,3.19892],[73.0407,3.19847],[73.04021,3.19977]]],[[[73.02898,3.24689],[73.03175,3.253],[73.03566,3.24779],[73.03199,3.24555],[73.02898,3.24689]]],[[[72.83123,3.30683],[72.83326,3.31249],[72.83766,3.30907],[72.83611,3.30598],[72.83139,3.30561],[72.83123,3.30683]]],[[[73.51637,3.36123],[73.51881,3.35912],[73.51922,3.35639],[73.51637,3.36123]]],[[[73.74757,3.45112],[73.75318,3.44636],[73.74855,3.44819],[73.74757,3.45112]]],[[[73.50587,3.50121],[73.50856,3.49649],[73.50611,3.49771],[73.50587,3.50121]]],[[[72.94898,3.72858],[72.9524,3.73383],[72.95582,3.73013],[72.95582,3.72871],[72.952,3.72687],[72.94898,3.72858]]],[[[72.94239,3.76695],[72.94581,3.77212],[72.94939,3.767],[72.94532,3.7652],[72.94239,3.76695]]],[[[72.94117,3.83169],[72.94459,3.83686],[72.94809,3.83169],[72.9441,3.8299],[72.94117,3.83169]]],[[[73.43149,3.84369],[73.43246,3.84683],[73.43727,3.84662],[73.4323,3.84174],[73.43149,3.84369]]],[[[73.43816,3.91645],[73.44353,3.92056],[73.44304,3.91877],[73.43816,3.91645]]],[[[73.34506,3.94473],[73.3449,3.94457],[73.34148,3.94204],[73.34148,3.9431],[73.34506,3.94473]]],[[[73.42262,4.11835],[73.42254,4.11819],[73.4214,4.11636],[73.41912,4.11575],[73.41896,4.11571],[73.42262,4.11835]]],[[[73.4312,4.18465],[73.43209,4.19],[73.51202,4.1863],[73.52053,4.19112],[73.53327,4.231],[73.5462,4.24304],[73.55288,4.2368],[73.54932,4.21228],[73.53817,4.18331],[73.52658,4.17128],[73.51089,4.16209],[73.48692,4.16415],[73.4312,4.18465]]],[[[72.94516,4.2663],[72.95867,4.26252],[72.95436,4.26146],[72.94516,4.2663]]],[[[73.58912,4.34056],[73.59588,4.34227],[73.59246,4.34016],[73.58912,4.34056]]],[[[73.60768,4.3581],[73.6115,4.36311],[73.61183,4.35651],[73.60955,4.35562],[73.60768,4.3581]]],[[[73.63168,4.36848],[73.63795,4.37055],[73.63706,4.364],[73.63364,4.36469],[73.63168,4.36848]]],[[[73.66432,4.38833],[73.66798,4.3935],[73.66831,4.38687],[73.66619,4.38593],[73.66432,4.38833]]],[[[72.94337,4.43159],[72.95704,4.4383],[72.95606,4.42211],[72.94711,4.42308],[72.94337,4.43159]]],[[[73.54981,4.61538],[73.55356,4.62051],[73.55388,4.61392],[73.55161,4.61298],[73.54981,4.61538]]],[[[73.62778,5.41327],[73.62957,5.41852],[73.63453,5.41096],[73.63673,5.4029],[73.63592,5.39448],[73.6325,5.38605],[73.62778,5.41327]]],[[[72.99903,5.46101],[73.00001,5.46247],[73.00563,5.4632],[73.00099,5.45624],[72.99903,5.46101]]],[[[72.8777,5.49209],[72.88396,5.49409],[72.88111,5.48847],[72.87916,5.48786],[72.8777,5.49209]]],[[[73.01287,5.61571],[73.01905,5.61782],[73.01612,5.61225],[73.01401,5.61156],[73.01287,5.61571]]],[[[73.00856,5.67504],[73.01466,5.67699],[73.01189,5.67154],[73.00978,5.67084],[73.00856,5.67504]]],[[[73.37957,5.71516],[73.39283,5.7377],[73.38071,5.71459],[73.37957,5.71516]]],[[[72.98683,5.77074],[72.98585,5.76557],[72.98284,5.76256],[72.98276,5.76252],[72.98683,5.77074]]],[[[73.3768,5.78734],[73.38233,5.79499],[73.38453,5.78693],[73.38071,5.78413],[73.3768,5.78734]]],[[[72.97096,5.80842],[72.97104,5.81045],[72.97657,5.81363],[72.97511,5.80443],[72.97096,5.80842]]],[[[73.43344,5.83071],[73.43897,5.83828],[73.44313,5.84125],[73.44988,5.84077],[73.43344,5.83071]]],[[[72.96192,5.85668],[72.96363,5.86433],[72.96648,5.85029],[72.96266,5.85346],[72.96192,5.85668]]],[[[73.42319,5.90689],[73.42905,5.91136],[73.42848,5.90445],[73.42628,5.90327],[73.42319,5.90689]]],[[[72.93165,5.96906],[72.93019,5.95694],[72.92579,5.96328],[72.92644,5.96629],[72.93165,5.96906]]],[[[73.38982,5.97028],[73.39533,5.9578],[73.38673,5.96198],[73.38453,5.96475],[73.38982,5.97028]]],[[[72.90968,5.98212],[72.9157,5.98135],[72.91285,5.9763],[72.90984,5.97793],[72.90968,5.98212]]],[[[73.25074,6.0834],[73.25066,6.08328],[73.24903,6.07953],[73.24545,6.07978],[73.25074,6.0834]]],[[[73.25213,6.11123],[73.25196,6.11115],[73.24724,6.10798],[73.24684,6.10773],[73.24887,6.11017],[73.25213,6.11123]]],[[[73.22047,6.13207],[73.22039,6.13199],[73.219,6.1293],[73.21518,6.12857],[73.22047,6.13207]]],[[[73.26515,6.15062],[73.26539,6.15355],[73.27027,6.15693],[73.26726,6.15095],[73.26515,6.15062]]],[[[73.21909,6.17235],[73.21892,6.17227],[73.21404,6.16877],[73.21583,6.17121],[73.21909,6.17235]]],[[[73.26539,6.18277],[73.27084,6.18944],[73.26808,6.1787],[73.26539,6.18277]]],[[[73.03419,6.22236],[73.03403,6.22224],[73.02914,6.21898],[73.02898,6.21882],[73.03045,6.22102],[73.03419,6.22236]]],[[[73.23634,6.23212],[73.24171,6.23969],[73.24391,6.23163],[73.24025,6.22895],[73.23634,6.23212]]],[[[73.12843,6.28685],[73.12615,6.284],[73.12306,6.28335],[73.12289,6.28335],[73.12843,6.28685]]],[[[73.20875,6.28644],[73.21518,6.29483],[73.21306,6.28921],[73.20875,6.28644]]],[[[73.07814,6.30508],[73.08334,6.30858],[73.08139,6.30561],[73.07814,6.30508]]],[[[73.19418,6.3216],[73.19703,6.32746],[73.20191,6.32217],[73.20102,6.31826],[73.19508,6.31965],[73.19418,6.3216]]],[[[73.12452,6.33251],[73.1242,6.33226],[73.11964,6.32917],[73.11931,6.32892],[73.12094,6.33104],[73.12452,6.33251]]],[[[73.18019,6.34711],[73.181,6.34984],[73.18727,6.35077],[73.18214,6.34634],[73.18019,6.34711]]],[[[73.01873,6.36522],[73.02052,6.36896],[73.02491,6.36481],[73.02418,6.3627],[73.0193,6.36359],[73.01873,6.36522]]],[[[72.68483,6.40839],[72.68588,6.41161],[72.69093,6.41161],[72.68588,6.40648],[72.68483,6.40839]]],[[[72.90113,6.43635],[72.90284,6.44017],[72.90748,6.43586],[72.90659,6.43382],[72.90203,6.43476],[72.90113,6.43635]]],[[[73.04881,6.44134],[73.04623,6.43626],[73.04331,6.43386],[73.04314,6.4337],[73.04881,6.44134]]],[[[72.95582,6.55532],[72.9568,6.56],[72.96209,6.55903],[72.95802,6.55435],[72.95582,6.55532]]],[[[72.92254,6.56151],[72.924,6.56525],[72.92872,6.5611],[72.92775,6.55891],[72.92311,6.55988],[72.92254,6.56151]]],[[[73.02556,6.57925],[73.02996,6.58234],[73.03045,6.57608],[73.02817,6.57518],[73.02556,6.57925]]],[[[73.03842,6.61815],[73.0394,6.62287],[73.04103,6.6236],[73.04477,6.62189],[73.0407,6.61717],[73.03842,6.61815]]],[[[73.06178,6.66096],[73.06227,6.6669],[73.06414,6.6684],[73.06951,6.66796],[73.06178,6.66096]]],[[[73.09588,6.69843],[73.09669,6.70612],[73.09929,6.70893],[73.10597,6.70995],[73.10043,6.69977],[73.09588,6.69843]]],[[[73.03199,6.75658],[73.03663,6.75971],[73.03688,6.75349],[73.03468,6.75259],[73.03199,6.75658]]],[[[72.91228,6.76016],[72.91326,6.76488],[72.91847,6.76398],[72.91432,6.75922],[72.91228,6.76016]]],[[[73.13168,6.72504],[73.136,6.7412],[73.15252,6.76821],[73.15952,6.78653],[73.16424,6.78705],[73.16652,6.78034],[73.15284,6.74921],[73.14479,6.73554],[73.13168,6.72504]]],[[[73.18084,6.82343],[73.18165,6.83051],[73.19728,6.82811],[73.18946,6.82282],[73.18377,6.82111],[73.18084,6.82343]]],[[[72.98943,6.83763],[72.99025,6.84243],[72.99578,6.8415],[72.99155,6.83674],[72.98943,6.83763]]],[[[73.13803,6.83967],[73.13901,6.84443],[73.14438,6.84341],[73.14031,6.83869],[73.13803,6.83967]]],[[[72.97153,6.84976],[72.97608,6.85285],[72.97633,6.84667],[72.97413,6.84585],[72.97153,6.84976]]],[[[73.09181,6.84833],[73.09295,6.85309],[73.09816,6.8522],[73.094,6.84756],[73.09181,6.84833]]],[[[72.95834,6.857],[72.95924,6.86164],[72.96111,6.86245],[72.96469,6.86066],[72.96062,6.85607],[72.95834,6.857]]],[[[73.10174,6.89354],[73.10231,6.89521],[73.10621,6.89667],[73.10662,6.89045],[73.10434,6.88955],[73.10174,6.89354]]],[[[73.20102,6.89313],[73.20493,6.91177],[73.20916,6.91828],[73.21404,6.91861],[73.21306,6.90461],[73.20875,6.8911],[73.20395,6.88495],[73.20102,6.89313]]],[[[72.92596,6.95742],[72.92596,6.95702],[72.92628,6.9538],[72.92458,6.9517],[72.92596,6.95742]]],[[[73.19117,6.96133],[73.19191,6.9676],[73.1941,6.97089],[73.1985,6.97134],[73.19467,6.95124],[73.19191,6.95165],[73.19117,6.96133]]],[[[72.89194,6.99103],[72.89194,6.9877],[72.89055,6.98546],[72.89047,6.98542],[72.89194,6.99103]]],[[[72.97722,7.02261],[72.97975,7.02774],[72.98146,7.01398],[72.97731,7.01903],[72.97722,7.02261]]],[[[72.94996,7.05654],[72.94996,7.05642],[72.9485,7.05085],[72.94777,7.0539],[72.94996,7.05654]]],[[[72.90642,7.08902],[72.90659,7.09101],[72.91285,7.09272],[72.91188,7.0832],[72.90642,7.08902]]],[[[72.8838,7.10724],[72.88453,7.1057],[72.88453,7.1037],[72.8825,7.10163],[72.8838,7.10724]]]]},"source":"Natural Earth Admin 0 Countries, 1:10m, version 5.1.1","sourceUrl":"https://www.naturalearthdata.com/downloads/10m-cultural-vectors/10m-admin-0-countries/"}
