{"type":"Feature","properties":{"isoA2":"NA","name":"Namibia"},"geometry":{"type":"Polygon","coordinates":[[[11.71762,-17.54632],[11.72169,-17.46787],[11.75514,-17.2667],[11.76612,-17.2527],[11.77952,-17.25492],[11.79688,-17.2638],[11.80763,-17.26587],[11.82241,-17.26442],[11.82747,-17.26008],[11.82964,-17.25347],[11.83554,-17.24541],[11.85393,-17.23342],[11.89496,-17.21461],[11.94209,-17.1805],[11.98302,-17.1619],[12.02891,-17.14898],[12.07521,-17.14298],[12.08813,-17.13916],[12.09526,-17.13968],[12.1056,-17.14608],[12.13991,-17.15601],[12.15128,-17.15363],[12.16151,-17.14629],[12.17071,-17.14918],[12.17712,-17.15477],[12.18115,-17.16924],[12.18507,-17.17709],[12.19066,-17.18257],[12.21174,-17.19518],[12.23179,-17.2019],[12.23934,-17.2207],[12.24264,-17.22484],[12.31468,-17.21812],[12.37948,-17.22039],[12.39395,-17.21471],[12.40759,-17.20406],[12.41793,-17.20344],[12.4417,-17.21698],[12.46051,-17.22308],[12.51922,-17.22784],[12.55456,-17.23559],[12.56717,-17.23455],[12.59146,-17.22256],[12.63621,-17.18515],[12.66071,-17.17709],[12.68592,-17.17358],[12.70473,-17.16427],[12.73987,-17.13554],[12.78431,-17.11508],[12.81832,-17.10485],[12.8331,-17.0818],[12.8423,-17.07405],[12.86772,-17.06557],[12.8764,-17.05978],[12.88054,-17.05079],[12.88229,-17.03953],[12.88715,-17.02981],[12.91103,-17.02351],[12.93046,-17.01421],[12.96167,-17.00738],[13.01427,-16.97793],[13.12176,-16.95984],[13.1445,-16.9524],[13.16631,-16.95106],[13.18491,-16.96418],[13.19814,-16.95736],[13.20548,-16.96305],[13.21209,-16.97276],[13.22284,-16.97793],[13.25715,-16.98165],[13.26749,-16.97793],[13.26749,-16.98537],[13.29302,-16.97379],[13.30842,-16.97018],[13.31524,-16.97442],[13.32154,-16.97493],[13.36371,-16.96418],[13.382,-16.97038],[13.41725,-16.99374],[13.43513,-16.99901],[13.4589,-17.0018],[13.47978,-17.01028],[13.49466,-17.02402],[13.50779,-17.0635],[13.52225,-17.07694],[13.53094,-17.09327],[13.52132,-17.1219],[13.60649,-17.16737],[13.69413,-17.23662],[13.88435,-17.33853],[13.89686,-17.34907],[13.94275,-17.40819],[13.95732,-17.41914],[13.98057,-17.42359],[13.99297,-17.42131],[14.00889,-17.41149],[14.01788,-17.40922],[14.02915,-17.41046],[14.04744,-17.41604],[14.06915,-17.41863],[14.08537,-17.42359],[14.09726,-17.42359],[14.10821,-17.42049],[14.13074,-17.40922],[14.17498,-17.41625],[14.1971,-17.41294],[14.2065,-17.3931],[14.20743,-17.38803],[18.45358,-17.38989],[18.45865,-17.40529],[18.47167,-17.41428],[18.4881,-17.45211],[18.48986,-17.46245],[18.49275,-17.46451],[18.51663,-17.47134],[18.55094,-17.53531],[18.55414,-17.54637],[18.56748,-17.55329],[18.61967,-17.59484],[18.62794,-17.61985],[18.63331,-17.62895],[18.64282,-17.63804],[18.66132,-17.64672],[18.67093,-17.65313],[18.72829,-17.71091],[18.74824,-17.73633],[18.76199,-17.7477],[18.80085,-17.75659],[18.89004,-17.79927],[19.02058,-17.82232],[19.10512,-17.81819],[19.13933,-17.80527],[19.16082,-17.80093],[19.17209,-17.80124],[19.20186,-17.80713],[19.24661,-17.80403],[19.26242,-17.81395],[19.42127,-17.85943],[19.59284,-17.85725],[19.64979,-17.84496],[19.67263,-17.84268],[19.69319,-17.84775],[19.70219,-17.86573],[19.71128,-17.87297],[19.73206,-17.88206],[19.75521,-17.88909],[19.77102,-17.89033],[19.77598,-17.88506],[19.78766,-17.86645],[19.79396,-17.86232],[19.95199,-17.86232],[19.98951,-17.88278],[20.02454,-17.89457],[20.03426,-17.89591],[20.09255,-17.89033],[20.11994,-17.89074],[20.13296,-17.88878],[20.14712,-17.88278],[20.15456,-17.89033],[20.16924,-17.87813],[20.19311,-17.87214],[20.21988,-17.87338],[20.24345,-17.88278],[20.27817,-17.85488],[20.28892,-17.8616],[20.30277,-17.86077],[20.33615,-17.85488],[20.34773,-17.85891],[20.3868,-17.89033],[20.41264,-17.88413],[20.43754,-17.89446],[20.46007,-17.91369],[20.4795,-17.93436],[20.48953,-17.94211],[20.52395,-17.95854],[20.55288,-17.97911],[20.56549,-17.98521],[20.59071,-17.9788],[20.63009,-17.97694],[20.66626,-17.98025],[20.68218,-17.98862],[20.68962,-17.99699],[20.70616,-18.00381],[20.72249,-18.0065],[20.72993,-18.00236],[20.73747,-17.99347],[20.75442,-17.99792],[20.7846,-18.0126],[20.8062,-18.0314],[20.83194,-18.02934],[20.8616,-18.0188],[20.89447,-18.0126],[20.90832,-17.98614],[21.09311,-17.93808],[21.10944,-17.945],[21.12608,-17.94107],[21.14313,-17.93374],[21.16132,-17.93064],[21.17579,-17.93322],[21.21662,-17.93064],[21.23274,-17.93446],[21.27811,-17.95854],[21.33506,-17.97797],[21.36482,-17.99203],[21.38115,-18.0126],[21.38684,-18.01446],[21.40555,-18.00929],[22.48145,-17.81137],[23.45741,-17.62678],[23.47622,-17.62636],[24.22046,-17.4795],[24.23876,-17.47816],[24.25736,-17.48084],[24.31028,-17.4826],[24.32134,-17.4887],[24.3294,-17.48508],[24.37126,-17.47371],[24.38893,-17.47134],[24.40702,-17.47454],[24.44929,-17.48911],[24.47926,-17.49449],[24.49817,-17.50348],[24.5236,-17.50782],[24.54654,-17.52653],[24.56246,-17.53221],[24.57124,-17.53345],[24.58075,-17.53283],[24.59129,-17.52839],[24.60649,-17.51516],[24.61744,-17.50916],[24.62974,-17.49552],[24.63946,-17.49242],[24.68442,-17.49242],[24.76978,-17.50544],[24.77506,-17.50761],[24.78684,-17.51691],[24.79738,-17.51909],[24.82952,-17.51774],[24.89825,-17.53107],[24.92492,-17.54296],[24.93763,-17.56074],[24.95799,-17.55174],[24.97112,-17.56074],[24.98259,-17.57655],[24.99851,-17.58802],[25.00801,-17.58854],[25.02672,-17.58275],[25.03695,-17.5812],[25.04057,-17.58451],[25.03385,-17.60156],[25.03385,-17.60849],[25.04005,-17.61613],[25.04532,-17.61996],[25.06424,-17.62151],[25.06703,-17.62533],[25.08853,-17.64269],[25.09876,-17.6768],[25.10796,-17.67887],[25.11509,-17.68424],[25.12005,-17.69106],[25.12263,-17.69788],[25.13142,-17.68652],[25.13855,-17.6861],[25.15333,-17.70099],[25.15643,-17.70667],[25.15529,-17.71938],[25.15684,-17.72517],[25.16118,-17.72941],[25.17782,-17.73881],[25.19074,-17.75535],[25.19818,-17.75845],[25.21513,-17.75928],[25.22888,-17.76248],[25.24242,-17.77033],[25.25348,-17.7815],[25.25978,-17.79411],[25.19415,-17.78232],[25.15395,-17.78181],[25.12087,-17.81354],[25.0879,-17.82677],[25.057,-17.8277],[25.04749,-17.80713],[25.01969,-17.82377],[25.00708,-17.82573],[24.99851,-17.81395],[24.98331,-17.82046],[24.97515,-17.81633],[24.96864,-17.80765],[24.95809,-17.80093],[24.96429,-17.78666],[24.95334,-17.78842],[24.94859,-17.79328],[24.94517,-17.8],[24.93763,-17.80713],[24.93112,-17.81054],[24.85743,-17.83359],[24.8381,-17.83503],[24.82084,-17.83927],[24.79738,-17.85808],[24.77692,-17.86232],[24.77071,-17.86552],[24.76451,-17.87968],[24.73816,-17.88764],[24.72534,-17.89591],[24.69847,-17.92888],[24.66406,-17.94986],[24.64917,-17.96278],[24.59863,-18.02076],[24.59502,-18.02283],[24.57455,-18.05042],[24.56442,-18.0528],[24.51843,-18.05735],[24.50561,-18.06034],[24.47151,-18.02996],[24.46975,-18.01446],[24.4651,-18.00867],[24.45849,-18.00577],[24.45105,-17.99895],[24.43389,-17.96722],[24.42159,-17.95647],[24.39947,-17.95234],[24.36526,-17.95079],[24.35059,-17.95606],[24.33426,-17.97156],[24.30583,-18.01942],[24.29643,-18.02624],[24.28744,-18.02448],[24.27007,-18.0158],[24.25922,-18.0126],[24.23824,-18.00991],[24.21829,-18.0126],[24.18305,-18.02944],[24.13509,-18.08546],[24.10161,-18.10882],[24.06512,-18.11522],[24.05696,-18.11905],[24.02027,-18.1516],[23.99174,-18.16339],[23.97965,-18.17186],[23.97118,-18.18385],[23.96198,-18.17786],[23.9566,-18.17662],[23.95082,-18.17765],[23.91599,-18.20121],[23.91289,-18.23573],[23.89697,-18.2502],[23.86751,-18.26943],[23.85522,-18.28007],[23.83723,-18.30581],[23.82555,-18.31707],[23.80984,-18.32172],[23.71579,-18.41908],[23.70091,-18.42797],[23.68014,-18.43148],[23.65647,-18.45825],[23.64541,-18.466],[23.60986,-18.47768],[23.59218,-18.4782],[23.57916,-18.46786],[23.5713,-18.42601],[23.55549,-18.38312],[23.5466,-18.36947],[23.56076,-18.34849],[23.55146,-18.32751],[23.5188,-18.29371],[23.52728,-18.2777],[23.5217,-18.26819],[23.51126,-18.26033],[23.50154,-18.23749],[23.49131,-18.23315],[23.47777,-18.23088],[23.46413,-18.2255],[23.44428,-18.2007],[23.4294,-18.1885],[23.41886,-18.19842],[23.41028,-18.19739],[23.39581,-18.19139],[23.39447,-18.18623],[23.39581,-18.16339],[23.38971,-18.15326],[23.35954,-18.11915],[23.34806,-18.09445],[23.3338,-18.07399],[23.33256,-18.06706],[23.3338,-18.04329],[23.3306,-18.03998],[23.31592,-18.03709],[23.31272,-18.02996],[23.31148,-18.0098],[23.29277,-17.99895],[23.25494,-17.9974],[22.98137,-18.02004],[21.47572,-18.2995],[20.97508,-18.31935],[20.97508,-19.00096],[20.9848,-21.96398],[20.97198,-22.00067],[19.97835,-22.00067],[19.98196,-25.04539],[19.9832,-28.39268],[19.98165,-28.42235],[19.95054,-28.42927],[19.94021,-28.4302],[19.90786,-28.42648],[19.8967,-28.42772],[19.87034,-28.44085],[19.82559,-28.47671],[19.79634,-28.48415],[19.74808,-28.48715],[19.72534,-28.49418],[19.7056,-28.50803],[19.68834,-28.51598],[19.58798,-28.5227],[19.5792,-28.52518],[19.56876,-28.53118],[19.54757,-28.55588],[19.53372,-28.58244],[19.51781,-28.58937],[19.51171,-28.59805],[19.48287,-28.67825],[19.47243,-28.69272],[19.45507,-28.70522],[19.43461,-28.71349],[19.35347,-28.73189],[19.33901,-28.73747],[19.32836,-28.73582],[19.30448,-28.71866],[19.29002,-28.71969],[19.2773,-28.72941],[19.26593,-28.74264],[19.24857,-28.77158],[19.24495,-28.79245],[19.25157,-28.81426],[19.28888,-28.871],[19.28836,-28.88309],[19.27658,-28.8895],[19.24371,-28.89188],[19.23762,-28.8956],[19.22666,-28.91152],[19.2185,-28.91885],[19.16155,-28.94542],[19.12021,-28.95751],[19.08166,-28.95937],[19.06006,-28.9357],[19.049,-28.93239],[19.01396,-28.92847],[19.00693,-28.92629],[18.99639,-28.91555],[18.97117,-28.88051],[18.95453,-28.86666],[18.74566,-28.83989],[18.55394,-28.8647],[18.51766,-28.88227],[18.49616,-28.88826],[18.47498,-28.874],[18.46939,-28.87493],[18.45523,-28.88144],[18.42475,-28.88723],[18.41699,-28.89167],[18.39756,-28.89891],[18.37307,-28.89519],[18.33101,-28.88144],[18.30868,-28.87999],[18.22073,-28.89126],[18.18507,-28.90221],[18.16647,-28.9019],[18.08244,-28.87596],[18.0441,-28.85839],[17.98333,-28.81374],[17.94953,-28.79473],[17.91325,-28.78129],[17.74634,-28.74863],[17.71409,-28.75111],[17.67378,-28.77158],[17.66097,-28.7723],[17.62872,-28.76413],[17.60712,-28.75566],[17.60257,-28.7354],[17.6034,-28.71081],[17.59803,-28.68962],[17.58294,-28.68021],[17.56599,-28.68352],[17.54697,-28.69137],[17.52661,-28.69582],[17.48516,-28.70016],[17.44093,-28.70956],[17.40362,-28.70429],[17.40176,-28.67422],[17.41427,-28.63267],[17.42057,-28.5934],[17.40961,-28.57138],[17.37303,-28.55939],[17.36528,-28.54255],[17.35949,-28.51981],[17.33241,-28.4886],[17.32424,-28.47051],[17.32817,-28.45614],[17.34119,-28.44281],[17.35856,-28.43278],[17.3754,-28.42896],[17.39132,-28.41883],[17.39969,-28.39527],[17.40207,-28.36778],[17.4,-28.34638],[17.39483,-28.33512],[17.37199,-28.30607],[17.36414,-28.27331],[17.35504,-28.26101],[17.35122,-28.2514],[17.34977,-28.23869],[17.34574,-28.22763],[17.33448,-28.22288],[17.30864,-28.22412],[17.24518,-28.23745],[17.21314,-28.23207],[17.19195,-28.20882],[17.18709,-28.162],[17.18978,-28.13937],[17.18999,-28.11684],[17.18089,-28.09947],[17.15578,-28.09255],[17.13635,-28.08469],[17.12322,-28.0665],[17.11175,-28.04604],[17.0978,-28.03116],[17.08653,-28.02702],[17.0764,-28.02681],[17.05666,-28.03116],[17.0454,-28.03632],[17.01202,-28.05834],[16.98535,-28.05224],[16.97377,-28.05503],[16.95951,-28.06857],[16.94752,-28.0727],[16.9375,-28.07105],[16.92747,-28.0602],[16.91962,-28.05834],[16.91352,-28.06268],[16.89295,-28.08263],[16.88551,-28.162],[16.87817,-28.17203],[16.87383,-28.17151],[16.86867,-28.16789],[16.85203,-28.16831],[16.84376,-28.16386],[16.83766,-28.1682],[16.8357,-28.1742],[16.83838,-28.17947],[16.85595,-28.19941],[16.85637,-28.20665],[16.84107,-28.20985],[16.81978,-28.20975],[16.8143,-28.21347],[16.81027,-28.22288],[16.8266,-28.25192],[16.82464,-28.26453],[16.81523,-28.27083],[16.8051,-28.26773],[16.7865,-28.2576],[16.76872,-28.26535],[16.76438,-28.28323],[16.76841,-28.3037],[16.77554,-28.3191],[16.79684,-28.34783],[16.80386,-28.36612],[16.77854,-28.38297],[16.77337,-28.40292],[16.77213,-28.42576],[16.76934,-28.4426],[16.75839,-28.45966],[16.7404,-28.48095],[16.72046,-28.49604],[16.70382,-28.49449],[16.69234,-28.4611],[16.68346,-28.45625],[16.67312,-28.45976],[16.59736,-28.52622],[16.55912,-28.53707],[16.53153,-28.54968],[16.50538,-28.56539],[16.48707,-28.57293],[16.46852,-28.58514],[16.45851,-28.60052],[16.44581,-28.61053],[16.41944,-28.60703],[16.40789,-28.60052],[16.34685,-28.55608],[16.31593,-28.52435],[16.30104,-28.50449],[16.19337,-28.40879],[16.17579,-28.40211],[16.16798,-28.39577],[16.10768,-28.32334],[16.04363,-28.25709],[15.91114,-28.17132],[15.88429,-28.14764],[15.83318,-28.08929],[15.76149,-28.03834],[15.74781,-28.02459],[15.71681,-27.9804],[15.68426,-27.94988],[15.67888,-27.9428],[15.67799,-27.93125],[15.68458,-27.91082],[15.6858,-27.9013],[15.67303,-27.86989],[15.64601,-27.8366],[15.54623,-27.74782],[15.53354,-27.73016],[15.52866,-27.70615],[15.52906,-27.65423],[15.52687,-27.64617],[15.52068,-27.63372],[15.42506,-27.49651],[15.40895,-27.46453],[15.39682,-27.44866],[15.38038,-27.44199],[15.37176,-27.43304],[15.34246,-27.38055],[15.30161,-27.3331],[15.29526,-27.32244],[15.28175,-27.24334],[15.27622,-27.23357],[15.26368,-27.21836],[15.26124,-27.20574],[15.26808,-27.16481],[15.25416,-27.10019],[15.26124,-27.08563],[15.24122,-27.04876],[15.23536,-27.02947],[15.23325,-27.00693],[15.23422,-26.96543],[15.22853,-26.94557],[15.21274,-26.92799],[15.20574,-26.92555],[15.18751,-26.92425],[15.17856,-26.92116],[15.16236,-26.89707],[15.15887,-26.89707],[15.15593,-26.8751],[15.14894,-26.85638],[15.11687,-26.79616],[15.11166,-26.77923],[15.11622,-26.75205],[15.10572,-26.73235],[15.09156,-26.71217],[15.08302,-26.69524],[15.08082,-26.67213],[15.08351,-26.65211],[15.09181,-26.63795],[15.12713,-26.62672],[15.13461,-26.62713],[15.13771,-26.63665],[15.13771,-26.6749],[15.14454,-26.6749],[15.14845,-26.65504],[15.16814,-26.6028],[15.16871,-26.59222],[15.16228,-26.57903],[15.14194,-26.518],[15.12875,-26.45762],[15.10564,-26.42059],[15.07252,-26.38974],[15.03468,-26.36631],[14.97527,-26.34417],[14.96632,-26.33522],[14.95883,-26.25701],[14.96266,-26.18133],[14.94256,-26.1539],[14.93914,-26.14715],[14.94313,-26.13535],[14.94907,-26.13502],[14.95688,-26.13763],[14.96632,-26.13356],[14.97983,-26.10166],[14.97902,-26.05877],[14.96827,-26.0158],[14.95265,-25.98268],[14.90772,-25.9153],[14.90211,-25.8825],[14.91863,-25.84547],[14.91114,-25.84547],[14.85987,-25.7903],[14.84278,-25.7636],[14.84034,-25.75172],[14.84278,-25.72942],[14.84278,-25.65032],[14.84693,-25.62982],[14.87696,-25.57806],[14.87973,-25.56146],[14.87957,-25.53867],[14.87534,-25.51849],[14.85328,-25.49871],[14.84702,-25.47332],[14.84278,-25.42783],[14.81804,-25.36696],[14.81251,-25.32008],[14.80242,-25.28289],[14.80128,-25.26279],[14.83229,-25.18817],[14.82936,-25.17645],[14.84962,-25.10508],[14.85328,-25.06422],[14.84327,-25.02606],[14.80877,-24.96111],[14.79615,-24.92197],[14.79298,-24.84189],[14.78077,-24.8034],[14.72348,-24.70355],[14.69947,-24.67303],[14.65016,-24.62884],[14.63608,-24.59889],[14.6019,-24.56243],[14.59588,-24.53721],[14.59962,-24.52654],[14.61378,-24.51165],[14.61695,-24.50579],[14.61695,-24.46478],[14.61232,-24.44573],[14.5901,-24.40838],[14.56813,-24.35768],[14.51393,-24.26149],[14.49318,-24.19232],[14.47364,-24.15911],[14.46681,-24.11321],[14.45924,-24.09832],[14.4642,-24.07822],[14.46412,-24.04469],[14.45965,-24.01043],[14.45191,-23.98846],[14.45924,-23.97454],[14.46583,-23.9472],[14.47291,-23.93385],[14.49659,-23.92596],[14.50025,-23.91644],[14.51393,-23.89227],[14.50603,-23.88006],[14.50709,-23.82391],[14.48951,-23.77606],[14.48658,-23.75848],[14.50025,-23.61444],[14.49529,-23.57855],[14.44695,-23.46038],[14.43434,-23.41522],[14.43507,-23.40553],[14.44313,-23.39666],[14.46746,-23.35605],[14.47975,-23.34482],[14.4795,-23.36582],[14.48439,-23.37493],[14.49041,-23.36972],[14.49342,-23.34783],[14.49195,-23.30918],[14.47348,-23.1928],[14.46274,-23.1574],[14.44557,-23.13128],[14.43133,-23.10328],[14.42066,-23.07098],[14.41383,-23.03623],[14.41017,-22.9708],[14.41139,-22.9612],[14.41603,-22.95159],[14.42905,-22.93255],[14.4319,-22.92303],[14.4319,-22.88177],[14.43507,-22.87982],[14.44093,-22.87982],[14.44386,-22.88348],[14.43816,-22.89227],[14.45191,-22.91221],[14.44597,-22.93239],[14.44435,-22.95281],[14.45167,-22.96331],[14.47291,-22.95379],[14.47145,-22.9651],[14.45924,-22.99529],[14.47429,-22.98219],[14.49684,-22.94183],[14.51051,-22.93328],[14.52198,-22.92344],[14.52931,-22.90016],[14.53435,-22.85418],[14.52752,-22.67946],[14.50856,-22.54803],[14.48512,-22.51238],[14.47429,-22.46787],[14.43816,-22.39886],[14.41871,-22.33978],[14.38649,-22.27646],[14.3152,-22.20029],[14.29428,-22.16741],[14.29347,-22.14332],[14.29135,-22.13445],[14.13722,-21.94638],[14.06202,-21.88096],[14.05421,-21.86468],[13.97169,-21.79274],[13.95232,-21.78395],[13.95216,-21.77337],[13.95899,-21.7584],[13.96518,-21.73317],[13.96583,-21.72674],[13.96266,-21.71404],[13.95826,-21.70485],[13.87794,-21.59222],[13.8628,-21.52801],[13.83172,-21.45648],[13.72926,-21.33026],[13.66684,-21.23235],[13.60271,-21.15814],[13.51336,-21.00791],[13.47193,-20.95501],[13.45916,-20.91806],[13.44483,-20.90407],[13.41774,-20.88388],[13.39763,-20.8493],[13.38722,-20.8161],[13.37672,-20.73357],[13.34946,-20.64446],[13.26271,-20.48512],[13.23902,-20.39715],[13.23357,-20.35467],[13.21306,-20.27337],[13.17774,-20.18922],[13.15463,-20.15423],[13.11443,-20.14257],[13.07088,-20.11423],[13.03735,-20.05946],[13.00538,-19.93548],[12.92774,-19.79469],[12.91847,-19.76556],[12.87599,-19.71201],[12.8025,-19.58473],[12.79396,-19.5617],[12.78305,-19.54697],[12.75758,-19.49684],[12.74928,-19.48602],[12.7046,-19.41082],[12.69109,-19.379],[12.68605,-19.3598],[12.6797,-19.31406],[12.66831,-19.29241],[12.63624,-19.25262],[12.61573,-19.21754],[12.56739,-19.10231],[12.54672,-19.07147],[12.51645,-19.03753],[12.48032,-19.011],[12.47039,-18.99765],[12.45867,-18.92555],[12.45004,-18.90455],[12.28688,-18.69769],[12.17473,-18.62794],[12.11964,-18.56951],[12.10206,-18.54599],[12.03189,-18.50535],[12.01596,-18.4529],[12.01246,-18.4345],[11.99952,-18.4035],[11.99757,-18.372],[11.99952,-18.36191],[11.97608,-18.32977],[11.93735,-18.23211],[11.84908,-18.14318],[11.83364,-18.09804],[11.82652,-18.03922],[11.79691,-17.95609],[11.78404,-17.85965],[11.76094,-17.78642],[11.74555,-17.68395],[11.72674,-17.59987],[11.71762,-17.54632]]]},"source":"Natural Earth Admin 0 Countries, 1:10m, version 5.1.1","sourceUrl":"https://www.naturalearthdata.com/downloads/10m-cultural-vectors/10m-admin-0-countries/"}
