{"type":"Feature","properties":{"isoA2":"NE","name":"Niger"},"geometry":{"type":"Polygon","coordinates":[[[0.15294,14.54671],[0.21971,14.73122],[0.21309,14.76163],[0.1841,14.81956],[0.18576,14.84819],[0.198,14.8638],[0.21185,14.8748],[0.22084,14.88821],[0.21278,14.96072],[0.2132,14.98542],[0.22126,14.99593],[0.35319,14.96343],[0.38704,14.96325],[0.41879,14.96989],[0.48351,14.99211],[0.51483,14.99356],[0.67007,14.93974],[0.68381,14.94087],[0.71141,14.94746],[0.76918,14.96906],[0.92214,14.97397],[0.94933,14.97955],[0.97372,14.99126],[1.27086,15.2599],[1.29783,15.27573],[1.33153,15.28362],[3.00016,15.33912],[3.00574,15.35232],[3.00584,15.38929],[3.01029,15.41766],[3.01752,15.42283],[3.03354,15.42645],[3.07302,15.4272],[3.48333,15.3593],[3.5071,15.35397],[3.51651,15.46919],[3.52653,15.49595],[3.61407,15.54773],[3.69221,15.63145],[3.7289,15.65088],[3.80838,15.66558],[3.8461,15.6853],[3.87121,15.7148],[3.88651,15.7501],[3.89447,15.78865],[3.90346,15.88632],[3.90987,15.90477],[3.92506,15.92761],[3.98325,15.98399],[3.9848,15.98983],[3.98449,15.99877],[3.97085,16.03086],[3.96692,16.0585],[3.97116,16.0861],[4.06056,16.29833],[4.07565,16.32107],[4.09477,16.34081],[4.11823,16.35833],[4.16174,16.37998],[4.1759,16.39264],[4.18396,16.41605],[4.182,16.80962],[4.18458,16.81851],[4.1976,16.83851],[4.20205,16.84889],[4.19657,16.94713],[4.19781,16.96522],[4.2037,16.98279],[4.21166,16.98604],[4.22231,16.98656],[4.23564,16.99586],[4.22861,19.14224],[5.74934,19.4337],[5.7943,19.4498],[5.83761,19.47863],[7.02053,20.49544],[7.48273,20.87258],[11.96886,23.51735],[13.48226,23.17967],[13.59956,23.11903],[14.20164,22.62322],[14.21622,22.6163],[14.23172,22.61795],[14.97991,22.99566],[15.17202,21.99339],[15.1804,21.50727],[15.18453,21.4912],[15.20024,21.47647],[15.24747,21.45326],[15.26659,21.44066],[15.30101,21.40133],[15.60931,20.95066],[15.569,20.92891],[15.5443,20.8903],[15.53603,20.84405],[15.5442,20.79899],[15.55608,20.77367],[15.57024,20.75191],[15.58812,20.73279],[15.66946,20.67187],[15.95399,20.37457],[15.96815,20.35282],[15.97032,20.33633],[15.96298,20.31923],[15.76723,19.98204],[15.73602,19.90354],[15.47195,16.91675],[15.46555,16.89468],[15.45242,16.87623],[14.36897,15.74963],[13.83391,15.0196],[13.76053,14.86636],[13.75516,14.84721],[13.75392,14.82594],[13.75795,14.80553],[13.77201,14.76287],[13.77325,14.74251],[13.76436,14.71908],[13.74916,14.71125],[13.73005,14.70965],[13.70999,14.70512],[13.70002,14.69773],[13.66808,14.66288],[13.64835,14.64942],[13.64473,14.64425],[13.64628,14.63906],[13.65703,14.62965],[13.66033,14.62373],[13.66674,14.58552],[13.6656,14.56689],[13.65785,14.54872],[13.62426,14.52131],[13.58437,14.51382],[13.54386,14.51056],[13.50779,14.49596],[13.48226,14.48359],[13.44949,14.43904],[13.44918,14.38013],[13.48226,14.25978],[13.60731,13.7041],[13.35999,13.71441],[13.32991,13.70942],[13.32072,13.70229],[13.32123,13.68511],[13.30604,13.67464],[13.26615,13.63803],[13.25922,13.62896],[13.25385,13.61891],[13.25354,13.61488],[13.2586,13.6078],[13.26005,13.60214],[13.25726,13.59424],[13.25085,13.59276],[13.24382,13.59325],[13.23948,13.59158],[13.23018,13.57775],[13.23225,13.57289],[13.2464,13.57109],[13.22811,13.54804],[13.20393,13.53938],[13.17695,13.53447],[13.15018,13.52266],[13.15587,13.54078],[13.1537,13.54876],[13.14398,13.55062],[13.1384,13.54654],[13.13096,13.52982],[13.12352,13.52266],[13.12352,13.53695],[13.10709,13.53155],[13.08828,13.5306],[13.07701,13.53468],[13.08249,13.54439],[13.08249,13.55062],[13.05489,13.54837],[13.02926,13.53918],[12.93934,13.49507],[12.91175,13.4899],[12.88384,13.496],[12.87971,13.47969],[12.87061,13.47887],[12.8578,13.48491],[12.8423,13.48913],[12.8423,13.48169],[12.85056,13.47939],[12.85759,13.47533],[12.8702,13.46125],[12.85708,13.45065],[12.82927,13.42029],[12.82927,13.40663],[12.81501,13.40663],[12.79734,13.39965],[12.79455,13.39606],[12.79847,13.38428],[12.80478,13.37686],[12.80519,13.37298],[12.79114,13.37185],[12.78328,13.38234],[12.77739,13.3867],[12.77326,13.38223],[12.76654,13.36567],[12.7408,13.33482],[12.72437,13.32229],[12.70174,13.31725],[12.69006,13.31198],[12.68313,13.28893],[12.67435,13.28371],[12.65916,13.28661],[12.63001,13.31038],[12.62877,13.29418],[12.6268,13.28826],[12.62019,13.28144],[12.61327,13.2765],[12.60613,13.27423],[12.60272,13.27999],[12.56107,13.24276],[12.55818,13.22653],[12.54516,13.20821],[12.53834,13.19336],[12.55425,13.18754],[12.54795,13.16545],[12.54257,13.15478],[12.53451,13.14592],[12.50433,13.13961],[12.49978,13.13597],[12.49121,13.08264],[12.48666,13.07081],[12.47271,13.06416],[12.45638,13.06742],[12.43726,13.07401],[12.41431,13.07763],[12.35158,13.0798],[12.33525,13.08447],[12.32574,13.07882],[12.3184,13.08385],[12.31096,13.09264],[12.30104,13.09812],[12.29153,13.09682],[12.27716,13.08447],[12.2692,13.08587],[12.26703,13.09517],[12.26321,13.10186],[12.25184,13.10801],[12.2014,13.12543],[12.18477,13.12209],[12.16378,13.10796],[12.11645,13.10285],[12.05764,13.11677],[12.038,13.12636],[11.99191,13.16209],[11.8528,13.24539],[11.74231,13.28945],[11.44,13.36443],[10.953,13.3619],[10.77131,13.3827],[10.67499,13.3751],[10.16153,13.2672],[10.11978,13.2501],[9.93012,13.14597],[9.91245,13.1292],[9.90821,13.11879],[9.90439,13.09434],[9.89974,13.08432],[9.89178,13.07623],[9.88268,13.07623],[9.87204,13.07256],[9.85281,13.06044],[9.81933,13.02921],[9.64073,12.82253],[9.61841,12.80578],[9.61149,12.80294],[9.5903,12.80139],[9.37791,12.82578],[9.35982,12.82459],[9.30649,12.80984],[9.26939,12.80979],[8.94279,12.8472],[8.67935,12.92358],[8.64265,12.94435],[8.6255,12.96479],[8.59677,13.0114],[8.57723,13.03244],[8.53351,13.06463],[8.50964,13.07592],[8.48267,13.08155],[8.47078,13.08166],[8.44598,13.07871],[8.4345,13.07509],[8.419,13.0667],[8.40515,13.07086],[8.39781,13.0754],[8.29797,13.16462],[8.27307,13.19387],[8.25984,13.20522],[8.24568,13.21178],[8.21602,13.21961],[8.20144,13.22638],[8.16765,13.25237],[8.14005,13.26911],[8.11659,13.29105],[8.10512,13.29965],[8.07752,13.31002],[7.824,13.34529],[7.78968,13.34198],[7.75558,13.32715],[7.39198,13.11253],[7.36067,13.10264],[7.3248,13.10285],[7.22052,13.12158],[7.1982,13.11739],[7.13742,13.04724],[7.09009,13.00639],[7.06869,12.99608],[7.04492,12.99221],[6.97051,12.99184],[6.93713,12.99541],[6.90664,13.00686],[6.87418,13.0305],[6.83791,13.06349],[6.77869,13.13029],[6.67254,13.32118],[6.5093,13.49605],[6.36894,13.62627],[6.30218,13.66384],[6.22983,13.67919],[6.21061,13.67526],[6.15283,13.64356],[6.14239,13.64082],[6.12038,13.65408],[5.55432,13.87342],[5.52176,13.88029],[5.37407,13.85525],[5.34627,13.84156],[5.33479,13.8267],[5.31805,13.78993],[5.3042,13.77394],[5.27351,13.75252],[5.26204,13.74774],[5.22762,13.74133],[5.08437,13.74753],[4.98319,13.72968],[4.92511,13.73309],[4.90237,13.74299],[4.87984,13.76402],[4.85689,13.7741],[4.82485,13.77074],[4.50673,13.69467],[4.45258,13.67377],[4.40576,13.64124],[4.24845,13.49414],[4.22055,13.48062],[4.19047,13.47502],[4.12577,13.47298],[4.12371,13.23359],[4.08877,12.99624],[3.92909,12.75039],[3.86439,12.68967],[3.6457,12.52854],[3.64156,12.518],[3.65149,12.26902],[3.62451,12.13766],[3.62399,12.09425],[3.6489,12.02102],[3.65355,11.98681],[3.6366,11.95359],[3.61955,11.93628],[3.60849,11.92196],[3.60394,11.90558],[3.60973,11.84879],[3.61294,11.83897],[3.61862,11.82837],[3.62627,11.82254],[3.64973,11.79783],[3.66203,11.77949],[3.66699,11.7597],[3.65986,11.7381],[3.64777,11.726],[3.5964,11.69577],[3.58937,11.70151],[3.58007,11.71737],[3.5717,11.72187],[3.55371,11.76967],[3.53697,11.7829],[3.50349,11.82998],[3.49542,11.83752],[3.48426,11.84517],[3.44767,11.85798],[3.40282,11.88527],[3.39166,11.88884],[3.38091,11.89504],[3.36913,11.89731],[3.34164,11.88289],[3.32779,11.88641],[3.31549,11.89457],[3.30701,11.90237],[3.29275,11.91865],[3.26991,11.95653],[3.26257,11.97472],[3.25761,11.99741],[3.25513,12.01875],[3.25203,12.02412],[3.23849,12.0342],[3.23539,12.03952],[3.06341,12.19378],[3.0229,12.25248],[3.00936,12.27631],[3.00098,12.27889],[2.96781,12.28256],[2.94497,12.29248],[2.9368,12.30085],[2.93039,12.32333],[2.92264,12.33563],[2.91262,12.34633],[2.89226,12.35708],[2.8443,12.39924],[2.83242,12.38405],[2.80864,12.38322],[2.79841,12.38121],[2.77816,12.38193],[2.76854,12.38007],[2.75748,12.37294],[2.74146,12.35413],[2.73227,12.34679],[2.72183,12.34426],[2.71129,12.35124],[2.70043,12.3471],[2.69506,12.34121],[2.68689,12.31842],[2.67294,12.29672],[2.66385,12.29155],[2.6286,12.3008],[2.62168,12.29951],[2.60359,12.28783],[2.59863,12.28835],[2.58613,12.29403],[2.55057,12.28452],[2.53125,12.26969],[2.5237,12.26918],[2.51905,12.27915],[2.51626,12.28142],[2.49507,12.28323],[2.48804,12.28039],[2.47771,12.2576],[2.47264,12.25925],[2.46696,12.26504],[2.45952,12.26675],[2.45435,12.26303],[2.44371,12.24923],[2.43089,12.24799],[2.40795,12.24892],[2.3942,12.24721],[2.37001,12.23626],[2.36123,12.21889],[2.36206,12.19616],[2.37188,12.14045],[2.40557,12.04671],[2.41115,12.03679],[2.41828,12.02867],[2.42862,12.02035],[2.43926,12.0156],[2.44877,12.01338],[2.45528,12.00867],[2.45735,11.99622],[2.45673,11.97906],[2.44939,11.97751],[2.43895,11.98128],[2.42893,11.98035],[2.422,11.97317],[2.41415,11.9587],[2.40743,11.95121],[2.39875,11.94878],[2.38934,11.95007],[2.38087,11.9479],[2.37518,11.93503],[2.37653,11.92408],[2.38821,11.90677],[2.39017,11.89654],[2.33808,11.9401],[2.07091,12.3069],[2.05179,12.34193],[2.05417,12.37093],[2.06926,12.38333],[2.12693,12.39511],[2.13148,12.39852],[2.13871,12.40834],[2.14502,12.41175],[2.16383,12.40477],[2.22325,12.40973],[2.23793,12.41346],[2.24496,12.42415],[2.2431,12.45118],[2.2463,12.46591],[2.24227,12.47345],[2.22387,12.49485],[2.21085,12.52306],[2.2032,12.58332],[2.2,12.59592],[2.19328,12.60946],[2.18429,12.62063],[2.166,12.63174],[2.14481,12.65075],[2.14099,12.65613],[2.1352,12.67561],[2.10905,12.70563],[2.06895,12.71628],[1.97169,12.72424],[1.9625,12.71912],[1.94555,12.70083],[1.93449,12.69354],[1.92663,12.69499],[1.9196,12.69835],[1.91144,12.69664],[1.90699,12.69184],[1.90017,12.67845],[1.88322,12.65396],[1.87268,12.63422],[1.86069,12.61706],[1.84374,12.6061],[1.82607,12.60419],[1.59704,12.62368],[1.56386,12.63215],[1.53585,12.6475],[1.11397,12.99624],[1.08379,13.01099],[1.01227,13.01688],[0.98354,13.03236],[0.97465,13.04833],[0.97175,13.06732],[0.97041,13.32833],[0.98354,13.36841],[1.00472,13.36484],[1.08472,13.33358],[1.13846,13.32038],[1.16068,13.31131],[1.16761,13.31343],[1.17763,13.34761],[1.18239,13.3587],[1.18766,13.36412],[1.20575,13.3589],[1.22208,13.34461],[1.24151,13.33554],[1.26869,13.34606],[1.24957,13.36707],[1.23427,13.37758],[1.21742,13.38177],[1.17505,13.38691],[1.15717,13.39265],[1.04824,13.44195],[1.01527,13.46566],[0.99656,13.49605],[0.99139,13.54111],[0.95098,13.5832],[0.89693,13.61493],[0.85073,13.6286],[0.81311,13.62504],[0.79533,13.62597],[0.77569,13.63529],[0.7637,13.64643],[0.76288,13.65304],[0.76629,13.65718],[0.76701,13.66087],[0.76639,13.67511],[0.7635,13.68203],[0.75337,13.6841],[0.62067,13.67997],[0.59431,13.68888],[0.58046,13.71379],[0.5848,13.72901],[0.59452,13.74986],[0.60051,13.76872],[0.59369,13.7781],[0.57447,13.78502],[0.55297,13.81004],[0.51928,13.83164],[0.50408,13.84536],[0.49199,13.86182],[0.48351,13.88034],[0.47566,13.88895],[0.45481,13.90236],[0.44863,13.90962],[0.44806,13.92011],[0.45626,13.93814],[0.4567,13.94685],[0.44592,13.95858],[0.42838,13.96749],[0.41187,13.97842],[0.40393,13.99607],[0.40187,14.0138],[0.39138,14.02258],[0.37835,14.02881],[0.36916,14.03907],[0.36905,14.04785],[0.37732,14.06395],[0.37846,14.07043],[0.37422,14.07888],[0.35626,14.0957],[0.34358,14.11433],[0.33916,14.12578],[0.34347,14.13754],[0.3674,14.17379],[0.37215,14.18565],[0.37742,14.2166],[0.38112,14.22567],[0.3906,14.23763],[0.39164,14.24593],[0.38879,14.25161],[0.34637,14.30758],[0.18865,14.44775],[0.15883,14.49612],[0.15294,14.54671]]]},"source":"Natural Earth Admin 0 Countries, 1:10m, version 5.1.1","sourceUrl":"https://www.naturalearthdata.com/downloads/10m-cultural-vectors/10m-admin-0-countries/"}
