{"type":"Feature","properties":{"isoA2":"NF","name":"Norfolk Island"},"geometry":{"type":"Polygon","coordinates":[[[167.91212,-29.01165],[167.92652,-28.99749],[167.94557,-29.00124],[167.96583,-29.01181],[167.98414,-29.01784],[167.99635,-29.02565],[167.99464,-29.04258],[167.98504,-29.05926],[167.97006,-29.06894],[167.96648,-29.07578],[167.96664,-29.08001],[167.9607,-29.06561],[167.95045,-29.05657],[167.93971,-29.05576],[167.93263,-29.06634],[167.92644,-29.06634],[167.91831,-29.03639],[167.92994,-29.01946],[167.93051,-29.01214],[167.92457,-29.00872],[167.91212,-29.01165]]]},"source":"Natural Earth Admin 0 Countries, 1:10m, version 5.1.1","sourceUrl":"https://www.naturalearthdata.com/downloads/10m-cultural-vectors/10m-admin-0-countries/"}
