{"type":"Feature","properties":{"isoA2":"NI","name":"Nicaragua"},"geometry":{"type":"MultiPolygon","coordinates":[[[[-87.68582,12.94758],[-87.66702,12.98225],[-87.63882,13.0065],[-87.60998,13.02407],[-87.58877,13.04633],[-87.58385,13.08466],[-87.57763,13.08466],[-87.58043,13.06318],[-87.58385,13.05732],[-87.55907,13.05557],[-87.54764,13.05215],[-87.51273,13.02322],[-87.50638,13.01968],[-87.48827,12.99592],[-87.46776,12.98225],[-87.46691,12.97574],[-87.46898,12.96064],[-87.46776,12.95429],[-87.43505,12.92239],[-87.39249,12.9134],[-87.28958,12.91958],[-87.28958,12.92703],[-87.34166,12.92573],[-87.36779,12.92853],[-87.37902,12.93757],[-87.36893,12.95356],[-87.31404,12.98155],[-87.08465,12.99593],[-87.06985,12.99438],[-87.04685,12.98055],[-87.03504,12.97978],[-87.02962,12.99608],[-87.00877,13.00608],[-86.98319,13.02187],[-86.97182,13.03388],[-86.94841,13.06969],[-86.94272,13.07406],[-86.928,13.08124],[-86.92293,13.08639],[-86.92024,13.09618],[-86.92981,13.10223],[-86.93234,13.10853],[-86.92371,13.16114],[-86.93492,13.18553],[-86.92598,13.21635],[-86.91885,13.22976],[-86.91079,13.23958],[-86.86273,13.27994],[-86.8495,13.28883],[-86.83343,13.29335],[-86.81622,13.29193],[-86.75865,13.26418],[-86.7493,13.26129],[-86.73984,13.26371],[-86.72548,13.2733],[-86.71178,13.28568],[-86.70403,13.29883],[-86.70186,13.3142],[-86.70992,13.3489],[-86.71716,13.36164],[-86.72362,13.36732],[-86.73638,13.37195],[-86.74021,13.38192],[-86.73865,13.39621],[-86.72594,13.42383],[-86.72429,13.43941],[-86.75659,13.55938],[-86.7571,13.57641],[-86.7509,13.60842],[-86.75157,13.62442],[-86.7554,13.63087],[-86.76821,13.64036],[-86.77214,13.64552],[-86.77405,13.65459],[-86.77023,13.72524],[-86.7662,13.74526],[-86.74992,13.75712],[-86.72723,13.76826],[-86.70631,13.77001],[-86.66269,13.76469],[-86.58115,13.77986],[-86.54166,13.78213],[-86.50854,13.76438],[-86.49081,13.7595],[-86.47629,13.76402],[-86.46286,13.77094],[-86.44823,13.77296],[-86.42653,13.75299],[-86.4101,13.74903],[-86.35847,13.75226],[-86.34013,13.75666],[-86.32519,13.76376],[-86.31356,13.7766],[-86.30778,13.79169],[-86.29992,13.82133],[-86.28411,13.84572],[-86.21858,13.91437],[-86.18406,13.96687],[-86.17357,13.97367],[-86.1497,13.98426],[-86.13802,13.99617],[-86.12169,14.02721],[-86.11048,14.03713],[-86.09673,14.04408],[-86.0202,14.05516],[-86.02045,14.04408],[-86.03126,14.02258],[-86.02841,13.99607],[-85.95777,13.9461],[-85.93612,13.9182],[-85.9294,13.9121],[-85.9155,13.90745],[-85.89721,13.91303],[-85.88356,13.91385],[-85.8616,13.90442],[-85.84987,13.88709],[-85.8401,13.86657],[-85.82416,13.84768],[-85.80202,13.84022],[-85.77866,13.84094],[-85.7583,13.83929],[-85.74499,13.82469],[-85.74246,13.82371],[-85.73339,13.83179],[-85.72512,13.84794],[-85.72301,13.86342],[-85.72869,13.87502],[-85.74368,13.87957],[-85.74745,13.88828],[-85.74329,13.90755],[-85.73339,13.93763],[-85.7322,13.95954],[-85.72735,13.96501],[-85.71698,13.96269],[-85.69924,13.9615],[-85.6865,13.96734],[-85.66619,13.98447],[-85.65766,13.98199],[-85.65149,13.98199],[-85.65195,13.98669],[-85.64461,13.98879],[-85.64787,13.9993],[-85.61281,14.00974],[-85.60307,14.01953],[-85.59361,14.03346],[-85.5717,14.04051],[-85.54663,14.04491],[-85.52795,14.0509],[-85.51863,14.0646],[-85.5164,14.08054],[-85.51064,14.09379],[-85.47468,14.1034],[-85.45762,14.11304],[-85.43173,14.13283],[-85.42016,14.14686],[-85.40912,14.16616],[-85.40088,14.18518],[-85.39362,14.21076],[-85.38401,14.22645],[-85.37251,14.2411],[-85.36287,14.25011],[-85.34362,14.25011],[-85.33796,14.26068],[-85.32135,14.28133],[-85.31197,14.28365],[-85.2882,14.29515],[-85.27781,14.29732],[-85.23996,14.29732],[-85.21521,14.30158],[-85.1902,14.30964],[-85.16963,14.32176],[-85.15803,14.33827],[-85.15904,14.36106],[-85.17188,14.38101],[-85.18973,14.39685],[-85.20583,14.40716],[-85.17849,14.42765],[-85.17735,14.43398],[-85.17968,14.44925],[-85.17849,14.45561],[-85.15539,14.47948],[-85.15183,14.48596],[-85.14981,14.5365],[-85.14547,14.56425],[-85.13754,14.57849],[-85.11932,14.57397],[-85.10335,14.55687],[-85.08638,14.54454],[-85.06524,14.55425],[-85.02964,14.58896],[-85.02222,14.6058],[-85.04816,14.60578],[-85.04222,14.61348],[-85.02021,14.63373],[-85.04852,14.65332],[-85.05393,14.66306],[-85.03305,14.66957],[-85.02979,14.67554],[-85.02455,14.71254],[-85.01566,14.72817],[-85.00199,14.74068],[-84.96646,14.76463],[-84.92063,14.8077],[-84.90422,14.81698],[-84.84443,14.82755],[-84.8181,14.82866],[-84.79213,14.82106],[-84.77017,14.80514],[-84.75547,14.78148],[-84.76694,14.7669],[-84.74704,14.76447],[-84.74428,14.75241],[-84.74529,14.7391],[-84.72485,14.72564],[-84.71441,14.70892],[-84.69932,14.67469],[-84.68085,14.68546],[-84.6617,14.68345],[-84.62297,14.66722],[-84.60044,14.66252],[-84.52742,14.6604],[-84.53122,14.65332],[-84.53422,14.63373],[-84.51905,14.63828],[-84.50848,14.63262],[-84.49802,14.62392],[-84.48269,14.61947],[-84.47161,14.62262],[-84.44572,14.63668],[-84.40843,14.64942],[-84.39001,14.67148],[-84.37614,14.69673],[-84.36293,14.71561],[-84.35319,14.70598],[-84.34604,14.67998],[-84.33839,14.67469],[-84.2878,14.66722],[-84.26728,14.67774],[-84.26216,14.69975],[-84.26733,14.74667],[-84.2618,14.75853],[-84.24922,14.75941],[-84.2354,14.75473],[-84.22638,14.74977],[-84.19501,14.71871],[-84.18289,14.71386],[-84.16819,14.71497],[-84.1438,14.72187],[-84.13788,14.72523],[-84.12874,14.73419],[-84.11961,14.7361],[-84.10228,14.73187],[-84.09543,14.7361],[-84.09543,14.7436],[-84.11111,14.76104],[-84.12272,14.78453],[-84.11176,14.79341],[-84.10445,14.79393],[-84.08156,14.7798],[-84.0752,14.77163],[-84.06468,14.77026],[-84.04781,14.7708],[-84.04267,14.76807],[-84.04076,14.76034],[-84.02357,14.75832],[-83.92472,14.76344],[-83.92986,14.77166],[-83.92965,14.78088],[-83.92472,14.80377],[-83.91265,14.79719],[-83.89655,14.78044],[-83.88376,14.77711],[-83.88994,14.79073],[-83.87875,14.78675],[-83.86947,14.77711],[-83.85731,14.78778],[-83.8395,14.79742],[-83.81966,14.80362],[-83.80121,14.80377],[-83.81392,14.81377],[-83.82106,14.82548],[-83.7653,14.82879],[-83.74452,14.83667],[-83.74656,14.8522],[-83.73393,14.85297],[-83.72362,14.85158],[-83.7162,14.84705],[-83.71243,14.83853],[-83.70502,14.83853],[-83.7145,14.86723],[-83.71062,14.87834],[-83.69197,14.88697],[-83.67215,14.88964],[-83.64995,14.8885],[-83.63156,14.8832],[-83.62306,14.87269],[-83.61562,14.87269],[-83.6113,14.88491],[-83.60918,14.89837],[-83.60427,14.90919],[-83.57978,14.91811],[-83.55487,14.93741],[-83.54048,14.94157],[-83.54735,14.95521],[-83.52686,14.94837],[-83.52991,14.96177],[-83.52862,14.9734],[-83.52304,14.97769],[-83.51322,14.96885],[-83.511,14.99017],[-83.50572,14.99681],[-83.51247,15.0065],[-83.50908,15.01154],[-83.49901,15.01265],[-83.48586,15.01048],[-83.48056,15.00554],[-83.46839,14.98741],[-83.45919,14.9825],[-83.43573,14.98518],[-83.41547,14.99694],[-83.39989,15.01363],[-83.39031,15.03097],[-83.37783,15.02126],[-83.36498,15.01635],[-83.35455,15.01007],[-83.34935,14.99681],[-83.33424,15.00645],[-83.31705,15.00756],[-83.27297,15.00304],[-83.28489,14.99738],[-83.28566,14.99211],[-83.27832,14.98712],[-83.26615,14.9825],[-83.21773,14.9825],[-83.19133,14.99425],[-83.1774,14.99681],[-83.14365,14.9949],[-83.13044,14.99701],[-83.13777,14.98672],[-83.15608,14.97846],[-83.16515,14.96906],[-83.17984,14.98599],[-83.19188,14.97427],[-83.20149,14.95307],[-83.20889,14.94172],[-83.22167,14.9357],[-83.23388,14.92133],[-83.24291,14.90436],[-83.24645,14.89057],[-83.24909,14.88589],[-83.26183,14.87377],[-83.26696,14.86665],[-83.27379,14.82567],[-83.28197,14.81318],[-83.29402,14.80427],[-83.32844,14.79096],[-83.32323,14.8017],[-83.31477,14.81143],[-83.31477,14.80394],[-83.31139,14.80952],[-83.30944,14.81411],[-83.3085,14.82567],[-83.31949,14.82026],[-83.32844,14.82567],[-83.32844,14.83185],[-83.31648,14.83735],[-83.30508,14.83877],[-83.29507,14.83519],[-83.28742,14.82567],[-83.2882,14.84455],[-83.29894,14.87043],[-83.30167,14.89057],[-83.30785,14.91059],[-83.32217,14.91389],[-83.33837,14.90803],[-83.35017,14.90082],[-83.36986,14.883],[-83.41413,14.8277],[-83.42463,14.80394],[-83.41153,14.81826],[-83.39782,14.8076],[-83.38695,14.76655],[-83.38024,14.75739],[-83.36705,14.7497],[-83.35265,14.73623],[-83.33751,14.73143],[-83.32217,14.74995],[-83.32946,14.75609],[-83.35631,14.77045],[-83.34504,14.77656],[-83.33348,14.77326],[-83.32299,14.76341],[-83.31477,14.74995],[-83.31542,14.77277],[-83.30818,14.77985],[-83.29922,14.77119],[-83.26012,14.59601],[-83.24861,14.57172],[-83.24031,14.52399],[-83.1918,14.38691],[-83.18659,14.34764],[-83.1914,14.31342],[-83.21858,14.25031],[-83.30167,14.11994],[-83.33751,14.07754],[-83.34264,14.06098],[-83.34968,14.04877],[-83.39729,14.0163],[-83.41739,13.98859],[-83.43126,13.95673],[-83.45531,13.86392],[-83.4938,13.73774],[-83.51749,13.62368],[-83.51602,13.57465],[-83.52017,13.55077],[-83.52038,13.53164],[-83.54133,13.48188],[-83.55915,13.41584],[-83.57014,13.2871],[-83.56823,13.26301],[-83.56115,13.24917],[-83.56859,13.24291],[-83.56298,13.23066],[-83.50768,12.90278],[-83.54133,12.63898],[-83.54133,12.58063],[-83.53799,12.57103],[-83.52351,12.5423],[-83.51382,12.51048],[-83.48591,12.47215],[-83.47924,12.44721],[-83.4818,12.41665],[-83.4923,12.40034],[-83.51256,12.39378],[-83.54475,12.39256],[-83.56924,12.38764],[-83.59423,12.37881],[-83.61758,12.37515],[-83.63752,12.38573],[-83.62999,12.39289],[-83.60936,12.40721],[-83.60338,12.41372],[-83.60253,12.42544],[-83.60631,12.44115],[-83.6127,12.4549],[-83.63463,12.47411],[-83.63288,12.53954],[-83.63752,12.56452],[-83.63268,12.5666],[-83.63004,12.57075],[-83.62385,12.57075],[-83.58845,12.55964],[-83.56379,12.59089],[-83.55541,12.63589],[-83.56859,12.66633],[-83.56859,12.67377],[-83.55997,12.68325],[-83.55655,12.69672],[-83.55492,12.75259],[-83.54442,12.76309],[-83.54133,12.76996],[-83.54467,12.79678],[-83.56404,12.81269],[-83.59081,12.81908],[-83.61636,12.81713],[-83.63703,12.80532],[-83.6459,12.78685],[-83.64533,12.76651],[-83.63752,12.74885],[-83.61327,12.73526],[-83.61022,12.70791],[-83.60595,12.70108],[-83.59748,12.69432],[-83.59594,12.68403],[-83.59642,12.66714],[-83.59862,12.66022],[-83.60338,12.65265],[-83.5891,12.63215],[-83.62047,12.61424],[-83.67369,12.57046],[-83.7058,12.55707],[-83.74901,12.55256],[-83.7672,12.5467],[-83.77465,12.53351],[-83.77465,12.48143],[-83.77343,12.48029],[-83.76944,12.48249],[-83.74901,12.47948],[-83.74096,12.47972],[-83.73424,12.47769],[-83.72623,12.46833],[-83.71939,12.42365],[-83.72338,12.40229],[-83.73038,12.38207],[-83.73371,12.36298],[-83.72623,12.34479],[-83.70767,12.33588],[-83.67634,12.34248],[-83.67101,12.32709],[-83.67732,12.29751],[-83.67846,12.28612],[-83.67638,12.27985],[-83.67174,12.28897],[-83.65587,12.34028],[-83.64977,12.35318],[-83.64094,12.35847],[-83.62121,12.35566],[-83.61701,12.34805],[-83.66373,12.25609],[-83.6859,12.13744],[-83.67858,12.00943],[-83.67101,11.98794],[-83.68529,11.98111],[-83.68122,12.00165],[-83.6883,12.01874],[-83.71325,12.0493],[-83.72374,12.07465],[-83.71524,12.0854],[-83.70067,12.0952],[-83.69274,12.11823],[-83.69786,12.1352],[-83.71101,12.15473],[-83.72863,12.17158],[-83.74738,12.18032],[-83.77774,12.17715],[-83.77627,12.1623],[-83.76032,12.15306],[-83.74738,12.16665],[-83.7399,12.16665],[-83.72305,12.14936],[-83.71613,12.1389],[-83.71325,12.12568],[-83.71691,12.10879],[-83.73204,12.08706],[-83.73371,12.07103],[-83.73937,12.05195],[-83.75731,12.05134],[-83.79857,12.06363],[-83.80394,12.06029],[-83.79174,12.05297],[-83.7672,12.04316],[-83.7613,12.03535],[-83.75723,12.02464],[-83.75422,11.99909],[-83.75626,11.99006],[-83.76521,11.97162],[-83.7672,11.9643],[-83.75984,11.94684],[-83.76106,11.94013],[-83.76627,11.93399],[-83.78087,11.92646],[-83.79939,11.9029],[-83.80508,11.89912],[-83.81371,11.89619],[-83.82348,11.88898],[-83.83186,11.87987],[-83.83609,11.87124],[-83.82299,11.86253],[-83.80696,11.84821],[-83.79336,11.83275],[-83.78478,11.81354],[-83.7775,11.80829],[-83.76773,11.80484],[-83.75764,11.80362],[-83.74291,11.80524],[-83.74181,11.80976],[-83.74596,11.81631],[-83.74738,11.82404],[-83.74059,11.84345],[-83.7351,11.85366],[-83.72623,11.85757],[-83.70954,11.85814],[-83.69994,11.84992],[-83.65363,11.66747],[-83.65119,11.63227],[-83.65298,11.61152],[-83.65681,11.60541],[-83.66478,11.59809],[-83.66674,11.60098],[-83.69473,11.59366],[-83.69587,11.59125],[-83.70377,11.58796],[-83.71373,11.57347],[-83.72281,11.57022],[-83.7447,11.56851],[-83.75304,11.5646],[-83.76106,11.55711],[-83.77123,11.52611],[-83.78091,11.47931],[-83.79442,11.444],[-83.82189,11.44725],[-83.85363,11.40742],[-83.86278,11.39203],[-83.86803,11.37491],[-83.86791,11.27367],[-83.83727,11.14252],[-83.81566,11.0904],[-83.78563,11.04483],[-83.77595,11.01984],[-83.75207,10.98225],[-83.74364,10.97431],[-83.72545,10.9632],[-83.71032,10.92267],[-83.69274,10.92593],[-83.69652,10.93659],[-83.68875,10.93459],[-83.67685,10.9103],[-83.67983,10.89701],[-83.66985,10.89172],[-83.66931,10.86975],[-83.66013,10.83417],[-83.66303,10.80702],[-83.69814,10.78916],[-83.76896,10.77247],[-83.83534,10.74761],[-83.85581,10.724],[-83.85953,10.72178],[-83.88687,10.72715],[-83.89356,10.72493],[-83.90748,10.71537],[-83.91728,10.71348],[-83.92658,10.7149],[-83.93332,10.71805],[-83.99363,10.765],[-83.9982,10.78206],[-84.00923,10.78945],[-84.0227,10.78722],[-84.03456,10.77552],[-84.05164,10.77955],[-84.07644,10.76381],[-84.08856,10.77552],[-84.09543,10.77552],[-84.10693,10.76691],[-84.11843,10.77123],[-84.137,10.78916],[-84.14902,10.78717],[-84.18041,10.78976],[-84.1916,10.78172],[-84.19687,10.78852],[-84.21889,10.80596],[-84.22524,10.81368],[-84.2271,10.81931],[-84.22266,10.82704],[-84.20465,10.83699],[-84.20837,10.86097],[-84.22566,10.87531],[-84.24472,10.88492],[-84.25366,10.89471],[-84.26428,10.90182],[-84.31074,10.91941],[-84.32131,10.92915],[-84.3241,10.93618],[-84.3418,10.9599],[-84.34386,10.97228],[-84.34366,10.98238],[-84.34598,10.9899],[-84.35547,10.99463],[-84.41776,10.95504],[-84.42724,10.95112],[-84.4382,10.9522],[-84.45784,10.96135],[-84.46639,10.96845],[-84.48913,10.99636],[-84.49817,11.00199],[-84.55861,11.02721],[-84.58168,11.03447],[-84.60323,11.03328],[-84.62067,11.03576],[-84.65873,11.06274],[-84.67646,11.07041],[-84.70777,11.06305],[-84.88497,10.94768],[-84.9084,10.93936],[-84.9314,10.94189],[-85.50863,11.15242],[-85.54095,11.17033],[-85.56916,11.19539],[-85.59779,11.20994],[-85.63115,11.19622],[-85.65932,11.15883],[-85.67758,11.11963],[-85.70174,11.08088],[-85.75231,11.10171],[-85.77172,11.10468],[-85.7858,11.11225],[-85.79369,11.13003],[-85.80309,11.16608],[-85.82132,11.19282],[-85.92801,11.31074],[-85.95682,11.32978],[-85.96011,11.33401],[-85.99486,11.34366],[-86.01036,11.35798],[-86.04394,11.3981],[-86.07059,11.41169],[-86.10473,11.44729],[-86.1483,11.47175],[-86.16275,11.48452],[-86.17614,11.52241],[-86.20714,11.53604],[-86.24437,11.5716],[-86.33646,11.61135],[-86.35208,11.62263],[-86.36539,11.63797],[-86.37662,11.66946],[-86.49637,11.75943],[-86.51561,11.78311],[-86.54239,11.84235],[-86.55321,11.85135],[-86.56326,11.85664],[-86.58963,11.88284],[-86.60521,11.90469],[-86.62222,11.9361],[-86.63036,11.96491],[-86.64188,11.97651],[-86.66649,11.99531],[-86.68981,12.02407],[-86.72757,12.08828],[-86.76269,12.18228],[-86.77257,12.19741],[-86.79752,12.21853],[-87.00223,12.34138],[-87.01505,12.35684],[-87.0714,12.3887],[-87.10196,12.42097],[-87.17101,12.45144],[-87.17357,12.47451],[-87.1621,12.45962],[-87.14249,12.44684],[-87.11962,12.43769],[-87.09781,12.43354],[-87.12267,12.46035],[-87.13549,12.47049],[-87.14932,12.47451],[-87.15787,12.48102],[-87.18041,12.52298],[-87.18663,12.52298],[-87.17642,12.48591],[-87.19274,12.49991],[-87.21886,12.53225],[-87.23807,12.55024],[-87.25048,12.55532],[-87.31298,12.60281],[-87.32128,12.61123],[-87.33121,12.63898],[-87.34484,12.61917],[-87.45486,12.7438],[-87.46776,12.76996],[-87.46349,12.76516],[-87.4473,12.75629],[-87.4473,12.76252],[-87.46093,12.76996],[-87.46349,12.78632],[-87.48025,12.79999],[-87.50292,12.81196],[-87.52298,12.81716],[-87.52298,12.81094],[-87.49645,12.79385],[-87.48253,12.7812],[-87.48204,12.76996],[-87.49222,12.77139],[-87.50699,12.78242],[-87.52921,12.80349],[-87.64651,12.87238],[-87.67093,12.8935],[-87.68566,12.91828],[-87.68582,12.94758]]],[[[-83.68687,10.93797],[-83.682,10.93867],[-83.66535,10.93532],[-83.6662,10.93122],[-83.67128,10.92649],[-83.67556,10.92598],[-83.67556,10.92941],[-83.67299,10.93129],[-83.67299,10.93323],[-83.68687,10.93797]]],[[[-83.73607,11.9418],[-83.72899,11.97333],[-83.7084,11.98729],[-83.70686,11.98705],[-83.70531,11.98432],[-83.7058,11.98111],[-83.71239,11.97085],[-83.71931,11.95453],[-83.72452,11.93635],[-83.72623,11.92023],[-83.72037,11.88369],[-83.71984,11.87031],[-83.72623,11.87865],[-83.7338,11.90583],[-83.73607,11.9418]]],[[[-83.05598,12.1662],[-83.04646,12.18374],[-83.03254,12.19082],[-83.02115,12.18179],[-83.02505,12.1752],[-83.05394,12.14387],[-83.05598,12.1662]]],[[[-82.80826,14.36636],[-82.80163,14.36685],[-82.80085,14.37324],[-82.78478,14.38199],[-82.77823,14.39321],[-82.77465,14.40469],[-82.76732,14.41413],[-82.75105,14.42202],[-82.73778,14.42194],[-82.72899,14.41376],[-82.7257,14.39741],[-82.73253,14.36957],[-82.75084,14.36148],[-82.80826,14.36636]]]]},"source":"Natural Earth Admin 0 Countries, 1:10m, version 5.1.1","sourceUrl":"https://www.naturalearthdata.com/downloads/10m-cultural-vectors/10m-admin-0-countries/"}
