{"type":"Feature","properties":{"isoA2":"NU","name":"Niue"},"geometry":{"type":"Polygon","coordinates":[[[-169.95043,-19.08733],[-169.9477,-19.06943],[-169.92626,-19.03753],[-169.9344,-19.02093],[-169.93371,-19.0136],[-169.93025,-19.0084],[-169.92182,-19.00701],[-169.91601,-19.00311],[-169.89582,-18.9651],[-169.86372,-18.96404],[-169.82531,-18.96795],[-169.79426,-19.04713],[-169.78291,-19.06894],[-169.79686,-19.07391],[-169.80598,-19.08196],[-169.82384,-19.10231],[-169.86543,-19.12965],[-169.873,-19.12591],[-169.88097,-19.12908],[-169.89891,-19.14276],[-169.90205,-19.13299],[-169.90998,-19.1286],[-169.92109,-19.12803],[-169.93371,-19.12965],[-169.92479,-19.11932],[-169.91942,-19.11598],[-169.92406,-19.09938],[-169.92626,-19.0949],[-169.95043,-19.08733]]]},"source":"Natural Earth Admin 0 Countries, 1:10m, version 5.1.1","sourceUrl":"https://www.naturalearthdata.com/downloads/10m-cultural-vectors/10m-admin-0-countries/"}
