{"type":"Feature","properties":{"isoA2":"PG","name":"Papua New Guinea"},"geometry":{"type":"MultiPolygon","coordinates":[[[[140.84921,-6.70285],[140.85717,-6.68217],[140.8658,-6.64921],[140.86492,-6.6306],[140.8504,-6.62357],[140.85929,-6.60838],[140.89055,-6.5998],[140.90497,-6.58947],[140.90332,-6.58213],[140.89649,-6.57303],[140.89298,-6.56539],[140.90161,-6.56208],[140.90988,-6.56135],[140.9151,-6.55846],[140.91784,-6.55309],[140.91877,-6.52787],[140.92099,-6.5164],[140.92822,-6.50968],[140.94347,-6.50751],[140.95019,-6.49872],[140.95313,-6.48053],[140.94859,-6.46555],[140.93282,-6.46596],[140.93319,-6.45376],[140.92998,-6.44498],[140.92316,-6.43981],[140.91252,-6.43857],[140.9213,-6.43392],[140.93102,-6.43144],[140.95282,-6.43175],[140.95019,-6.41894],[140.96316,-6.40426],[140.96708,-6.39392],[140.96466,-6.38803],[140.95499,-6.37966],[140.95282,-6.37377],[140.95386,-6.37015],[140.95866,-6.36809],[140.96373,-6.34804],[140.97287,-6.33656],[140.9769,-6.33512],[140.9769,-4.99949],[140.97236,-3.2506],[140.97446,-2.60052],[140.98731,-2.59979],[141.00782,-2.60817],[141.04298,-2.58978],[141.08131,-2.59433],[141.12143,-2.60752],[141.16228,-2.615],[141.19337,-2.615],[141.20582,-2.61956],[141.22755,-2.63494],[141.23902,-2.63747],[141.26466,-2.6386],[141.27589,-2.64235],[141.28053,-2.64861],[141.29086,-2.66969],[141.29623,-2.67645],[141.30942,-2.67132],[141.33823,-2.70184],[141.36085,-2.71063],[141.38234,-2.71356],[141.57618,-2.79404],[141.80128,-2.90008],[141.83277,-2.90594],[141.83611,-2.91334],[141.83644,-2.92327],[141.84067,-2.9332],[141.88543,-2.9638],[141.90553,-2.96722],[141.94304,-2.96014],[142.00001,-2.95599],[142.01043,-2.96038],[142.06495,-3.00897],[142.07032,-3.01849],[142.06031,-3.04998],[142.06284,-3.06015],[142.06967,-3.06211],[142.09522,-3.06414],[142.1045,-3.06699],[142.13746,-3.0556],[142.15935,-3.06601],[142.18189,-3.08017],[142.20387,-3.0875],[142.22657,-3.08945],[142.24155,-3.09442],[142.26954,-3.10784],[142.3947,-3.14446],[142.50196,-3.19606],[142.81227,-3.29095],[142.84596,-3.29616],[142.87916,-3.3139],[142.91993,-3.31805],[142.94898,-3.33506],[143.02931,-3.35556],[143.05193,-3.35605],[143.10239,-3.35166],[143.11866,-3.35556],[143.1255,-3.34808],[143.14226,-3.35491],[143.21119,-3.36175],[143.22071,-3.36492],[143.23951,-3.37908],[143.25221,-3.38226],[143.26442,-3.38299],[143.47788,-3.42059],[143.52296,-3.43597],[143.54038,-3.44769],[143.59791,-3.50506],[143.60792,-3.53297],[143.61207,-3.53981],[143.61866,-3.54485],[143.63445,-3.55145],[143.65089,-3.56072],[143.68043,-3.57024],[143.68434,-3.57431],[143.69321,-3.57008],[143.70777,-3.55975],[143.72022,-3.56227],[143.72234,-3.56854],[143.71461,-3.58082],[143.72389,-3.59344],[143.73422,-3.60215],[143.74781,-3.60719],[143.78346,-3.61004],[143.8025,-3.61435],[143.81804,-3.62168],[143.85515,-3.68011],[143.86769,-3.68914],[143.90895,-3.7077],[143.92368,-3.7112],[143.94711,-3.72234],[143.99586,-3.79314],[144.02149,-3.80299],[144.0547,-3.80495],[144.11988,-3.80055],[144.13038,-3.80202],[144.14186,-3.80023],[144.167,-3.80055],[144.1587,-3.80877],[144.1491,-3.81365],[144.13795,-3.81536],[144.12615,-3.81414],[144.1338,-3.82594],[144.1526,-3.8366],[144.16334,-3.84466],[144.17888,-3.85125],[144.20362,-3.83782],[144.21827,-3.84466],[144.23081,-3.86598],[144.23878,-3.86883],[144.24968,-3.86785],[144.25213,-3.86517],[144.25213,-3.86094],[144.25587,-3.85516],[144.26539,-3.84482],[144.27418,-3.83115],[144.27882,-3.81756],[144.27622,-3.80731],[144.30991,-3.79844],[144.35499,-3.79803],[144.40008,-3.80397],[144.43385,-3.81414],[144.44695,-3.81178],[144.49871,-3.8139],[144.51344,-3.81756],[144.52703,-3.83123],[144.53842,-3.84629],[144.54689,-3.86321],[144.55128,-3.88307],[144.55128,-3.96844],[144.55779,-3.97942],[144.57293,-3.99098],[144.59107,-4.00075],[144.60581,-4.00661],[144.73032,-4.02606],[144.7697,-4.0407],[144.79607,-4.06374],[144.81365,-4.07586],[144.84376,-4.08416],[144.86785,-4.09922],[144.87859,-4.11273],[144.87957,-4.11875],[144.87696,-4.12542],[144.86427,-4.13096],[144.85971,-4.13633],[144.85922,-4.14821],[144.865,-4.16155],[144.87745,-4.17213],[144.92189,-4.18011],[144.93922,-4.18922],[144.96901,-4.21836],[144.99122,-4.23235],[144.99627,-4.2387],[144.9961,-4.275],[144.99968,-4.28037],[145.01417,-4.28867],[145.05095,-4.34189],[145.07781,-4.35662],[145.18133,-4.39023],[145.2212,-4.38983],[145.26417,-4.37957],[145.30689,-4.37469],[145.34571,-4.39023],[145.38673,-4.4415],[145.44809,-4.49261],[145.48414,-4.53436],[145.49252,-4.5499],[145.51368,-4.5783],[145.5232,-4.58441],[145.54428,-4.58196],[145.55982,-4.5993],[145.58106,-4.64625],[145.6902,-4.76824],[145.70574,-4.78183],[145.72446,-4.78948],[145.74024,-4.79998],[145.74366,-4.80429],[145.77768,-4.81414],[145.80144,-4.84246],[145.81186,-4.86102],[145.80885,-4.86932],[145.79737,-4.87851],[145.79029,-4.89984],[145.78452,-4.94508],[145.78541,-4.96868],[145.79567,-5.0097],[145.79819,-5.03004],[145.80974,-5.04957],[145.81186,-5.05804],[145.8108,-5.0665],[145.79819,-5.08904],[145.79656,-5.12754],[145.79127,-5.16009],[145.79273,-5.20257],[145.79103,-5.22088],[145.78452,-5.23935],[145.74879,-5.28973],[145.74366,-5.31129],[145.74936,-5.33465],[145.75034,-5.3458],[145.74789,-5.35817],[145.72999,-5.39023],[145.72739,-5.42246],[145.73845,-5.45371],[145.75961,-5.47698],[145.78785,-5.48642],[145.84848,-5.47576],[145.87241,-5.48211],[145.88697,-5.5136],[145.89381,-5.5136],[145.90064,-5.48642],[145.91432,-5.4931],[145.92644,-5.47894],[145.95631,-5.47471],[145.96949,-5.46526],[145.98715,-5.48309],[146.02247,-5.49424],[146.04469,-5.50693],[146.05226,-5.50042],[146.05714,-5.49961],[146.0652,-5.50693],[146.07594,-5.50644],[146.10987,-5.52174],[146.12721,-5.52728],[146.15162,-5.52663],[146.16326,-5.52907],[146.17286,-5.54949],[146.18409,-5.55316],[146.20916,-5.55462],[146.22828,-5.56365],[146.23902,-5.56699],[146.25701,-5.56194],[146.28492,-5.58261],[146.29542,-5.58278],[146.31617,-5.57676],[146.34132,-5.57537],[146.34897,-5.57724],[146.37428,-5.59344],[146.38299,-5.60076],[146.39381,-5.6041],[146.42286,-5.6028],[146.44239,-5.59881],[146.46095,-5.5993],[146.47975,-5.61297],[146.48854,-5.63242],[146.49488,-5.64023],[146.51889,-5.64544],[146.53077,-5.65065],[146.65659,-5.74912],[146.72299,-5.76686],[146.75717,-5.78737],[146.77996,-5.79241],[146.78842,-5.79778],[146.79802,-5.83359],[146.81276,-5.83856],[146.84653,-5.8283],[146.86948,-5.82513],[146.91822,-5.83571],[146.93287,-5.84197],[146.94093,-5.85687],[146.94711,-5.87493],[146.95582,-5.89039],[147.00782,-5.92449],[147.02589,-5.92783],[147.03468,-5.93125],[147.04225,-5.93865],[147.05104,-5.93467],[147.06511,-5.92449],[147.07602,-5.92401],[147.08229,-5.92604],[147.09352,-5.93816],[147.10662,-5.95916],[147.11647,-5.96901],[147.12086,-5.9625],[147.13282,-5.9577],[147.22511,-5.96884],[147.23439,-5.96884],[147.24383,-5.96608],[147.25563,-5.95721],[147.27491,-5.93564],[147.28907,-5.93133],[147.29786,-5.93353],[147.32293,-5.945],[147.3296,-5.94451],[147.3366,-5.93475],[147.3436,-5.93076],[147.34848,-5.93231],[147.35369,-5.93816],[147.40309,-5.95582],[147.44907,-5.9616],[147.46656,-5.96941],[147.48015,-5.98024],[147.49147,-5.99285],[147.50734,-5.99765],[147.5114,-6.00026],[147.51759,-6.02077],[147.52443,-6.0276],[147.55161,-6.04062],[147.62176,-6.10662],[147.64845,-6.15398],[147.65846,-6.16473],[147.67465,-6.17425],[147.68434,-6.19687],[147.69215,-6.22381],[147.72625,-6.27223],[147.80079,-6.30975],[147.82667,-6.33538],[147.83033,-6.34922],[147.82602,-6.36647],[147.82667,-6.37762],[147.83326,-6.39056],[147.85043,-6.41188],[147.85613,-6.43971],[147.86549,-6.46315],[147.86752,-6.47633],[147.86427,-6.48512],[147.85841,-6.49236],[147.85523,-6.50075],[147.86069,-6.5136],[147.84995,-6.52679],[147.85133,-6.5416],[147.85719,-6.55853],[147.86069,-6.57936],[147.8576,-6.58392],[147.84034,-6.59612],[147.84205,-6.60849],[147.84693,-6.61517],[147.85353,-6.6159],[147.86069,-6.6098],[147.85402,-6.69101],[147.77564,-6.71787],[147.60011,-6.72715],[147.59051,-6.73309],[147.57301,-6.7492],[147.56528,-6.75384],[147.55421,-6.75335],[147.5324,-6.74578],[147.52125,-6.75042],[147.5031,-6.75498],[147.43621,-6.73333],[147.41326,-6.73349],[147.37208,-6.74424],[147.3506,-6.747],[147.19484,-6.73854],[147.18238,-6.74017],[147.17677,-6.73016],[147.16928,-6.72243],[147.15968,-6.71673],[147.14763,-6.71282],[147.13209,-6.71103],[147.08277,-6.71282],[147.06935,-6.71706],[147.04444,-6.73593],[147.02784,-6.74017],[146.99439,-6.7387],[146.97731,-6.74041],[146.96266,-6.747],[146.96119,-6.77109],[146.94597,-6.81292],[146.94215,-6.83571],[146.94321,-6.88388],[146.94956,-6.93133],[146.95623,-6.95468],[146.98902,-6.99505],[147.01043,-7.01442],[147.02084,-7.02752],[147.02719,-7.03232],[147.03834,-7.03493],[147.04623,-7.0333],[147.05958,-7.02077],[147.07252,-7.01442],[147.07106,-7.02793],[147.06056,-7.04697],[147.05828,-7.05486],[147.06039,-7.06731],[147.06935,-7.08367],[147.07252,-7.09637],[147.07106,-7.10906],[147.06381,-7.13274],[147.06511,-7.14479],[147.0691,-7.14617],[147.12078,-7.18597],[147.13234,-7.1985],[147.14137,-7.21307],[147.14487,-7.23414],[147.14088,-7.28143],[147.1526,-7.30592],[147.14943,-7.31064],[147.14389,-7.31463],[147.14137,-7.32293],[147.15447,-7.35027],[147.16188,-7.39056],[147.18238,-7.42539],[147.19304,-7.43369],[147.19606,-7.43841],[147.19484,-7.44411],[147.18385,-7.44915],[147.18238,-7.45208],[147.18849,-7.46258],[147.1989,-7.46168],[147.20965,-7.4664],[147.21437,-7.47373],[147.21363,-7.48008],[147.21607,-7.48463],[147.23015,-7.48691],[147.23463,-7.48414],[147.25123,-7.4664],[147.25758,-7.4664],[147.26808,-7.47633],[147.26889,-7.48162],[147.26433,-7.48691],[147.32472,-7.5014],[147.3545,-7.51531],[147.36744,-7.53834],[147.37127,-7.5486],[147.38022,-7.55364],[147.41383,-7.5582],[147.44304,-7.58245],[147.43482,-7.59157],[147.4406,-7.59393],[147.45265,-7.59417],[147.4629,-7.59678],[147.48731,-7.61631],[147.49887,-7.629],[147.50392,-7.6408],[147.50327,-7.67832],[147.51295,-7.68759],[147.56715,-7.69606],[147.58131,-7.70371],[147.58595,-7.71844],[147.58644,-7.74407],[147.59343,-7.76483],[147.6067,-7.78094],[147.61492,-7.79664],[147.60694,-7.8165],[147.65528,-7.80967],[147.65528,-7.80218],[147.64601,-7.79795],[147.63893,-7.79111],[147.63502,-7.78134],[147.63478,-7.768],[147.66179,-7.78875],[147.68336,-7.81072],[147.69777,-7.83953],[147.70582,-7.9039],[147.71388,-7.92059],[147.72682,-7.93206],[147.74464,-7.93922],[147.76092,-7.94069],[147.79127,-7.93369],[147.813,-7.93255],[147.81902,-7.93581],[147.82488,-7.9415],[147.83229,-7.94354],[147.84376,-7.93581],[147.8532,-7.93182],[147.86492,-7.93279],[147.87647,-7.93719],[147.92351,-7.97145],[147.94557,-7.9826],[147.9673,-7.98707],[147.97495,-7.99668],[147.98927,-8.04144],[147.99855,-8.05535],[148.01808,-8.05771],[148.03883,-8.05283],[148.05641,-8.05096],[148.06617,-8.06276],[148.07716,-8.05706],[148.11402,-8.05535],[148.13502,-8.04608],[148.14633,-8.04567],[148.13819,-8.05918],[148.13754,-8.07537],[148.15821,-8.16627],[148.17286,-8.18922],[148.17823,-8.21819],[148.19654,-8.25465],[148.2046,-8.2776],[148.21078,-8.30608],[148.21144,-8.33457],[148.20281,-8.3576],[148.23072,-8.41912],[148.2361,-8.4415],[148.23414,-8.45908],[148.22389,-8.49481],[148.22283,-8.5136],[148.22462,-8.53485],[148.2295,-8.55462],[148.23756,-8.56927],[148.25359,-8.58082],[148.28924,-8.59783],[148.299,-8.61093],[148.32211,-8.60345],[148.34181,-8.60914],[148.35817,-8.61932],[148.37875,-8.62656],[148.38657,-8.63193],[148.39275,-8.63958],[148.39527,-8.64853],[148.40073,-8.65521],[148.43678,-8.66619],[148.44532,-8.67474],[148.45655,-8.70029],[148.46681,-8.7151],[148.48113,-8.73065],[148.48683,-8.74725],[148.48455,-8.81634],[148.49635,-8.88299],[148.50196,-8.89202],[148.511,-8.89349],[148.51905,-8.89739],[148.52467,-8.90277],[148.5267,-8.90887],[148.52556,-8.9153],[148.51873,-8.92962],[148.52068,-8.93548],[148.52963,-8.9472],[148.5324,-8.9542],[148.54176,-8.99432],[148.55926,-9.03248],[148.58562,-9.06406],[148.6211,-9.08375],[148.70786,-9.09938],[148.74318,-9.09824],[148.75831,-9.10369],[148.76743,-9.10003],[148.80982,-9.09002],[148.82635,-9.08912],[148.83937,-9.08652],[148.85043,-9.08221],[148.87127,-9.07024],[148.8825,-9.06162],[148.89161,-9.05104],[148.89536,-9.03948],[148.90317,-9.04266],[148.9214,-9.0442],[148.94207,-9.04266],[148.95753,-9.03607],[148.97804,-9.05145],[149.00522,-9.04974],[149.0691,-9.03509],[149.07936,-9.02947],[149.08326,-9.01637],[149.08863,-9.01279],[149.10157,-9.00872],[149.11736,-8.99066],[149.12778,-8.98154],[149.14186,-8.97454],[149.15357,-9.0036],[149.24366,-8.99717],[149.26539,-9.01556],[149.27564,-9.01002],[149.28435,-9.00848],[149.29038,-9.0123],[149.29273,-9.02304],[149.29957,-9.02304],[149.30934,-9.01702],[149.31804,-9.02256],[149.32439,-9.03395],[149.32683,-9.04608],[149.32447,-9.05999],[149.31886,-9.07138],[149.30641,-9.09002],[149.32008,-9.0971],[149.32683,-9.09759],[149.3108,-9.10296],[149.29273,-9.10369],[149.30665,-9.11745],[149.32472,-9.12021],[149.33725,-9.12493],[149.33424,-9.14528],[149.3235,-9.16058],[149.30714,-9.17262],[149.28883,-9.17791],[149.27223,-9.17262],[149.26466,-9.18222],[149.24789,-9.21217],[149.24488,-9.22422],[149.24269,-9.24578],[149.23341,-9.27907],[149.23121,-9.29949],[149.22364,-9.31601],[149.19044,-9.34393],[149.18287,-9.3681],[149.18727,-9.39072],[149.20639,-9.42938],[149.2107,-9.45078],[149.22657,-9.48675],[149.26319,-9.50351],[149.33424,-9.5158],[149.36101,-9.52947],[149.38209,-9.54998],[149.4026,-9.54998],[149.41627,-9.56365],[149.45094,-9.57733],[149.44142,-9.59051],[149.4572,-9.59417],[149.54103,-9.59319],[149.56023,-9.5971],[149.61988,-9.62086],[149.63551,-9.6194],[149.65309,-9.60768],[149.66285,-9.60361],[149.67311,-9.60516],[149.68735,-9.61077],[149.69752,-9.60882],[149.72145,-9.59979],[149.73097,-9.59783],[149.75375,-9.60076],[149.79298,-9.61452],[149.84002,-9.62021],[149.88852,-9.63877],[149.91131,-9.64007],[149.97486,-9.63128],[150.00099,-9.63405],[150.01222,-9.64218],[150.02638,-9.67295],[150.03435,-9.67897],[150.042,-9.68027],[150.04884,-9.6845],[150.05356,-9.70013],[150.05592,-9.71502],[150.0547,-9.71795],[150.0477,-9.71706],[150.03248,-9.72064],[149.97836,-9.74831],[149.95875,-9.75547],[149.88852,-9.76914],[149.84986,-9.78102],[149.82643,-9.78314],[149.80665,-9.77532],[149.79363,-9.78729],[149.74659,-9.80096],[149.73097,-9.80934],[149.72096,-9.83066],[149.72535,-9.84783],[149.75196,-9.879],[149.82521,-9.93768],[149.8567,-9.97519],[149.8545,-10.01491],[149.87973,-10.01678],[149.89576,-10.02321],[149.92677,-10.05364],[149.93946,-10.06243],[149.95753,-10.07],[149.97731,-10.07545],[149.99537,-10.07757],[150.05299,-10.07464],[150.07423,-10.07757],[150.09376,-10.08359],[150.12867,-10.10459],[150.13592,-10.10605],[150.14975,-10.10491],[150.15886,-10.10215],[150.17726,-10.09319],[150.18751,-10.09124],[150.19679,-10.09515],[150.21469,-10.12168],[150.24627,-10.13128],[150.25367,-10.13568],[150.2693,-10.15643],[150.28777,-10.17197],[150.30104,-10.17929],[150.34107,-10.18678],[150.38217,-10.20159],[150.40414,-10.20615],[150.4236,-10.20045],[150.43002,-10.20241],[150.44166,-10.20306],[150.45281,-10.20159],[150.45777,-10.19703],[150.49928,-10.20672],[150.52426,-10.21649],[150.535,-10.21494],[150.55055,-10.20355],[150.55934,-10.20184],[150.60174,-10.20672],[150.58326,-10.22845],[150.58123,-10.23463],[150.58766,-10.24472],[150.61036,-10.2597],[150.61541,-10.27256],[150.62721,-10.27793],[150.65382,-10.27451],[150.71843,-10.25872],[150.78354,-10.25563],[150.79868,-10.25058],[150.82862,-10.22723],[150.84815,-10.22096],[150.87403,-10.22471],[150.87135,-10.23675],[150.85279,-10.24977],[150.81227,-10.2597],[150.68881,-10.32545],[150.65309,-10.33847],[150.61541,-10.3445],[150.59848,-10.34433],[150.59295,-10.34222],[150.58806,-10.33766],[150.56837,-10.33945],[150.5232,-10.32147],[150.50229,-10.31658],[150.46046,-10.3139],[150.44077,-10.30885],[150.42677,-10.30006],[150.39991,-10.30023],[150.36647,-10.32692],[150.34693,-10.36533],[150.3615,-10.39967],[150.36801,-10.39902],[150.36891,-10.39227],[150.38347,-10.40008],[150.42897,-10.40228],[150.44752,-10.4096],[150.45574,-10.41448],[150.46656,-10.41766],[150.49985,-10.42262],[150.52605,-10.44061],[150.64731,-10.47698],[150.67067,-10.49586],[150.6775,-10.53004],[150.68922,-10.54632],[150.69288,-10.55674],[150.68735,-10.56756],[150.67189,-10.57684],[150.55063,-10.62086],[150.53598,-10.61273],[150.50929,-10.61883],[150.49488,-10.6194],[150.48699,-10.62168],[150.47136,-10.6325],[150.45981,-10.64853],[150.44907,-10.65838],[150.4441,-10.65691],[150.43482,-10.6657],[150.42953,-10.67425],[150.42986,-10.68768],[150.4157,-10.6819],[150.3982,-10.68108],[150.3812,-10.68353],[150.36891,-10.68768],[150.35646,-10.66497],[150.3401,-10.65781],[150.31935,-10.66204],[150.27296,-10.68572],[150.27272,-10.68768],[150.25717,-10.68157],[150.25099,-10.67694],[150.25164,-10.67409],[150.24098,-10.67799],[150.23081,-10.68434],[150.21127,-10.70135],[150.20436,-10.69305],[150.18068,-10.67718],[150.17799,-10.67067],[150.18776,-10.65789],[150.19093,-10.64983],[150.18019,-10.64324],[150.15626,-10.64715],[150.13087,-10.65667],[150.11573,-10.66668],[150.09457,-10.63991],[150.08481,-10.63568],[150.07692,-10.64137],[150.06739,-10.63991],[150.05421,-10.62379],[150.04672,-10.61883],[150.02223,-10.61858],[150.01206,-10.61199],[150.03061,-10.60003],[150.02849,-10.5888],[150.01832,-10.57806],[150.0088,-10.56373],[150.00196,-10.57293],[149.9922,-10.59149],[149.98373,-10.59173],[149.97478,-10.58847],[149.95875,-10.57781],[149.96095,-10.5735],[149.96437,-10.55682],[149.95379,-10.56601],[149.95069,-10.57098],[149.9437,-10.57098],[149.93776,-10.56178],[149.92514,-10.55389],[149.89601,-10.54363],[149.90284,-10.55682],[149.89576,-10.55918],[149.89601,-10.56422],[149.87647,-10.55462],[149.8545,-10.55047],[149.86598,-10.53883],[149.8816,-10.53387],[149.89405,-10.52703],[149.89601,-10.50897],[149.87615,-10.5158],[149.88022,-10.50823],[149.88624,-10.50254],[149.89373,-10.49847],[149.90284,-10.49586],[149.90968,-10.50693],[149.92042,-10.50791],[149.94728,-10.50213],[149.99195,-10.51393],[150.0381,-10.49977],[150.04672,-10.49586],[150.05356,-10.46795],[150.05934,-10.46551],[150.08155,-10.46111],[150.06853,-10.45566],[150.02638,-10.45436],[150.01588,-10.44988],[149.99537,-10.43662],[149.97397,-10.43271],[149.96217,-10.4275],[149.95476,-10.42645],[149.95069,-10.42864],[149.94418,-10.43841],[149.94028,-10.44061],[149.93165,-10.47861],[149.92335,-10.48846],[149.91578,-10.48187],[149.91163,-10.47503],[149.90789,-10.44988],[149.89601,-10.44061],[149.88746,-10.41595],[149.88185,-10.40643],[149.87208,-10.39609],[149.84571,-10.37998],[149.79054,-10.36305],[149.76938,-10.34824],[149.74838,-10.33831],[149.71518,-10.33489],[149.64967,-10.33766],[149.61606,-10.3449],[149.59767,-10.34637],[149.5726,-10.3375],[149.54965,-10.35068],[149.53297,-10.3445],[149.52613,-10.35198],[149.53981,-10.35809],[149.53981,-10.36492],[149.5088,-10.36492],[149.50074,-10.36126],[149.49773,-10.34352],[149.49122,-10.33766],[149.48032,-10.33978],[149.47145,-10.34775],[149.46062,-10.35231],[149.44353,-10.3445],[149.45476,-10.3375],[149.45493,-10.33082],[149.44711,-10.32594],[149.42189,-10.32098],[149.41879,-10.31357],[149.41814,-10.30364],[149.41285,-10.29323],[149.36842,-10.27614],[149.35548,-10.28183],[149.32683,-10.31032],[149.31479,-10.30218],[149.29493,-10.29559],[149.25473,-10.28981],[149.24171,-10.28655],[149.16969,-10.24977],[149.15504,-10.24432],[149.12843,-10.2409],[149.10157,-10.23463],[149.07325,-10.23797],[149.06739,-10.23463],[149.04412,-10.24391],[149.00896,-10.25213],[148.97804,-10.27614],[148.95826,-10.27809],[148.93922,-10.27142],[148.87127,-10.23838],[148.85922,-10.23553],[148.84401,-10.23463],[148.79233,-10.24212],[148.77963,-10.24163],[148.76124,-10.23602],[148.74781,-10.23463],[148.7378,-10.23008],[148.74,-10.20819],[148.73097,-10.20045],[148.7378,-10.18678],[148.72413,-10.18678],[148.7295,-10.17523],[148.73756,-10.16912],[148.74822,-10.16668],[148.76173,-10.16627],[148.76743,-10.1583],[148.75831,-10.14349],[148.7448,-10.136],[148.73292,-10.15691],[148.72185,-10.15586],[148.71022,-10.15097],[148.70362,-10.14642],[148.69898,-10.13747],[148.6893,-10.10491],[148.68312,-10.10491],[148.67661,-10.14528],[148.66912,-10.16448],[148.65187,-10.17254],[148.63868,-10.18792],[148.63209,-10.18629],[148.6211,-10.1806],[148.5739,-10.1806],[148.55055,-10.174],[148.53785,-10.1723],[148.5324,-10.17653],[148.52711,-10.18499],[148.51482,-10.1902],[148.50017,-10.1928],[148.42164,-10.19378],[148.40203,-10.20045],[148.33709,-10.17547],[148.32692,-10.16286],[148.31813,-10.14227],[148.299,-10.12713],[148.28012,-10.12396],[148.27231,-10.13893],[148.25782,-10.12982],[148.24578,-10.11745],[148.23129,-10.10565],[148.21022,-10.09808],[148.18279,-10.09922],[148.17604,-10.09808],[148.16993,-10.09246],[148.16342,-10.07773],[148.15504,-10.07073],[148.14291,-10.10589],[148.10377,-10.12819],[148.056,-10.13543],[148.01832,-10.12477],[148.00343,-10.14837],[147.99236,-10.15895],[147.97739,-10.16627],[147.95899,-10.15496],[147.94777,-10.136],[147.9393,-10.11517],[147.92905,-10.09808],[147.91334,-10.0888],[147.89747,-10.09092],[147.87867,-10.09661],[147.85402,-10.09808],[147.85402,-10.09124],[147.87289,-10.08514],[147.88152,-10.06911],[147.87965,-10.05218],[147.86752,-10.04339],[147.85906,-10.04485],[147.85255,-10.05006],[147.8484,-10.05787],[147.84474,-10.07855],[147.83912,-10.07635],[147.82667,-10.06325],[147.78541,-10.05446],[147.76173,-10.05975],[147.72364,-10.09808],[147.71681,-10.09808],[147.69939,-10.01491],[147.67726,-10.00897],[147.66635,-10.00368],[147.65651,-9.99163],[147.62127,-9.98887],[147.60841,-9.97991],[147.57277,-9.94524],[147.55974,-9.91448],[147.5464,-9.90179],[147.53053,-9.89056],[147.51759,-9.879],[147.50953,-9.86492],[147.50538,-9.84905],[147.50392,-9.80633],[147.50017,-9.78582],[147.49098,-9.76767],[147.40113,-9.65195],[147.3742,-9.62509],[147.36443,-9.61191],[147.35613,-9.59539],[147.34498,-9.58025],[147.32635,-9.57049],[147.31959,-9.57733],[147.31886,-9.55486],[147.31007,-9.53883],[147.29591,-9.52695],[147.27801,-9.5158],[147.26197,-9.50872],[147.24968,-9.50807],[147.24627,-9.51653],[147.25758,-9.53631],[147.23439,-9.53777],[147.20314,-9.52825],[147.17262,-9.51328],[147.15105,-9.49847],[147.14519,-9.48691],[147.14015,-9.4533],[147.13396,-9.44012],[147.12224,-9.43125],[147.10987,-9.42816],[147.09596,-9.42946],[147.07936,-9.43328],[147.08448,-9.4415],[147.10035,-9.44671],[147.10662,-9.45379],[147.10906,-9.46494],[147.10768,-9.47454],[147.10418,-9.48073],[147.08839,-9.48138],[147.07,-9.4734],[147.05274,-9.46022],[147.03981,-9.42897],[147.01385,-9.39039],[147.00416,-9.37184],[146.99171,-9.32318],[146.98276,-9.30104],[146.96607,-9.27907],[146.94646,-9.27313],[146.90553,-9.282],[146.89487,-9.26824],[146.90699,-9.2658],[146.91586,-9.26035],[146.9192,-9.25213],[146.91489,-9.24147],[146.90553,-9.23512],[146.89633,-9.21087],[146.89487,-9.18125],[146.90854,-9.15895],[146.89763,-9.14772],[146.88819,-9.13161],[146.89584,-9.12835],[146.91489,-9.1242],[146.93784,-9.10858],[146.94215,-9.10752],[146.9485,-9.09735],[146.97682,-9.0761],[146.98365,-9.06341],[146.98308,-9.0534],[146.97999,-9.04258],[146.97535,-9.03346],[146.96949,-9.02923],[146.95655,-9.032],[146.95037,-9.04168],[146.94947,-9.05185],[146.95265,-9.05657],[146.95151,-9.06357],[146.92026,-9.09515],[146.90854,-9.10369],[146.87281,-9.10654],[146.84205,-9.09319],[146.81218,-9.07334],[146.77833,-9.05657],[146.76637,-9.05438],[146.74822,-9.05739],[146.73666,-9.05657],[146.71502,-9.04461],[146.64552,-9.02939],[146.6268,-9.02304],[146.60182,-9.00604],[146.58595,-8.98366],[146.5735,-8.96038],[146.55844,-8.94052],[146.56276,-8.92718],[146.56007,-8.91123],[146.55421,-8.89772],[146.54835,-8.89202],[146.55445,-8.88258],[146.55641,-8.86419],[146.56186,-8.85117],[146.57911,-8.85801],[146.59401,-8.84629],[146.6045,-8.83416],[146.60914,-8.82],[146.60646,-8.80202],[146.59246,-8.81585],[146.57586,-8.82195],[146.56593,-8.81813],[146.57211,-8.80202],[146.56276,-8.79274],[146.55323,-8.7658],[146.54119,-8.76336],[146.52076,-8.76523],[146.51661,-8.75709],[146.51694,-8.72698],[146.51246,-8.71494],[146.50709,-8.70525],[146.45948,-8.65211],[146.44703,-8.63453],[146.4419,-8.62119],[146.43531,-8.61061],[146.38722,-8.58294],[146.36305,-8.56097],[146.27719,-8.43524],[146.26498,-8.40472],[146.26385,-8.36452],[146.261,-8.35613],[146.25074,-8.34027],[146.25074,-8.30926],[146.24488,-8.29225],[146.23512,-8.27435],[146.22193,-8.26043],[146.18897,-8.24822],[146.15984,-8.21998],[146.15113,-8.21364],[146.12745,-8.21014],[146.11655,-8.20013],[146.09986,-8.16522],[146.1128,-8.15439],[146.10987,-8.13812],[146.09848,-8.12176],[146.08562,-8.11061],[146.09588,-8.10622],[146.10279,-8.10027],[146.10475,-8.09271],[146.09986,-8.08327],[146.07936,-8.0875],[146.04965,-8.07635],[145.99684,-8.04909],[145.93946,-8.03509],[145.90675,-8.03346],[145.88071,-8.04168],[145.86134,-8.02793],[145.79811,-8.00701],[145.7824,-7.98707],[145.77312,-7.9778],[145.77084,-7.96999],[145.77377,-7.96689],[145.78712,-7.9651],[145.79127,-7.95973],[145.79005,-7.95387],[145.78012,-7.94655],[145.77768,-7.94248],[145.77947,-7.93564],[145.79127,-7.91188],[145.78452,-7.91188],[145.77247,-7.92742],[145.75782,-7.92702],[145.74098,-7.92409],[145.7225,-7.93255],[145.73699,-7.95273],[145.71909,-7.96038],[145.65797,-7.95973],[145.64536,-7.95599],[145.62672,-7.93816],[145.61329,-7.93255],[145.59815,-7.93336],[145.58326,-7.93727],[145.56788,-7.9389],[145.55177,-7.93255],[145.55177,-7.93922],[145.53321,-7.93279],[145.46559,-7.94549],[145.4419,-7.94411],[145.42335,-7.93971],[145.40797,-7.93174],[145.35011,-7.87672],[145.32163,-7.86199],[145.2837,-7.85735],[145.25457,-7.86541],[145.24342,-7.86419],[145.23439,-7.85882],[145.21323,-7.83978],[145.20606,-7.82822],[145.1919,-7.81846],[145.18409,-7.8056],[145.17481,-7.81601],[145.16725,-7.83074],[145.16822,-7.8362],[145.14967,-7.83758],[145.12428,-7.83074],[145.10206,-7.81748],[145.09254,-7.79901],[145.0892,-7.78802],[145.08188,-7.77874],[145.07472,-7.77614],[145.07146,-7.78509],[145.07114,-7.80641],[145.06756,-7.8117],[145.05836,-7.8165],[144.99627,-7.8165],[144.98536,-7.80967],[144.95533,-7.77549],[144.94264,-7.79225],[144.93181,-7.79046],[144.91969,-7.78102],[144.90382,-7.77549],[144.88543,-7.78167],[144.87957,-7.78167],[144.87241,-7.76995],[144.86134,-7.76507],[144.85092,-7.75807],[144.84303,-7.75018],[144.84205,-7.74407],[144.85841,-7.7243],[144.86622,-7.70574],[144.86744,-7.60849],[144.86427,-7.58603],[144.85231,-7.56943],[144.84449,-7.58856],[144.84034,-7.63681],[144.83123,-7.65814],[144.83717,-7.67425],[144.82496,-7.68255],[144.80486,-7.68564],[144.78712,-7.68613],[144.77101,-7.68109],[144.75717,-7.6692],[144.73561,-7.64381],[144.69947,-7.61679],[144.68995,-7.59441],[144.67888,-7.58229],[144.65357,-7.56129],[144.64772,-7.58001],[144.65113,-7.59824],[144.65756,-7.61639],[144.66114,-7.63421],[144.65162,-7.6491],[144.6294,-7.65634],[144.60402,-7.65691],[144.58473,-7.65195],[144.57545,-7.64227],[144.56446,-7.62526],[144.55519,-7.60687],[144.55128,-7.59295],[144.54981,-7.57285],[144.54656,-7.56553],[144.5407,-7.55853],[144.53663,-7.54909],[144.53924,-7.52459],[144.53761,-7.51409],[144.52231,-7.49619],[144.51661,-7.50848],[144.5171,-7.57928],[144.50904,-7.61142],[144.50961,-7.62396],[144.51515,-7.63258],[144.53761,-7.65195],[144.53297,-7.66172],[144.52328,-7.66904],[144.51393,-7.67197],[144.50961,-7.66863],[144.5044,-7.65569],[144.47836,-7.63494],[144.46876,-7.62396],[144.46599,-7.61679],[144.46193,-7.59295],[144.45916,-7.58766],[144.44142,-7.57627],[144.43287,-7.55869],[144.42156,-7.52654],[144.41342,-7.51409],[144.40724,-7.51409],[144.41163,-7.53143],[144.41342,-7.56943],[144.41814,-7.58473],[144.43133,-7.61224],[144.43385,-7.62737],[144.4358,-7.65993],[144.44142,-7.68613],[144.46502,-7.72137],[144.46876,-7.73724],[144.47999,-7.74814],[144.50001,-7.7741],[144.50782,-7.79803],[144.48243,-7.80218],[144.47975,-7.79616],[144.45509,-7.76491],[144.44996,-7.75433],[144.43816,-7.74033],[144.42433,-7.72731],[144.41342,-7.72015],[144.40284,-7.74334],[144.38453,-7.75189],[144.3672,-7.74359],[144.35955,-7.71673],[144.35532,-7.68678],[144.34441,-7.65944],[144.31105,-7.61028],[144.31568,-7.63665],[144.32716,-7.66513],[144.33383,-7.68865],[144.32398,-7.70037],[144.30747,-7.69264],[144.28517,-7.64666],[144.26954,-7.63079],[144.26319,-7.64251],[144.25343,-7.65049],[144.24138,-7.65537],[144.22853,-7.65814],[144.22853,-7.66562],[144.2544,-7.66725],[144.26092,-7.68369],[144.25465,-7.70615],[144.2422,-7.72633],[144.25245,-7.73073],[144.26531,-7.74188],[144.27491,-7.75579],[144.27622,-7.768],[144.26629,-7.77557],[144.22853,-7.78916],[144.21485,-7.79599],[144.1963,-7.7776],[144.18653,-7.77166],[144.17384,-7.768],[144.16285,-7.76963],[144.15089,-7.77435],[144.13917,-7.77679],[144.12916,-7.77166],[144.11199,-7.7584],[143.92433,-7.69427],[143.85141,-7.65179],[143.82789,-7.63209],[143.81764,-7.61403],[143.81267,-7.59417],[143.77662,-7.52776],[143.76938,-7.51035],[143.7658,-7.50604],[143.74627,-7.49676],[143.71119,-7.49375],[143.69606,-7.48805],[143.66188,-7.46152],[143.65252,-7.45208],[143.64625,-7.43841],[143.63885,-7.45208],[143.6491,-7.46771],[143.68116,-7.50156],[143.69068,-7.50791],[143.70045,-7.51002],[143.7225,-7.5193],[143.74562,-7.5237],[143.74741,-7.52907],[143.74244,-7.54209],[143.75953,-7.58319],[143.84083,-7.72015],[143.84734,-7.74017],[143.85076,-7.76133],[143.85174,-7.78509],[143.85621,-7.80828],[143.8672,-7.82643],[143.89275,-7.85735],[143.94068,-7.93027],[143.9568,-7.97226],[143.94117,-7.99391],[143.9227,-7.98854],[143.90797,-7.9721],[143.8943,-7.95289],[143.87908,-7.93922],[143.86231,-7.93523],[143.80397,-7.93255],[143.81007,-7.93678],[143.81764,-7.94785],[143.82447,-7.95289],[143.83302,-7.95582],[143.85857,-7.95973],[143.87615,-7.96966],[143.91383,-8.00758],[143.89828,-8.02793],[143.8812,-8.03786],[143.86069,-8.04127],[143.76735,-8.04022],[143.74871,-8.03493],[143.71461,-8.00758],[143.67986,-7.99676],[143.65089,-7.98138],[143.62761,-7.98203],[143.56316,-7.99798],[143.50636,-7.99391],[143.48894,-7.98903],[143.47788,-7.97633],[143.46127,-7.93922],[143.44842,-7.91888],[143.43409,-7.90895],[143.41554,-7.90594],[143.38933,-7.90586],[143.37517,-7.89853],[143.36402,-7.89642],[143.3589,-7.90203],[143.3611,-7.9109],[143.36695,-7.91766],[143.37534,-7.92246],[143.38559,-7.92571],[143.42628,-7.92978],[143.43718,-7.93841],[143.44093,-7.96315],[143.44842,-7.98154],[143.46656,-7.99578],[143.54802,-8.03167],[143.55982,-8.04485],[143.56984,-8.08457],[143.62761,-8.18629],[143.63502,-8.21136],[143.62916,-8.2304],[143.61248,-8.23919],[143.59205,-8.24196],[143.3379,-8.24774],[143.32789,-8.25205],[143.30014,-8.26881],[143.21502,-8.27508],[142.98048,-8.33563],[142.95786,-8.33717],[142.93963,-8.33327],[142.84148,-8.28834],[142.71453,-8.268],[142.70037,-8.26141],[142.6836,-8.26922],[142.6338,-8.28037],[142.615,-8.28191],[142.59254,-8.28688],[142.5359,-8.3235],[142.51401,-8.33196],[142.49448,-8.33327],[142.45053,-8.32977],[142.42872,-8.32415],[142.41383,-8.31048],[142.40463,-8.29266],[142.38136,-8.19346],[142.36004,-8.16709],[142.31674,-8.15895],[142.26002,-8.17067],[142.22478,-8.17327],[142.21705,-8.17547],[142.20387,-8.18939],[142.19288,-8.19793],[142.17058,-8.20273],[142.15968,-8.2068],[142.14617,-8.21738],[142.14047,-8.22649],[142.14438,-8.23447],[142.15968,-8.2409],[142.18198,-8.21998],[142.19565,-8.21071],[142.21852,-8.20379],[142.23121,-8.19394],[142.24732,-8.20013],[142.25994,-8.19931],[142.30226,-8.18792],[142.3296,-8.18385],[142.35402,-8.18873],[142.36451,-8.21022],[142.36703,-8.23235],[142.39731,-8.32806],[142.41969,-8.3554],[142.45216,-8.37331],[142.49431,-8.37754],[142.5298,-8.36541],[142.59636,-8.32073],[142.63209,-8.30926],[142.71168,-8.32269],[142.72828,-8.31666],[142.7693,-8.32977],[142.80356,-8.3598],[142.81397,-8.36452],[142.8353,-8.37037],[142.89967,-8.41286],[142.93832,-8.42783],[143.06349,-8.45322],[143.10206,-8.46722],[143.1316,-8.48602],[143.26157,-8.59238],[143.31788,-8.65879],[143.34791,-8.70762],[143.38608,-8.75311],[143.39527,-8.76873],[143.39991,-8.78216],[143.39991,-8.91188],[143.40602,-8.94451],[143.40553,-8.96217],[143.39649,-8.97772],[143.37257,-8.99977],[143.36134,-9.00742],[143.34474,-9.01556],[143.31479,-9.02353],[143.25807,-9.0237],[143.22853,-9.02923],[143.23536,-9.03607],[143.22527,-9.03932],[143.20436,-9.0407],[143.18881,-9.04355],[143.17335,-9.0429],[143.16293,-9.06024],[143.15626,-9.06341],[143.14161,-9.0661],[143.05274,-9.09336],[143.0359,-9.10166],[143.0114,-9.12168],[142.98805,-9.13584],[142.96705,-9.14373],[142.9406,-9.17938],[142.92026,-9.19036],[142.87355,-9.20941],[142.83814,-9.2365],[142.73097,-9.27777],[142.71453,-9.28786],[142.70777,-9.29949],[142.6526,-9.33025],[142.61248,-9.33465],[142.57732,-9.32383],[142.54713,-9.30413],[142.4992,-9.26336],[142.4651,-9.24049],[142.42897,-9.22503],[142.39926,-9.2278],[142.37306,-9.21453],[142.35768,-9.20941],[142.33424,-9.20745],[142.3191,-9.20371],[142.27573,-9.17938],[142.2234,-9.16123],[142.2107,-9.15895],[142.19996,-9.16221],[142.18092,-9.1762],[142.16928,-9.17938],[142.13559,-9.1784],[141.99399,-9.18865],[141.97397,-9.1928],[141.91334,-9.21461],[141.89291,-9.21893],[141.86842,-9.22039],[141.84742,-9.21722],[141.80551,-9.2033],[141.78297,-9.19988],[141.69825,-9.2151],[141.67311,-9.21356],[141.66481,-9.22015],[141.65064,-9.22674],[141.63494,-9.23203],[141.62127,-9.23406],[141.60572,-9.22877],[141.59278,-9.21884],[141.57936,-9.21299],[141.56324,-9.22039],[141.55104,-9.21844],[141.53004,-9.21819],[141.51002,-9.21502],[141.49488,-9.19451],[141.45338,-9.16578],[141.42172,-9.15032],[141.38453,-9.1417],[141.34588,-9.14153],[141.31007,-9.15211],[141.23194,-9.21266],[141.20021,-9.2278],[141.1526,-9.23219],[141.115,-9.21844],[141.00782,-9.1242],[140.97698,-9.10613],[140.97716,-6.89663],[140.96218,-6.89798],[140.94331,-6.88805],[140.9397,-6.85633],[140.91603,-6.86273],[140.90833,-6.8493],[140.90673,-6.82821],[140.90161,-6.81219],[140.88244,-6.79824],[140.87417,-6.78946],[140.87086,-6.7784],[140.8827,-6.76062],[140.88451,-6.7539],[140.87872,-6.74222],[140.85784,-6.72362],[140.8504,-6.71297],[140.84921,-6.70285]]],[[[153.19174,-11.36175],[153.19288,-11.34954],[153.19597,-11.33847],[153.20558,-11.31707],[153.25782,-11.35345],[153.27752,-11.35866],[153.29623,-11.3532],[153.30494,-11.35328],[153.31218,-11.36981],[153.34327,-11.37916],[153.36695,-11.39495],[153.37745,-11.39967],[153.40089,-11.40447],[153.41114,-11.4083],[153.4393,-11.43108],[153.50099,-11.45485],[153.54786,-11.48463],[153.55909,-11.48903],[153.58041,-11.49017],[153.69565,-11.52125],[153.70582,-11.52654],[153.70851,-11.53729],[153.71599,-11.54713],[153.72584,-11.55438],[153.74773,-11.56064],[153.75392,-11.56854],[153.76157,-11.58587],[153.77882,-11.59344],[153.78093,-11.59889],[153.77809,-11.60898],[153.7728,-11.61199],[153.76677,-11.61012],[153.76157,-11.60508],[153.75327,-11.61045],[153.74724,-11.61207],[153.74106,-11.61045],[153.73308,-11.60508],[153.72242,-11.61354],[153.7103,-11.6181],[153.6976,-11.61793],[153.68531,-11.61248],[153.68133,-11.62469],[153.67579,-11.62575],[153.66114,-11.6194],[153.61695,-11.6194],[153.61158,-11.61842],[153.60825,-11.61256],[153.60279,-11.61248],[153.59742,-11.61541],[153.58627,-11.62615],[153.56446,-11.63633],[153.55535,-11.63568],[153.54884,-11.6194],[153.55763,-11.62037],[153.56609,-11.61883],[153.5713,-11.61403],[153.56984,-11.60508],[153.56414,-11.5993],[153.55689,-11.59987],[153.53842,-11.60508],[153.52955,-11.60215],[153.51735,-11.58587],[153.49024,-11.59075],[153.47983,-11.58587],[153.48731,-11.57098],[153.47804,-11.57],[153.4734,-11.56683],[153.47193,-11.56064],[153.47299,-11.55047],[153.46274,-11.55853],[153.44614,-11.57537],[153.43556,-11.57838],[153.39796,-11.55731],[153.38234,-11.5661],[153.37281,-11.55902],[153.36883,-11.54437],[153.36997,-11.52996],[153.38575,-11.51393],[153.39064,-11.50498],[153.38364,-11.49521],[153.37281,-11.4909],[153.36818,-11.49424],[153.36549,-11.50018],[153.36012,-11.50319],[153.35328,-11.50107],[153.34327,-11.48903],[153.32814,-11.49407],[153.31316,-11.50319],[153.2881,-11.52313],[153.28321,-11.50262],[153.32252,-11.48431],[153.32228,-11.46852],[153.31324,-11.46331],[153.29103,-11.46347],[153.28126,-11.46111],[153.27174,-11.4533],[153.26002,-11.43467],[153.2505,-11.42392],[153.24293,-11.42246],[153.23487,-11.42588],[153.22853,-11.42653],[153.22609,-11.41709],[153.23146,-11.39577],[153.22926,-11.38877],[153.20916,-11.38299],[153.20118,-11.37591],[153.19459,-11.36785],[153.19174,-11.36175]]],[[[154.0075,-11.38592],[154.01238,-11.3786],[154.01881,-11.37274],[154.03541,-11.36492],[154.03028,-11.36102],[154.02117,-11.34498],[154.0276,-11.34433],[154.03102,-11.3458],[154.03541,-11.35125],[154.05209,-11.36061],[154.0962,-11.36346],[154.11736,-11.37233],[154.12477,-11.36492],[154.13722,-11.3707],[154.14332,-11.36834],[154.14356,-11.36093],[154.13844,-11.35125],[154.13103,-11.35125],[154.13103,-11.35866],[154.12477,-11.35866],[154.11069,-11.35003],[154.10743,-11.34466],[154.11052,-11.33815],[154.10157,-11.33408],[154.09522,-11.3283],[154.09116,-11.32057],[154.09002,-11.31081],[154.10955,-11.31699],[154.13722,-11.31715],[154.17872,-11.31081],[154.1902,-11.31634],[154.1989,-11.31569],[154.21632,-11.31081],[154.22535,-11.31536],[154.22967,-11.32383],[154.23487,-11.3292],[154.24708,-11.32448],[154.26759,-11.33319],[154.2776,-11.33945],[154.28175,-11.34824],[154.28761,-11.37005],[154.2942,-11.38063],[154.30226,-11.38592],[154.28834,-11.4074],[154.27955,-11.41481],[154.26808,-11.42067],[154.25994,-11.40569],[154.24171,-11.39788],[154.21949,-11.39617],[154.19858,-11.39967],[154.16342,-11.41774],[154.14894,-11.41627],[154.1447,-11.39218],[154.13844,-11.39218],[154.13217,-11.41839],[154.11752,-11.42946],[154.0962,-11.42913],[154.06951,-11.42067],[154.05486,-11.42181],[154.04615,-11.41725],[154.04225,-11.40309],[154.03834,-11.39666],[154.02882,-11.39129],[154.0075,-11.38592]]],[[[153.10109,-11.19793],[153.1045,-11.18548],[153.11703,-11.18084],[153.12973,-11.18743],[153.14235,-11.19752],[153.19174,-11.20778],[153.23561,-11.23854],[153.25392,-11.24261],[153.24334,-11.26344],[153.2339,-11.27093],[153.22291,-11.26653],[153.22055,-11.27093],[153.21095,-11.27606],[153.19777,-11.27923],[153.18507,-11.27744],[153.19923,-11.26995],[153.19923,-11.26312],[153.1714,-11.24261],[153.16407,-11.24879],[153.15984,-11.247],[153.15089,-11.23577],[153.11622,-11.21527],[153.10109,-11.19793]]],[[[152.54078,-10.6325],[152.54078,-10.62566],[152.5477,-10.6264],[152.55079,-10.62444],[152.55445,-10.61883],[152.61948,-10.63787],[152.64324,-10.63649],[152.67335,-10.65537],[152.68482,-10.66033],[152.71534,-10.65154],[152.75001,-10.63372],[152.78289,-10.62225],[152.80828,-10.6325],[152.81625,-10.63299],[152.8506,-10.64593],[152.8628,-10.6535],[152.87184,-10.66546],[152.8711,-10.67441],[152.86313,-10.68157],[152.84986,-10.68768],[152.83904,-10.69069],[152.79469,-10.69451],[152.78321,-10.69687],[152.75367,-10.70819],[152.73121,-10.7068],[152.7033,-10.69899],[152.64381,-10.67409],[152.58229,-10.66033],[152.54078,-10.6325]]],[[[150.91236,-10.63779],[150.917,-10.61883],[150.92368,-10.60833],[150.93409,-10.59987],[150.94793,-10.59417],[150.96485,-10.59149],[151.02003,-10.59149],[151.02882,-10.59433],[151.03826,-10.60296],[151.04672,-10.60573],[151.05445,-10.60345],[151.0608,-10.59384],[151.06788,-10.59832],[151.07,-10.60622],[151.07472,-10.60573],[151.04705,-10.62737],[151.04493,-10.63681],[151.06788,-10.63991],[151.04672,-10.66033],[151.0464,-10.66969],[151.03199,-10.67108],[151.01515,-10.66253],[151.00709,-10.643],[150.9983,-10.63543],[150.95476,-10.63551],[150.93686,-10.6325],[150.93287,-10.64707],[150.93377,-10.67213],[150.92449,-10.68027],[150.91456,-10.65211],[150.91236,-10.63779]]],[[[150.76686,-10.60573],[150.77369,-10.59832],[150.78761,-10.60833],[150.80397,-10.61688],[150.82203,-10.62274],[150.84132,-10.62566],[150.8602,-10.62591],[150.86573,-10.62347],[150.86061,-10.61712],[150.79347,-10.55836],[150.7881,-10.54941],[150.79038,-10.53997],[150.79957,-10.5346],[150.80885,-10.53631],[150.81674,-10.54258],[150.82146,-10.55047],[150.84913,-10.54827],[150.86256,-10.54559],[150.8755,-10.53631],[150.88795,-10.54217],[150.89918,-10.55088],[150.90187,-10.56259],[150.88917,-10.57781],[150.89649,-10.58465],[150.89291,-10.59466],[150.89259,-10.60898],[150.88917,-10.61883],[150.89568,-10.62933],[150.89649,-10.63893],[150.89194,-10.64715],[150.88234,-10.6535],[150.86305,-10.6443],[150.83806,-10.63616],[150.813,-10.6334],[150.79347,-10.63991],[150.78289,-10.61981],[150.77556,-10.6111],[150.76686,-10.60573]]],[[[150.75318,-9.75205],[150.75416,-9.73545],[150.75758,-9.71559],[150.76393,-9.70281],[150.79298,-9.71754],[150.81276,-9.73235],[150.8283,-9.75066],[150.83448,-9.77223],[150.84409,-9.79453],[150.86695,-9.8082],[150.89422,-9.81854],[150.917,-9.8305],[150.98219,-9.90293],[150.99985,-9.91334],[151.02467,-9.92262],[151.04811,-9.93515],[151.0617,-9.95468],[151.03826,-9.9485],[151.03151,-9.9638],[151.03541,-9.98455],[151.04363,-9.99505],[151.05445,-10.00075],[151.08969,-10.02793],[151.1089,-10.03655],[151.12761,-10.04217],[151.13502,-10.04193],[151.14291,-10.03655],[151.14869,-10.02654],[151.15016,-10.01531],[151.14723,-10.00612],[151.1395,-10.00254],[151.13885,-9.99489],[151.15252,-9.97845],[151.17701,-9.95468],[151.20493,-9.93597],[151.24635,-9.9223],[151.28395,-9.92791],[151.30063,-9.96771],[151.2964,-9.9887],[151.2776,-10.03191],[151.2693,-10.07464],[151.23911,-10.13291],[151.23227,-10.13893],[151.23666,-10.14959],[151.22682,-10.18206],[151.23227,-10.20045],[151.21193,-10.1867],[151.17579,-10.15643],[151.15659,-10.14642],[151.05421,-10.11858],[151.00709,-10.11175],[150.97006,-10.11004],[150.95802,-10.10491],[150.95387,-10.08961],[150.95037,-10.06015],[150.95232,-10.03411],[150.96485,-10.02907],[150.98561,-10.00563],[150.99252,-9.99383],[150.97543,-9.98431],[150.95045,-9.95468],[150.94435,-9.95468],[150.94654,-9.98089],[150.92897,-9.99676],[150.90724,-9.99733],[150.89649,-9.97796],[150.89454,-9.97015],[150.88527,-9.96445],[150.88234,-9.96087],[150.8812,-9.95273],[150.88234,-9.90301],[150.87892,-9.89609],[150.85817,-9.86834],[150.85499,-9.8615],[150.85222,-9.84881],[150.84506,-9.83904],[150.83522,-9.83278],[150.81471,-9.82781],[150.80714,-9.80934],[150.7859,-9.80576],[150.7798,-9.80332],[150.76905,-9.79372],[150.76051,-9.7833],[150.75514,-9.77012],[150.75318,-9.75205]]],[[[150.4236,-9.38893],[150.43214,-9.36533],[150.45314,-9.34857],[150.47999,-9.33912],[150.50554,-9.33766],[150.56381,-9.36785],[150.59742,-9.37705],[150.61052,-9.38909],[150.62908,-9.41277],[150.6561,-9.43108],[150.67384,-9.43865],[150.68735,-9.4367],[150.70655,-9.42702],[150.72641,-9.42425],[150.74488,-9.41839],[150.75945,-9.39918],[150.79835,-9.42571],[150.82944,-9.45468],[150.83448,-9.4612],[150.8353,-9.46722],[150.83326,-9.48219],[150.83448,-9.48797],[150.84441,-9.49717],[150.85841,-9.50612],[150.8733,-9.51312],[150.88575,-9.5158],[150.88836,-9.52142],[150.88234,-9.56024],[150.8777,-9.56756],[150.86354,-9.57431],[150.86801,-9.58416],[150.87989,-9.59157],[150.89112,-9.59189],[150.89943,-9.59417],[150.90651,-9.61972],[150.92433,-9.63014],[150.93068,-9.63877],[150.93092,-9.65244],[150.92465,-9.66424],[150.91456,-9.6736],[150.90268,-9.67978],[150.89235,-9.66904],[150.87517,-9.6806],[150.84132,-9.71396],[150.84181,-9.69744],[150.85231,-9.6736],[150.85499,-9.66237],[150.84815,-9.65399],[150.83229,-9.6513],[150.80095,-9.65244],[150.8047,-9.66953],[150.785,-9.66766],[150.74236,-9.65244],[150.67945,-9.65936],[150.65699,-9.65927],[150.62257,-9.65],[150.58766,-9.6347],[150.54933,-9.62322],[150.50554,-9.62509],[150.46648,-9.63112],[150.4336,-9.63128],[150.42986,-9.62428],[150.44451,-9.60882],[150.4782,-9.58416],[150.50221,-9.57203],[150.51206,-9.56097],[150.51368,-9.54697],[150.51295,-9.52581],[150.50563,-9.51572],[150.45777,-9.48797],[150.42693,-9.41872],[150.4236,-9.38893]]],[[[150.10825,-9.36102],[150.1089,-9.3283],[150.1128,-9.29941],[150.12289,-9.27272],[150.14235,-9.24774],[150.16554,-9.22715],[150.18995,-9.21185],[150.21453,-9.20582],[150.23862,-9.21356],[150.29168,-9.24179],[150.31544,-9.25945],[150.33424,-9.28248],[150.35279,-9.32635],[150.35711,-9.35019],[150.36891,-9.37184],[150.37013,-9.37152],[150.37859,-9.38177],[150.38063,-9.3869],[150.36891,-9.39918],[150.36394,-9.41497],[150.34742,-9.45159],[150.33766,-9.46429],[150.33522,-9.47129],[150.34401,-9.47381],[150.3615,-9.4743],[150.36207,-9.48349],[150.36061,-9.49033],[150.35523,-9.50164],[150.33766,-9.51971],[150.31227,-9.51946],[150.28435,-9.50872],[150.25961,-9.49537],[150.25164,-9.50164],[150.25261,-9.4865],[150.25147,-9.47096],[150.24627,-9.45875],[150.2352,-9.45379],[150.21925,-9.45159],[150.18068,-9.44012],[150.17164,-9.43564],[150.15317,-9.40252],[150.11411,-9.36924],[150.10825,-9.36102]]],[[[152.38862,-8.99115],[152.40472,-8.9709],[152.4523,-8.94499],[152.47159,-8.94946],[152.51787,-8.99641],[152.59936,-8.98888],[152.64295,-8.99334],[152.66796,-9.00031],[152.70448,-9.00601],[152.73587,-9.00032],[152.77495,-9.00095],[152.79417,-9.0035],[152.80891,-9.01044],[152.81788,-9.02372],[152.83005,-9.02815],[152.848,-9.05913],[152.86594,-9.06988],[152.89862,-9.07935],[152.91783,-9.06986],[152.94154,-9.08376],[152.95119,-9.09451],[152.94861,-9.11981],[152.97301,-9.12802],[152.99547,-9.1413],[153.01206,-9.1491],[152.99613,-9.16092],[152.98911,-9.1723],[152.99425,-9.17865],[152.98592,-9.19258],[152.97565,-9.19574],[152.96537,-9.19004],[152.95765,-9.18181],[152.94544,-9.17485],[152.93904,-9.17991],[152.92945,-9.19195],[152.93203,-9.19955],[152.96995,-9.22931],[152.97574,-9.24578],[152.96742,-9.25655],[152.961,-9.25718],[152.95585,-9.24198],[152.94236,-9.22805],[152.92183,-9.22869],[152.89427,-9.25023],[152.85451,-9.25403],[152.83464,-9.25973],[152.82758,-9.2534],[152.81155,-9.25467],[152.80321,-9.24011],[152.78782,-9.22239],[152.77372,-9.21607],[152.75901,-9.20332],[152.74423,-9.18127],[152.73847,-9.19393],[152.72693,-9.20404],[152.72955,-9.21914],[152.75321,-9.22367],[152.75193,-9.24203],[152.7359,-9.2604],[152.72052,-9.23189],[152.67245,-9.21354],[152.65576,-9.20407],[152.64422,-9.18256],[152.65063,-9.168],[152.67243,-9.18509],[152.69555,-9.18632],[152.68995,-9.17156],[152.69532,-9.16237],[152.7024,-9.15781],[152.71437,-9.15447],[152.70451,-9.14457],[152.66476,-9.1237],[152.63591,-9.10029],[152.61347,-9.08446],[152.5981,-9.06864],[152.57306,-9.07812],[152.56408,-9.07242],[152.55188,-9.06102],[152.53583,-9.05088],[152.5063,-9.03882],[152.47162,-9.04513],[152.46454,-9.03689],[152.49977,-9.02304],[152.49977,-9.01556],[152.49473,-9.00018],[152.47288,-8.97608],[152.45167,-8.96527],[152.42595,-8.98234],[152.42466,-9.00009],[152.42724,-9.01847],[152.42787,-9.05775],[152.42722,-9.06979],[152.42142,-9.08372],[152.41179,-9.03365],[152.38862,-8.99115]]],[[[150.99903,-8.51816],[151.01686,-8.49383],[151.02215,-8.47177],[151.02752,-8.46185],[151.04363,-8.44329],[151.06105,-8.42962],[151.08253,-8.42246],[151.12924,-8.41912],[151.12989,-8.42376],[151.12241,-8.42596],[151.1211,-8.4743],[151.11695,-8.49472],[151.1089,-8.51474],[151.13901,-8.54762],[151.13836,-8.59059],[151.10572,-8.73065],[151.10336,-8.75709],[151.11256,-8.76865],[151.1268,-8.77662],[151.13836,-8.79534],[151.14454,-8.81618],[151.14291,-8.83066],[151.13152,-8.81846],[151.10206,-8.76865],[151.04542,-8.73284],[151.04363,-8.72698],[151.04811,-8.71884],[151.09669,-8.65358],[151.11915,-8.60174],[151.12241,-8.58294],[151.10206,-8.56243],[151.08953,-8.55381],[151.0809,-8.55023],[151.02312,-8.54534],[151.00587,-8.53753],[150.99903,-8.51816]]],[[[143.17888,-8.41912],[143.20737,-8.41416],[143.21909,-8.41513],[143.25603,-8.45696],[143.27101,-8.46893],[143.35939,-8.48854],[143.44337,-8.51849],[143.4651,-8.52158],[143.47486,-8.52532],[143.49203,-8.5525],[143.5879,-8.63144],[143.62916,-8.64471],[143.64438,-8.66131],[143.65268,-8.68336],[143.65252,-8.70648],[143.64235,-8.72617],[143.62892,-8.7304],[143.61703,-8.72186],[143.61207,-8.70338],[143.60581,-8.68922],[143.59059,-8.67938],[143.47381,-8.62469],[143.45118,-8.60752],[143.43979,-8.60223],[143.41228,-8.59564],[143.40073,-8.57342],[143.33814,-8.52174],[143.28191,-8.50628],[143.25522,-8.49481],[143.24448,-8.48545],[143.2212,-8.45322],[143.20948,-8.44362],[143.18849,-8.42986],[143.17888,-8.41912]]],[[[143.31666,-8.37225],[143.3379,-8.3576],[143.35133,-8.35719],[143.35939,-8.36175],[143.36541,-8.36761],[143.37322,-8.37127],[143.38527,-8.37127],[143.41684,-8.36452],[143.48439,-8.36354],[143.57374,-8.37371],[143.58481,-8.38128],[143.58562,-8.40643],[143.58863,-8.42083],[143.60475,-8.44703],[143.6115,-8.46217],[143.61061,-8.47503],[143.60109,-8.48358],[143.5818,-8.48675],[143.53012,-8.48553],[143.50978,-8.48113],[143.46193,-8.45819],[143.44516,-8.43906],[143.4236,-8.43304],[143.3794,-8.42596],[143.35808,-8.41473],[143.33033,-8.39414],[143.31666,-8.37225]]],[[[147.76515,-5.60296],[147.76515,-5.59482],[147.77133,-5.56894],[147.76735,-5.52125],[147.77133,-5.50693],[147.78191,-5.49529],[147.80714,-5.49082],[147.81984,-5.47894],[147.82228,-5.48406],[147.83351,-5.4931],[147.8366,-5.48944],[147.84718,-5.48642],[147.8589,-5.49676],[147.8812,-5.52256],[147.89487,-5.53411],[147.90943,-5.54119],[147.94956,-5.54778],[147.97511,-5.5582],[148.00074,-5.57236],[148.04916,-5.60613],[148.07154,-5.63161],[148.07748,-5.65781],[148.06764,-5.74684],[148.04567,-5.79583],[148.03891,-5.82203],[148.02459,-5.81463],[148.02459,-5.84197],[148.0145,-5.84002],[148.0062,-5.84197],[147.99855,-5.84759],[147.99106,-5.85621],[147.9861,-5.84344],[147.98325,-5.80983],[147.97739,-5.7942],[147.96901,-5.78623],[147.95704,-5.78045],[147.92905,-5.7737],[147.89576,-5.77069],[147.88111,-5.76377],[147.86752,-5.74635],[147.86069,-5.71844],[147.85475,-5.70973],[147.81707,-5.6775],[147.80519,-5.66351],[147.785,-5.6303],[147.76905,-5.61175],[147.76515,-5.60296]]],[[[154.69842,-5.45192],[154.70021,-5.43109],[154.73317,-5.42669],[154.77443,-5.44939],[154.8108,-5.48358],[154.82985,-5.5136],[154.84693,-5.51051],[154.86557,-5.52011],[154.88201,-5.53655],[154.89194,-5.55462],[154.89772,-5.5451],[154.90561,-5.54127],[154.91505,-5.54241],[154.92547,-5.53411],[154.93678,-5.53924],[154.95118,-5.54111],[155.01832,-5.54127],[155.02857,-5.5451],[155.02174,-5.55462],[155.02174,-5.56146],[155.0324,-5.56756],[155.03745,-5.56227],[155.04168,-5.55332],[155.04957,-5.54778],[155.06495,-5.54778],[155.06935,-5.55218],[155.06951,-5.56894],[155.06349,-5.57903],[155.06202,-5.58571],[155.06625,-5.5888],[155.08985,-5.59564],[155.09539,-5.60833],[155.10011,-5.63104],[155.12566,-5.66058],[155.14682,-5.70696],[155.16261,-5.7291],[155.16765,-5.73301],[155.1753,-5.73577],[155.17937,-5.73952],[155.19044,-5.75628],[155.19215,-5.76588],[155.18678,-5.80104],[155.19467,-5.81764],[155.20395,-5.85361],[155.21339,-5.86989],[155.22877,-5.86517],[155.24464,-5.87054],[155.26148,-5.87916],[155.27898,-5.88356],[155.3353,-5.94622],[155.34327,-5.95184],[155.36427,-5.95184],[155.37037,-5.95729],[155.38136,-5.97601],[155.39568,-5.99245],[155.40382,-6.00604],[155.4144,-6.05788],[155.41831,-6.06902],[155.45216,-6.13714],[155.50278,-6.18922],[155.50831,-6.19207],[155.52125,-6.18922],[155.53053,-6.18222],[155.53932,-6.17156],[155.55104,-6.17881],[155.55836,-6.19451],[155.56886,-6.21111],[155.59083,-6.21999],[155.61557,-6.21697],[155.62086,-6.20566],[155.62306,-6.19085],[155.63852,-6.1784],[155.63852,-6.18581],[155.63478,-6.19378],[155.63697,-6.1985],[155.64536,-6.20574],[155.64161,-6.21697],[155.66578,-6.24114],[155.67595,-6.26393],[155.68377,-6.26946],[155.69386,-6.27288],[155.70387,-6.27402],[155.71388,-6.27923],[155.7225,-6.29119],[155.73487,-6.31504],[155.74594,-6.33074],[155.75856,-6.34368],[155.77361,-6.35272],[155.79282,-6.35589],[155.81332,-6.36484],[155.82895,-6.386],[155.85027,-6.43174],[155.87224,-6.46152],[155.89649,-6.48805],[155.91676,-6.51751],[155.92604,-6.55511],[155.9192,-6.59612],[155.92164,-6.60809],[155.93133,-6.63055],[155.9393,-6.66302],[155.96388,-6.70192],[155.96754,-6.72715],[155.96095,-6.75018],[155.94752,-6.77321],[155.93019,-6.79363],[155.91236,-6.80901],[155.92286,-6.76344],[155.92449,-6.73821],[155.91578,-6.72715],[155.90748,-6.73699],[155.87818,-6.80153],[155.85353,-6.77353],[155.81642,-6.78216],[155.77947,-6.80755],[155.75522,-6.82952],[155.73032,-6.8624],[155.71778,-6.87282],[155.69703,-6.87664],[155.68588,-6.87461],[155.66765,-6.86517],[155.65561,-6.86305],[155.61069,-6.86305],[155.56804,-6.8541],[155.52361,-6.83913],[155.44679,-6.80153],[155.40455,-6.76678],[155.39503,-6.76133],[155.37867,-6.75677],[155.36085,-6.74586],[155.33009,-6.71966],[155.32081,-6.70827],[155.30836,-6.68646],[155.18727,-6.55446],[155.17311,-6.52793],[155.19125,-6.52801],[155.19907,-6.53004],[155.2072,-6.53476],[155.22486,-6.50075],[155.23487,-6.45436],[155.23805,-6.40537],[155.23463,-6.36338],[155.21485,-6.31707],[155.18165,-6.29168],[155.08204,-6.26214],[155.04591,-6.24228],[155.02361,-6.2234],[155.00123,-6.2151],[154.9909,-6.20875],[154.98178,-6.19948],[154.97869,-6.19297],[154.97438,-6.17156],[154.95965,-6.13063],[154.94239,-6.11142],[154.93238,-6.09726],[154.88502,-6.07594],[154.8567,-6.04323],[154.83131,-6.02663],[154.81764,-6.01531],[154.80649,-6.00213],[154.80201,-5.98944],[154.79331,-5.97536],[154.75587,-5.94785],[154.74732,-5.92791],[154.74106,-5.88698],[154.75164,-5.86785],[154.75343,-5.85621],[154.74879,-5.83473],[154.7378,-5.81805],[154.71372,-5.7942],[154.70525,-5.78183],[154.70021,-5.76686],[154.70265,-5.75791],[154.72022,-5.71648],[154.73219,-5.63144],[154.74,-5.61093],[154.74155,-5.59238],[154.72739,-5.57513],[154.72739,-5.56894],[154.73422,-5.56146],[154.75221,-5.5783],[154.76051,-5.58164],[154.76775,-5.57513],[154.77036,-5.55877],[154.7649,-5.54363],[154.75734,-5.52972],[154.75343,-5.51702],[154.74195,-5.49424],[154.69842,-5.45192]]],[[[148.07635,-5.42864],[148.07838,-5.39666],[148.10035,-5.37656],[148.12696,-5.39178],[148.14649,-5.41961],[148.14812,-5.44801],[148.12086,-5.46526],[148.09132,-5.45664],[148.07635,-5.42864]]],[[[147.56202,-5.30779],[147.57439,-5.29705],[147.59181,-5.28899],[147.60694,-5.28721],[147.62501,-5.28948],[147.63331,-5.29892],[147.63852,-5.31097],[147.6478,-5.32122],[147.63868,-5.33847],[147.62867,-5.34726],[147.60011,-5.36289],[147.5796,-5.33489],[147.56528,-5.33489],[147.56471,-5.32236],[147.56218,-5.31813],[147.56202,-5.30779]]],[[[147.0044,-5.30202],[147.01043,-5.2667],[147.01808,-5.24391],[147.02752,-5.23545],[147.06511,-5.22503],[147.08009,-5.21494],[147.09522,-5.20192],[147.11256,-5.19183],[147.13396,-5.19085],[147.16847,-5.22861],[147.18238,-5.23935],[147.20582,-5.25018],[147.20899,-5.25579],[147.21176,-5.29388],[147.21827,-5.31731],[147.22902,-5.33701],[147.24383,-5.34922],[147.24383,-5.3554],[147.22902,-5.37078],[147.22633,-5.39031],[147.22731,-5.4096],[147.22332,-5.42425],[147.21518,-5.43035],[147.20948,-5.42889],[147.20387,-5.42506],[147.19606,-5.42425],[147.18531,-5.42864],[147.16188,-5.44476],[147.12721,-5.44329],[147.09913,-5.42376],[147.05828,-5.37656],[147.02117,-5.3493],[147.01043,-5.33489],[147.00514,-5.31943],[147.0044,-5.30202]]],[[[154.53565,-5.13746],[154.54152,-5.10328],[154.56479,-5.06634],[154.59571,-5.03395],[154.62436,-5.01336],[154.65707,-5.01971],[154.67905,-5.04656],[154.69077,-5.08066],[154.69337,-5.10898],[154.68718,-5.13974],[154.68702,-5.15488],[154.69337,-5.17051],[154.70281,-5.17978],[154.7129,-5.18564],[154.72185,-5.19411],[154.72739,-5.21136],[154.72609,-5.24212],[154.70021,-5.33489],[154.69777,-5.40008],[154.68873,-5.42734],[154.66603,-5.43857],[154.67221,-5.41741],[154.65699,-5.42254],[154.6443,-5.44883],[154.63185,-5.45908],[154.61411,-5.38974],[154.5739,-5.2907],[154.56984,-5.26328],[154.56218,-5.23968],[154.56218,-5.22527],[154.57325,-5.21884],[154.58009,-5.21136],[154.58318,-5.19451],[154.58269,-5.14031],[154.57765,-5.11956],[154.56324,-5.11517],[154.53565,-5.13746]]],[[[149.12062,-4.89723],[149.12192,-4.88307],[149.12965,-4.87737],[149.1692,-4.86248],[149.18043,-4.87916],[149.17758,-4.89414],[149.1561,-4.92401],[149.12957,-4.90879],[149.12062,-4.89723]]],[[[146.20289,-4.82464],[146.20533,-4.80918],[146.21266,-4.79559],[146.22527,-4.78729],[146.24334,-4.78737],[146.25815,-4.80926],[146.26344,-4.82098],[146.26385,-4.83522],[146.25074,-4.82781],[146.24952,-4.83392],[146.24334,-4.83522],[146.24732,-4.85231],[146.23227,-4.85328],[146.21266,-4.84254],[146.20289,-4.82464]]],[[[149.4546,-4.69248],[149.46567,-4.67051],[149.49342,-4.65203],[149.5193,-4.64349],[149.53338,-4.64951],[149.54908,-4.65976],[149.56178,-4.67278],[149.56707,-4.68759],[149.56593,-4.70428],[149.56381,-4.71282],[149.56023,-4.71795],[149.55152,-4.7199],[149.54786,-4.71494],[149.54322,-4.7011],[149.53565,-4.69053],[149.5311,-4.67889],[149.52491,-4.66888],[149.51246,-4.66334],[149.49757,-4.66627],[149.49244,-4.67645],[149.49732,-4.68694],[149.51246,-4.69118],[149.5062,-4.69948],[149.49822,-4.7042],[149.47828,-4.71168],[149.4546,-4.69248]]],[[[145.87574,-4.68678],[145.87631,-4.66937],[145.88071,-4.64959],[145.89576,-4.60809],[145.90651,-4.59051],[145.9559,-4.53899],[145.97535,-4.52898],[145.99684,-4.53428],[146.011,-4.54599],[146.04811,-4.58514],[146.0534,-4.60019],[146.05568,-4.62518],[146.05519,-4.65993],[146.0503,-4.66774],[146.04689,-4.67897],[146.04469,-4.7011],[146.03972,-4.71234],[146.02857,-4.72145],[145.99171,-4.74432],[145.96485,-4.75481],[145.93922,-4.76092],[145.92481,-4.75481],[145.89226,-4.72503],[145.88697,-4.71795],[145.87916,-4.70273],[145.87574,-4.68678]]],[[[148.32472,-5.64642],[148.34205,-5.5333],[148.35971,-5.49782],[148.38673,-5.46852],[148.42254,-5.45159],[148.42742,-5.45062],[148.42994,-5.44476],[148.45769,-5.4568],[148.48113,-5.47576],[148.48902,-5.48016],[148.50636,-5.48382],[148.51531,-5.48968],[148.52036,-5.49773],[148.5254,-5.51605],[148.52955,-5.52386],[148.55641,-5.53997],[148.58595,-5.53428],[148.61459,-5.51491],[148.63885,-5.48968],[148.65187,-5.48089],[148.66538,-5.48203],[148.69614,-5.4931],[148.73121,-5.49033],[148.74399,-5.4931],[148.77524,-5.52028],[148.79233,-5.52728],[148.83277,-5.53387],[148.84767,-5.54095],[148.84938,-5.52825],[148.85548,-5.52215],[148.87501,-5.5136],[148.89064,-5.50115],[148.91245,-5.49928],[148.92604,-5.49554],[148.97804,-5.46526],[149.05535,-5.49871],[149.06739,-5.51035],[149.08481,-5.51189],[149.15968,-5.54599],[149.17302,-5.55462],[149.18776,-5.55592],[149.19996,-5.5652],[149.21209,-5.58327],[149.2107,-5.58261],[149.22438,-5.5993],[149.35035,-5.58522],[149.37526,-5.57513],[149.39047,-5.58734],[149.40317,-5.5831],[149.41554,-5.57122],[149.43043,-5.56146],[149.43702,-5.57171],[149.44801,-5.58115],[149.45899,-5.58245],[149.46461,-5.56894],[149.4922,-5.5866],[149.49879,-5.5888],[149.5088,-5.58034],[149.51783,-5.55348],[149.52955,-5.54778],[149.54786,-5.54363],[149.61492,-5.5136],[149.61769,-5.51922],[149.62916,-5.52728],[149.63478,-5.51922],[149.64308,-5.51483],[149.65284,-5.51491],[149.66326,-5.52044],[149.67262,-5.51141],[149.67644,-5.50091],[149.6753,-5.48968],[149.6701,-5.47894],[149.67498,-5.47861],[149.67693,-5.48642],[149.6858,-5.48821],[149.69166,-5.50303],[149.69288,-5.52223],[149.68312,-5.55218],[149.69402,-5.56194],[149.70932,-5.56748],[149.71843,-5.56894],[149.73194,-5.5639],[149.75213,-5.55047],[149.76938,-5.54778],[149.77801,-5.54412],[149.78679,-5.53476],[149.79282,-5.52142],[149.79298,-5.50693],[149.79981,-5.50693],[149.83351,-5.52654],[149.87281,-5.5276],[149.91147,-5.51507],[149.9437,-5.4931],[149.95411,-5.48064],[149.98023,-5.43808],[149.98536,-5.42083],[149.98194,-5.40879],[149.95069,-5.39707],[149.94215,-5.3873],[149.92644,-5.36126],[149.91652,-5.34922],[149.92335,-5.33929],[149.93686,-5.30755],[149.9616,-5.28379],[149.97641,-5.27223],[149.99594,-5.26181],[150.01442,-5.24749],[150.02638,-5.22503],[150.02719,-5.21404],[150.02564,-5.20379],[150.01954,-5.18475],[150.00587,-5.17734],[150.00571,-5.1701],[150.01075,-5.15911],[150.01433,-5.14153],[150.0241,-5.12347],[150.02638,-5.1124],[150.0241,-5.10662],[150.01433,-5.09808],[150.01206,-5.09246],[150.01319,-5.08554],[150.01824,-5.08026],[150.03492,-5.03436],[150.06902,-5.01214],[150.11256,-5.00774],[150.15659,-5.0202],[150.17888,-5.03118],[150.18995,-5.03867],[150.1976,-5.04754],[150.2024,-5.06211],[150.19947,-5.07057],[150.19386,-5.07692],[150.18198,-5.10247],[150.1609,-5.11248],[150.11573,-5.12322],[150.09767,-5.13616],[150.07537,-5.15911],[150.06186,-5.18109],[150.07887,-5.20143],[150.08318,-5.22527],[150.08416,-5.25091],[150.08155,-5.2667],[150.07447,-5.27264],[150.05519,-5.27646],[150.04672,-5.28037],[150.03443,-5.29062],[150.03207,-5.29518],[150.05014,-5.31129],[150.0547,-5.32049],[150.05812,-5.34287],[150.08375,-5.3834],[150.11248,-5.44215],[150.11573,-5.45534],[150.11695,-5.47389],[150.12127,-5.49538],[150.1294,-5.5167],[150.14235,-5.53411],[150.16131,-5.54664],[150.18214,-5.5525],[150.25115,-5.55779],[150.27133,-5.56365],[150.28981,-5.56658],[150.30689,-5.56146],[150.33253,-5.5202],[150.34449,-5.5136],[150.35865,-5.50823],[150.38917,-5.48431],[150.39943,-5.47894],[150.41188,-5.46315],[150.41676,-5.45908],[150.42335,-5.45664],[150.47413,-5.44793],[150.49342,-5.44744],[150.51189,-5.45094],[150.57154,-5.47405],[150.59254,-5.48699],[150.60174,-5.50311],[150.60597,-5.52207],[150.61744,-5.54339],[150.63396,-5.55674],[150.65333,-5.5512],[150.66912,-5.54274],[150.70338,-5.53997],[150.71901,-5.53411],[150.74643,-5.51214],[150.75856,-5.49725],[150.76686,-5.47894],[150.761,-5.46624],[150.76393,-5.45648],[150.77166,-5.45289],[150.7798,-5.45908],[150.80958,-5.44329],[150.83717,-5.45289],[150.85971,-5.4743],[150.8755,-5.4931],[150.90593,-5.49],[150.917,-5.48642],[150.92433,-5.4804],[150.9406,-5.45908],[150.96095,-5.45379],[150.98162,-5.44085],[150.99985,-5.42498],[151.01254,-5.41058],[151.02223,-5.39031],[151.02394,-5.36932],[151.02003,-5.32488],[151.02198,-5.30389],[151.03338,-5.25888],[151.05942,-5.20029],[151.08286,-5.16383],[151.10906,-5.13274],[151.13608,-5.10898],[151.16407,-5.09588],[151.18247,-5.07171],[151.1976,-5.06162],[151.2256,-5.0202],[151.23911,-5.00652],[151.25278,-5.00652],[151.25278,-4.99285],[151.28834,-4.98138],[151.31821,-4.96022],[151.33229,-4.95428],[151.34555,-4.95192],[151.35792,-4.94655],[151.36313,-4.93353],[151.36891,-4.9035],[151.37574,-4.9035],[151.38803,-4.91448],[151.45143,-4.93141],[151.4734,-4.9402],[151.49244,-4.94256],[151.51157,-4.93564],[151.53403,-4.9166],[151.57439,-4.93768],[151.61248,-4.96559],[151.63209,-4.96103],[151.64772,-4.94899],[151.66041,-4.93328],[151.67897,-4.90016],[151.68572,-4.88226],[151.69011,-4.86207],[151.69166,-4.83864],[151.69695,-4.8305],[151.69793,-4.82464],[151.69565,-4.81878],[151.68637,-4.81374],[151.68426,-4.81097],[151.68141,-4.7999],[151.66822,-4.7776],[151.66375,-4.76629],[151.66188,-4.72698],[151.667,-4.64625],[151.65748,-4.60809],[151.63673,-4.57968],[151.62696,-4.56129],[151.62273,-4.53729],[151.62289,-4.49391],[151.61915,-4.4743],[151.60914,-4.45176],[151.59604,-4.43564],[151.56528,-4.41139],[151.55388,-4.39642],[151.54835,-4.37859],[151.54762,-4.35858],[151.54412,-4.34661],[151.52662,-4.33074],[151.51979,-4.32073],[151.51856,-4.31064],[151.52662,-4.29022],[151.52516,-4.28021],[151.51344,-4.25237],[151.50734,-4.22918],[151.50945,-4.21307],[151.52052,-4.19769],[151.54029,-4.17669],[151.55543,-4.18239],[151.61061,-4.19256],[151.65016,-4.19101],[151.66359,-4.19354],[151.69166,-4.20468],[151.71713,-4.19891],[151.72584,-4.20135],[151.72576,-4.21836],[151.74269,-4.2077],[151.76271,-4.20615],[151.80453,-4.21087],[151.81715,-4.21396],[151.85288,-4.23064],[151.86305,-4.2387],[151.86891,-4.25799],[151.8733,-4.28314],[151.88209,-4.30511],[151.90089,-4.31455],[151.92311,-4.31829],[151.96469,-4.33123],[151.98585,-4.32822],[151.99855,-4.31878],[152.03028,-4.27663],[152.03614,-4.25693],[152.02394,-4.23984],[152.00717,-4.22471],[151.99952,-4.21087],[152.00864,-4.19166],[152.02573,-4.19394],[152.04591,-4.20436],[152.0643,-4.21087],[152.08302,-4.20794],[152.09205,-4.20485],[152.10076,-4.19842],[152.12623,-4.20436],[152.13673,-4.20468],[152.14943,-4.18963],[152.15406,-4.16766],[152.16212,-4.14853],[152.18507,-4.14251],[152.20045,-4.15984],[152.21852,-4.17392],[152.23341,-4.19036],[152.24578,-4.23512],[152.2435,-4.2431],[152.22926,-4.24619],[152.20558,-4.24196],[152.19874,-4.2387],[152.19353,-4.21917],[152.18849,-4.21014],[152.17758,-4.21087],[152.17205,-4.22031],[152.17262,-4.2348],[152.17758,-4.25921],[152.17791,-4.29681],[152.18572,-4.30853],[152.20558,-4.31455],[152.21754,-4.30771],[152.22674,-4.30446],[152.23976,-4.30706],[152.26319,-4.33131],[152.27687,-4.33506],[152.33855,-4.34189],[152.35646,-4.34189],[152.3982,-4.3292],[152.41236,-4.32936],[152.41798,-4.34531],[152.41456,-4.36045],[152.36524,-4.4721],[152.36085,-4.50652],[152.36939,-4.5403],[152.39894,-4.60247],[152.40992,-4.64137],[152.41163,-4.68377],[152.39356,-4.74831],[152.3864,-4.79119],[152.32228,-4.89121],[152.31178,-4.89723],[152.30787,-4.90211],[152.29184,-4.93548],[152.26694,-4.95192],[152.24627,-4.97519],[152.23243,-4.98309],[152.18873,-4.98886],[152.15772,-4.99928],[152.13673,-4.99912],[152.03883,-4.97861],[152.0276,-4.98773],[152.01417,-4.98309],[151.99269,-4.97178],[151.97438,-4.98414],[151.96892,-5.00498],[151.97169,-5.12322],[151.97755,-5.14861],[151.98797,-5.16399],[152.03834,-5.20485],[152.04469,-5.21168],[152.04721,-5.22194],[152.05201,-5.22894],[152.08155,-5.23935],[152.12306,-5.29078],[152.12778,-5.3082],[152.14747,-5.3458],[152.1504,-5.36972],[152.1198,-5.42425],[152.11451,-5.42702],[152.1089,-5.43336],[152.09889,-5.45574],[152.06772,-5.45908],[152.02076,-5.48382],[152.01319,-5.48968],[151.97169,-5.53411],[151.96355,-5.53655],[151.93116,-5.54095],[151.89943,-5.55316],[151.88689,-5.55462],[151.87078,-5.56219],[151.85426,-5.57838],[151.83424,-5.59295],[151.80779,-5.59564],[151.78598,-5.58489],[151.75717,-5.54876],[151.73943,-5.53411],[151.72047,-5.5289],[151.69557,-5.52703],[151.67115,-5.52956],[151.65382,-5.53753],[151.63006,-5.57049],[151.61931,-5.57513],[151.60662,-5.57195],[151.60377,-5.56422],[151.60336,-5.55429],[151.59889,-5.54437],[151.58082,-5.53533],[151.51344,-5.53411],[151.47902,-5.52988],[151.46412,-5.53428],[151.45143,-5.54778],[151.44532,-5.56943],[151.45094,-5.58652],[151.46022,-5.60036],[151.4651,-5.61297],[151.47006,-5.61647],[151.49399,-5.61736],[151.50261,-5.62021],[151.53028,-5.64715],[151.53256,-5.66473],[151.51539,-5.68157],[151.48911,-5.69061],[151.4651,-5.68499],[151.44972,-5.69378],[151.43141,-5.70745],[151.41627,-5.72259],[151.40992,-5.73593],[151.40821,-5.75604],[151.40333,-5.77516],[151.39584,-5.79176],[151.38648,-5.80446],[151.35548,-5.83416],[151.34213,-5.84197],[151.3108,-5.85467],[151.29607,-5.85801],[151.28688,-5.85621],[151.2732,-5.87363],[151.23561,-5.90057],[151.21876,-5.91774],[151.21339,-5.92816],[151.20851,-5.9428],[151.18279,-5.96429],[151.17579,-5.96364],[151.17156,-5.95184],[151.11541,-5.9721],[151.08693,-5.98577],[151.07472,-6.00335],[151.06105,-6.02939],[151.02996,-6.03232],[150.97234,-6.02077],[150.90056,-6.03688],[150.88917,-6.04437],[150.88038,-6.05389],[150.86069,-6.04363],[150.82765,-6.01393],[150.82146,-6.01393],[150.80698,-6.04827],[150.81642,-6.07122],[150.81218,-6.08375],[150.80494,-6.09564],[150.79607,-6.12029],[150.78484,-6.12721],[150.76686,-6.13063],[150.73219,-6.14422],[150.69597,-6.15016],[150.68735,-6.15423],[150.67644,-6.16326],[150.67115,-6.16277],[150.66041,-6.14739],[150.64576,-6.14707],[150.62501,-6.15765],[150.60564,-6.17278],[150.5949,-6.18581],[150.58961,-6.1832],[150.58806,-6.1784],[150.55226,-6.21356],[150.53061,-6.2278],[150.50929,-6.23366],[150.50074,-6.23919],[150.47625,-6.26531],[150.4651,-6.27402],[150.4214,-6.28606],[150.39536,-6.28875],[150.37859,-6.28428],[150.3672,-6.27907],[150.3567,-6.28338],[150.34702,-6.2907],[150.33766,-6.29453],[150.33448,-6.29225],[150.32985,-6.28297],[150.32398,-6.28086],[150.31324,-6.28631],[150.27296,-6.29502],[150.24676,-6.29697],[150.22869,-6.29111],[150.21949,-6.27549],[150.21323,-6.26995],[150.19166,-6.26556],[150.18556,-6.261],[150.17791,-6.25799],[150.16342,-6.2597],[150.14649,-6.27117],[150.12526,-6.28965],[150.10336,-6.30267],[150.08473,-6.29795],[150.0822,-6.29339],[150.08155,-6.27744],[150.07944,-6.27174],[150.05405,-6.25774],[150.04737,-6.26279],[150.03989,-6.28086],[150.02638,-6.28769],[150.03826,-6.29795],[150.03712,-6.30771],[150.02703,-6.31569],[150.01206,-6.32122],[150.01539,-6.30657],[150.01108,-6.29119],[150.00164,-6.27898],[149.98878,-6.27402],[149.97511,-6.27646],[149.95753,-6.28338],[149.9393,-6.29437],[149.92335,-6.3082],[149.91139,-6.29485],[149.90113,-6.29192],[149.88234,-6.29453],[149.85515,-6.29274],[149.84889,-6.29453],[149.82301,-6.28997],[149.72779,-6.28769],[149.72096,-6.2907],[149.70232,-6.30446],[149.6906,-6.3082],[149.66652,-6.30332],[149.65089,-6.30242],[149.63543,-6.3082],[149.6294,-6.29925],[149.59116,-6.27093],[149.58058,-6.25986],[149.56023,-6.22617],[149.54567,-6.19598],[149.48813,-6.12005],[149.46404,-6.10263],[149.36842,-6.07594],[149.33766,-6.05779],[149.32057,-6.05486],[149.30421,-6.05869],[149.27906,-6.07781],[149.23634,-6.09368],[149.22071,-6.09588],[149.18922,-6.09482],[149.17726,-6.09092],[149.1692,-6.08221],[149.16293,-6.08221],[149.16521,-6.09661],[149.16049,-6.11541],[149.1517,-6.13323],[149.14186,-6.14422],[149.12794,-6.14918],[149.0879,-6.15049],[149.06528,-6.16188],[149.05291,-6.16172],[149.05307,-6.14422],[149.0617,-6.13958],[149.07374,-6.14129],[149.08058,-6.13934],[149.07358,-6.12379],[149.08009,-6.11004],[149.07325,-6.09092],[149.05649,-6.07448],[149.03321,-6.06854],[149.04298,-6.05194],[149.05453,-6.03826],[149.06039,-6.02435],[149.05307,-6.00652],[149.04518,-6.02606],[149.03647,-6.02801],[149.02605,-6.02435],[149.01206,-6.0276],[148.93605,-5.99676],[148.89405,-5.98561],[148.86818,-5.99285],[148.85385,-5.97975],[148.86508,-5.96282],[148.87257,-5.95648],[148.88185,-5.95184],[148.87526,-5.94264],[148.86248,-5.94183],[148.85385,-5.93816],[148.84995,-5.93182],[148.84962,-5.92506],[148.84718,-5.91985],[148.83717,-5.91774],[148.80445,-5.91513],[148.79265,-5.91863],[148.77931,-5.93133],[148.77198,-5.92449],[148.77898,-5.90976],[148.77817,-5.89691],[148.77198,-5.87331],[148.76442,-5.86273],[148.74806,-5.86191],[148.7317,-5.86321],[148.72413,-5.85947],[148.71803,-5.84759],[148.70362,-5.84588],[148.67563,-5.84881],[148.65919,-5.84051],[148.63575,-5.81707],[148.6211,-5.80788],[148.59742,-5.8283],[148.58334,-5.83799],[148.57016,-5.84197],[148.55152,-5.83701],[148.52125,-5.81162],[148.50514,-5.80104],[148.48414,-5.79705],[148.43718,-5.79371],[148.40984,-5.77996],[148.39723,-5.7789],[148.38624,-5.77508],[148.3816,-5.76344],[148.34669,-5.72601],[148.32895,-5.68377],[148.32472,-5.64642]]],[[[145.02369,-4.07049],[145.02711,-4.0582],[145.03492,-4.05576],[145.04233,-4.0582],[145.04469,-4.06064],[145.06186,-4.04656],[145.06935,-4.04323],[145.09645,-4.05478],[145.10613,-4.06658],[145.1089,-4.08213],[145.10613,-4.10101],[145.10011,-4.11631],[145.09051,-4.12469],[145.07594,-4.12819],[145.0547,-4.12884],[145.03834,-4.12282],[145.02898,-4.10801],[145.02459,-4.0888],[145.02369,-4.07049]]],[[[153.19174,-3.47096],[153.22193,-3.44817],[153.23341,-3.44427],[153.25123,-3.46722],[153.25896,-3.48235],[153.2601,-3.49896],[153.25221,-3.49481],[153.25026,-3.49505],[153.24977,-3.49725],[153.24708,-3.49896],[153.23414,-3.48846],[153.20436,-3.47812],[153.19174,-3.47096]]],[[[153.26759,-3.40325],[153.27247,-3.39178],[153.28077,-3.3825],[153.30161,-3.36858],[153.32789,-3.36858],[153.34278,-3.37868],[153.34783,-3.39568],[153.34327,-3.41627],[153.3309,-3.39886],[153.31153,-3.39715],[153.28924,-3.40195],[153.26759,-3.40325]]],[[[154.55318,-3.20632],[154.59576,-3.2115],[154.62776,-3.22689],[154.64197,-3.26233],[154.66566,-3.30959],[154.71657,-3.39344],[154.73786,-3.44185],[154.73178,-3.46081],[154.70393,-3.40298],[154.68307,-3.34974],[154.64595,-3.29654],[154.61348,-3.24101],[154.55318,-3.20632]]],[[[152.52718,-3.0977],[152.53156,-3.07527],[152.55203,-3.05715],[152.57466,-3.0401],[152.6124,-3.0359],[152.65064,-3.04648],[152.64877,-3.10166],[152.65064,-3.11468],[152.65528,-3.1207],[152.66725,-3.12274],[152.67115,-3.12835],[152.67172,-3.13836],[152.66432,-3.16253],[152.65066,-3.19535],[152.65349,-3.2151],[152.64381,-3.22454],[152.6338,-3.2199],[152.60271,-3.19476],[152.54424,-3.13087],[152.5357,-3.11802],[152.52718,-3.0977]]],[[[150.76979,-2.97959],[150.77817,-2.96852],[150.80095,-2.95029],[150.81642,-2.95355],[150.8401,-2.93817],[150.88234,-2.90301],[150.94239,-2.92327],[150.96485,-2.93662],[150.98317,-2.95273],[150.9922,-2.9577],[151.00343,-2.95973],[151.01287,-2.95859],[151.02036,-2.96014],[151.02622,-2.97064],[151.00904,-2.97519],[150.9922,-2.98431],[150.98601,-2.96917],[150.97584,-2.96592],[150.95045,-2.97064],[150.90651,-2.97064],[150.85694,-2.95957],[150.83497,-2.96014],[150.82146,-2.97763],[150.80616,-2.97186],[150.79713,-2.97503],[150.78907,-2.98113],[150.7767,-2.98431],[150.76979,-2.97959]]],[[[151.95851,-2.87518],[151.96534,-2.87518],[151.96437,-2.86151],[151.97193,-2.84783],[151.98292,-2.84287],[151.99269,-2.85467],[152.00554,-2.87689],[152.02377,-2.89674],[152.04485,-2.90973],[152.07154,-2.91668],[152.07791,-2.92901],[152.07887,-2.95676],[152.06277,-2.97274],[152.05128,-2.99521],[152.02536,-2.99607],[152.00516,-2.96723],[151.99241,-2.94479],[151.9936,-2.90957],[151.98976,-2.89666],[151.96746,-2.88763],[151.95851,-2.87518]]],[[[151.90863,-2.75347],[151.91304,-2.70539],[151.9358,-2.70599],[151.9782,-2.72088],[151.98585,-2.72487],[152.00978,-2.74481],[152.00864,-2.75384],[152.01148,-2.77337],[152.00929,-2.79258],[151.99269,-2.79998],[151.99952,-2.81422],[152.01319,-2.80682],[152.00587,-2.82041],[151.98707,-2.83123],[151.92756,-2.85177],[151.91584,-2.84429],[151.91593,-2.81338],[151.90863,-2.75347]]],[[[151.96022,-2.65154],[151.9603,-2.62672],[151.9756,-2.60312],[151.99952,-2.5945],[152.01539,-2.60272],[152.02857,-2.61907],[152.03679,-2.63519],[152.03736,-2.64235],[152.02654,-2.6596],[152.01661,-2.66277],[151.98243,-2.66277],[151.96022,-2.65154]]],[[[150.73894,-2.74481],[150.73992,-2.73252],[150.74732,-2.71795],[150.76002,-2.71103],[150.7767,-2.72112],[150.79493,-2.7291],[150.81593,-2.72096],[150.85499,-2.69695],[150.87615,-2.71266],[150.89243,-2.69752],[150.89332,-2.67523],[150.86801,-2.66904],[150.88364,-2.65407],[150.88111,-2.64349],[150.86988,-2.63714],[150.83937,-2.63356],[150.82602,-2.62998],[150.79347,-2.615],[150.81397,-2.57399],[150.81202,-2.57098],[150.81039,-2.56211],[150.81267,-2.55584],[150.83399,-2.56683],[150.85873,-2.59775],[150.89088,-2.61663],[150.89649,-2.6181],[150.9017,-2.63014],[150.91334,-2.63812],[150.93686,-2.64918],[150.96176,-2.68076],[150.97234,-2.69012],[150.97999,-2.69256],[151.02231,-2.69915],[151.04363,-2.71063],[151.04737,-2.7151],[151.05616,-2.73691],[151.0617,-2.74481],[151.07301,-2.74944],[151.08481,-2.75058],[151.09685,-2.75384],[151.17042,-2.78509],[151.19109,-2.80706],[151.1989,-2.84466],[151.21632,-2.86924],[151.25668,-2.87754],[151.33172,-2.87518],[151.34295,-2.87754],[151.34913,-2.88356],[151.35922,-2.89959],[151.36891,-2.90407],[151.39617,-2.89617],[151.41822,-2.90049],[151.43735,-2.90887],[151.45485,-2.92108],[151.47193,-2.93662],[151.50261,-2.97422],[151.5088,-2.97584],[151.54029,-2.97763],[151.59767,-3.01971],[151.60914,-3.01849],[151.68678,-3.06699],[151.70533,-3.0875],[151.71567,-3.10524],[151.73219,-3.12713],[151.75392,-3.14105],[151.78045,-3.13584],[151.78639,-3.16082],[151.7986,-3.17783],[151.81381,-3.18743],[151.82814,-3.19036],[151.865,-3.18857],[151.87672,-3.19036],[151.89698,-3.20175],[151.90935,-3.2042],[151.92433,-3.19736],[151.93482,-3.2033],[151.95102,-3.21852],[151.96974,-3.2317],[152.00465,-3.23211],[152.01433,-3.23496],[152.02768,-3.24489],[152.0525,-3.24668],[152.05348,-3.24928],[152.05242,-3.25368],[152.05592,-3.26336],[152.0547,-3.27988],[152.06772,-3.28606],[152.07398,-3.29388],[152.11101,-3.33017],[152.16017,-3.40211],[152.18678,-3.43157],[152.21746,-3.45696],[152.25343,-3.47845],[152.32423,-3.511],[152.33961,-3.52744],[152.3589,-3.53769],[152.36329,-3.54323],[152.36939,-3.58082],[152.37355,-3.58506],[152.38201,-3.58701],[152.38746,-3.59075],[152.39145,-3.59612],[152.39698,-3.60711],[152.40846,-3.62152],[152.41725,-3.64495],[152.42465,-3.65651],[152.44467,-3.66912],[152.46485,-3.66839],[152.48194,-3.65814],[152.49293,-3.64284],[152.5062,-3.65732],[152.51954,-3.6762],[152.5298,-3.69647],[152.53395,-3.71461],[152.53826,-3.72438],[152.55698,-3.74432],[152.56129,-3.75555],[152.55926,-3.76767],[152.5525,-3.78769],[152.55738,-3.79957],[152.57521,-3.81813],[152.57496,-3.82106],[152.59596,-3.82692],[152.61948,-3.82789],[152.64454,-3.8327],[152.66228,-3.8449],[152.67823,-3.86045],[152.69842,-3.87567],[152.71754,-3.88551],[152.73601,-3.89227],[152.75522,-3.89617],[152.7776,-3.89739],[152.79811,-3.88877],[152.81227,-3.87428],[152.8235,-3.87135],[152.83619,-3.89739],[152.84246,-3.93776],[152.8475,-3.94752],[152.86036,-3.96551],[152.8628,-3.97527],[152.8711,-3.9909],[152.89047,-3.99814],[152.91342,-3.99977],[152.93181,-3.9992],[152.94606,-3.98553],[152.95631,-3.99863],[152.95777,-4.01181],[152.95655,-4.02565],[152.95899,-4.0407],[152.96957,-4.05527],[153.00147,-4.08123],[153.01442,-4.09482],[153.04103,-4.15],[153.05738,-4.17278],[153.06666,-4.18987],[153.0652,-4.19785],[153.08375,-4.2055],[153.10776,-4.22454],[153.12843,-4.24814],[153.13722,-4.26946],[153.12794,-4.32488],[153.1268,-4.35019],[153.13722,-4.37591],[153.11215,-4.4039],[153.05405,-4.45233],[153.04103,-4.48577],[153.0442,-4.50506],[153.05397,-4.51718],[153.06568,-4.52728],[153.07521,-4.5403],[153.07911,-4.55446],[153.08058,-4.57],[153.07911,-4.58611],[153.07521,-4.60182],[153.06788,-4.61028],[153.04347,-4.62558],[153.03484,-4.636],[153.03631,-4.66123],[153.03484,-4.6701],[153.02906,-4.67962],[153.00758,-4.69801],[153.00034,-4.7112],[152.98878,-4.74359],[152.98023,-4.75945],[152.95265,-4.78484],[152.94606,-4.80047],[152.92408,-4.79388],[152.91489,-4.80788],[152.90919,-4.83017],[152.89772,-4.84832],[152.88933,-4.81813],[152.87379,-4.78883],[152.84946,-4.76385],[152.81511,-4.74586],[152.81813,-4.72137],[152.79103,-4.69598],[152.75538,-4.67156],[152.7326,-4.64959],[152.72771,-4.63348],[152.72633,-4.5783],[152.72193,-4.57171],[152.70053,-4.56121],[152.69215,-4.55478],[152.68979,-4.54778],[152.68214,-4.49749],[152.67213,-4.46526],[152.67115,-4.45176],[152.69142,-4.39715],[152.70387,-4.28997],[152.69215,-4.26605],[152.69801,-4.254],[152.6976,-4.24098],[152.69288,-4.22869],[152.68482,-4.21836],[152.69402,-4.19931],[152.69467,-4.18133],[152.68784,-4.16383],[152.66188,-4.12998],[152.61231,-4.03151],[152.60597,-4.00303],[152.59881,-3.98602],[152.58229,-3.95762],[152.56129,-3.93662],[152.55242,-3.92401],[152.54884,-3.90643],[152.54542,-3.90195],[152.53053,-3.8917],[152.52711,-3.88616],[152.52605,-3.87469],[152.51889,-3.85467],[152.51344,-3.84832],[152.50571,-3.84515],[152.48756,-3.84417],[152.47869,-3.84092],[152.47267,-3.83318],[152.46209,-3.81178],[152.44435,-3.79909],[152.35987,-3.69411],[152.35646,-3.68426],[152.36061,-3.66106],[152.35963,-3.65301],[152.3353,-3.63543],[152.31056,-3.61094],[152.29957,-3.59686],[152.28859,-3.56976],[152.27361,-3.56308],[152.25538,-3.55918],[152.23976,-3.55348],[152.22543,-3.52557],[152.21632,-3.51914],[152.19752,-3.51019],[152.17107,-3.49017],[152.15252,-3.48724],[152.13209,-3.48748],[151.98406,-3.45892],[151.94549,-3.44427],[151.80909,-3.3611],[151.61248,-3.16619],[151.59653,-3.15618],[151.53403,-3.14202],[151.47389,-3.11761],[151.4651,-3.11126],[151.45362,-3.0945],[151.44972,-3.07464],[151.44532,-3.06699],[151.43043,-3.05332],[151.36443,-3.01678],[151.33855,-2.99774],[151.29298,-2.98008],[151.27076,-2.95843],[151.26027,-2.95029],[151.24244,-2.94508],[151.22446,-2.94199],[151.2107,-2.93532],[151.20509,-2.91985],[151.18068,-2.89617],[151.16033,-2.89617],[151.15252,-2.89471],[151.15284,-2.88649],[151.1504,-2.8825],[151.13575,-2.87331],[151.12241,-2.86207],[151.11622,-2.8484],[151.09059,-2.8327],[151.07976,-2.82952],[151.04526,-2.82513],[151.03736,-2.81992],[151.02622,-2.80682],[151.01393,-2.7955],[150.99903,-2.78631],[150.98845,-2.78346],[150.96388,-2.78037],[150.9358,-2.76653],[150.91521,-2.76491],[150.83709,-2.77939],[150.79542,-2.77923],[150.75978,-2.76881],[150.73894,-2.74481]]],[[[149.95777,-2.47763],[149.95875,-2.46299],[149.96551,-2.45924],[149.97804,-2.46836],[149.98536,-2.47039],[149.99464,-2.46649],[150.06739,-2.41644],[150.08326,-2.41383],[150.10841,-2.41237],[150.11883,-2.40553],[150.15903,-2.39137],[150.16,-2.38844],[150.17302,-2.38633],[150.19337,-2.37705],[150.20786,-2.37477],[150.23023,-2.38348],[150.28468,-2.4166],[150.30689,-2.41644],[150.34181,-2.43336],[150.35157,-2.43572],[150.36891,-2.45045],[150.39576,-2.45672],[150.4236,-2.46722],[150.44728,-2.48447],[150.45883,-2.50848],[150.45094,-2.53932],[150.4651,-2.53248],[150.47071,-2.54697],[150.4651,-2.56081],[150.45582,-2.57513],[150.45094,-2.59092],[150.45395,-2.62103],[150.45834,-2.63226],[150.4651,-2.64235],[150.45826,-2.6535],[150.45135,-2.65838],[150.42986,-2.66277],[150.39243,-2.67645],[150.37176,-2.68222],[150.36443,-2.68182],[150.3615,-2.67278],[150.35483,-2.66155],[150.33985,-2.66424],[150.32374,-2.67376],[150.31373,-2.68328],[150.29322,-2.66904],[150.27711,-2.67376],[150.20216,-2.6775],[150.1941,-2.67913],[150.18678,-2.67946],[150.17726,-2.67645],[150.16871,-2.66985],[150.13624,-2.63494],[150.11476,-2.62298],[150.10572,-2.6159],[150.08937,-2.56658],[150.04713,-2.51629],[150.03248,-2.50514],[150.00978,-2.51287],[149.97975,-2.49896],[149.95777,-2.47763]]],[[[147.73048,-2.32643],[147.73268,-2.31959],[147.73731,-2.31341],[147.76319,-2.32106],[147.78712,-2.3117],[147.79998,-2.29119],[147.79249,-2.26556],[147.80152,-2.26019],[147.80926,-2.25262],[147.81365,-2.24472],[147.813,-2.23756],[147.82667,-2.23756],[147.8484,-2.26474],[147.86362,-2.27825],[147.8812,-2.28606],[147.85817,-2.32448],[147.84002,-2.34092],[147.81642,-2.34743],[147.77516,-2.34743],[147.7601,-2.3458],[147.75074,-2.34124],[147.73048,-2.32643]]],[[[146.52019,-2.14959],[146.52076,-2.13877],[146.53639,-2.11972],[146.54526,-2.11419],[146.56251,-2.12078],[146.57277,-2.12021],[146.61231,-2.1111],[146.6172,-2.10687],[146.62062,-2.09368],[146.6185,-2.08327],[146.61207,-2.07049],[146.58863,-2.04046],[146.58326,-2.03086],[146.58009,-2.02028],[146.57911,-2.0084],[146.58058,-1.99521],[146.58473,-1.99236],[146.60011,-1.99814],[146.60841,-2.00872],[146.61549,-2.01377],[146.6268,-2.01165],[146.63038,-2.00408],[146.63795,-1.97625],[146.65211,-1.96445],[146.65789,-1.96331],[146.66375,-1.96551],[146.67302,-1.97527],[146.67856,-1.97763],[146.68946,-1.97625],[146.70582,-1.97088],[146.71632,-1.97015],[146.72877,-1.97283],[146.7531,-1.98187],[146.76775,-1.98382],[146.78061,-1.98056],[146.81935,-1.95713],[146.84571,-1.9485],[146.8698,-1.94704],[146.89235,-1.95208],[146.91489,-1.96331],[146.94011,-1.95485],[147.11004,-1.96331],[147.11939,-1.96836],[147.13103,-1.98016],[147.14161,-1.99391],[147.14763,-2.00498],[147.15447,-2.00498],[147.15895,-1.98903],[147.17107,-1.9804],[147.18336,-1.97967],[147.19516,-1.99863],[147.20948,-2.00058],[147.23756,-1.99814],[147.27857,-2.01539],[147.28598,-2.01507],[147.29233,-2.01914],[147.33318,-2.03232],[147.34938,-2.02858],[147.37599,-2.02899],[147.4017,-2.03436],[147.41578,-2.04583],[147.42262,-2.04583],[147.42262,-2.01849],[147.41961,-2.00986],[147.41033,-1.99432],[147.40838,-1.98748],[147.40064,-1.97812],[147.38697,-1.96893],[147.38087,-1.96152],[147.39584,-1.95713],[147.40593,-1.96282],[147.42205,-1.98016],[147.43279,-1.98382],[147.44207,-1.99017],[147.44459,-2.00481],[147.44304,-2.03558],[147.43116,-2.06081],[147.40235,-2.06683],[147.36647,-2.06504],[147.33318,-2.06699],[147.33814,-2.06178],[147.34742,-2.04583],[147.32716,-2.0455],[147.31666,-2.05096],[147.31105,-2.06243],[147.30592,-2.08001],[147.29908,-2.08001],[147.29176,-2.06422],[147.28199,-2.08115],[147.27459,-2.10768],[147.27491,-2.12152],[147.26336,-2.1303],[147.2317,-2.17083],[147.21648,-2.18304],[147.20574,-2.18613],[147.19703,-2.18678],[147.17612,-2.18304],[147.1395,-2.1653],[147.13071,-2.16253],[147.10865,-2.16741],[147.07008,-2.18759],[147.04518,-2.18987],[147.04656,-2.18231],[147.05201,-2.1762],[147.02003,-2.18678],[146.98894,-2.19329],[146.95493,-2.19476],[146.84034,-2.1762],[146.8357,-2.17376],[146.82797,-2.16465],[146.82277,-2.16253],[146.8025,-2.16937],[146.79672,-2.16619],[146.78419,-2.15203],[146.76954,-2.14609],[146.75717,-2.1277],[146.75001,-2.12322],[146.74545,-2.12152],[146.72682,-2.12152],[146.7024,-2.11435],[146.69646,-2.11484],[146.69117,-2.12371],[146.69158,-2.1325],[146.69695,-2.13934],[146.72096,-2.14853],[146.72926,-2.16253],[146.72771,-2.17669],[146.7129,-2.18304],[146.67547,-2.18939],[146.65789,-2.18621],[146.64796,-2.16937],[146.62916,-2.1775],[146.61118,-2.1819],[146.59799,-2.18939],[146.5866,-2.22438],[146.57154,-2.22812],[146.55348,-2.22031],[146.5381,-2.20355],[146.53199,-2.18971],[146.52019,-2.14959]]],[[[149.53981,-1.42547],[149.57228,-1.35858],[149.58074,-1.34637],[149.58693,-1.35223],[149.59571,-1.35426],[149.61866,-1.35377],[149.62761,-1.35711],[149.64967,-1.38112],[149.71095,-1.41513],[149.72478,-1.42889],[149.72722,-1.44085],[149.72657,-1.46282],[149.73911,-1.48064],[149.75196,-1.51141],[149.76254,-1.53045],[149.78419,-1.56024],[149.79298,-1.58034],[149.77662,-1.58148],[149.75327,-1.59352],[149.73902,-1.59401],[149.7295,-1.59051],[149.72478,-1.58082],[149.71843,-1.5735],[149.702,-1.56072],[149.68434,-1.55242],[149.68336,-1.58131],[149.667,-1.57586],[149.63217,-1.54616],[149.62232,-1.54314],[149.6128,-1.53574],[149.59205,-1.51491],[149.58416,-1.50115],[149.57838,-1.49847],[149.56544,-1.49944],[149.56023,-1.49774],[149.54689,-1.48219],[149.54103,-1.46445],[149.53981,-1.42547]]],[[[154.17848,-4.47894],[154.17945,-4.47194],[154.18263,-4.46868],[154.19215,-4.46461],[154.22039,-4.47649],[154.24195,-4.49879],[154.25408,-4.52654],[154.25367,-4.55478],[154.23227,-4.58066],[154.20525,-4.57195],[154.18531,-4.54608],[154.18531,-4.51995],[154.19117,-4.52988],[154.19947,-4.55242],[154.20582,-4.56097],[154.21697,-4.56797],[154.22381,-4.56707],[154.23683,-4.55136],[154.24195,-4.52793],[154.22633,-4.50359],[154.2033,-4.48358],[154.18531,-4.4721],[154.17848,-4.47894]]],[[[154.13453,-4.37721],[154.1447,-4.36907],[154.15122,-4.37884],[154.15553,-4.39756],[154.15821,-4.43808],[154.15138,-4.43808],[154.14674,-4.41725],[154.13819,-4.3952],[154.13453,-4.37721]]],[[[152.43133,-4.16302],[152.45704,-4.14577],[152.46502,-4.13641],[152.47291,-4.12217],[152.5031,-4.1535],[152.5062,-4.17197],[152.50123,-4.19118],[152.49269,-4.21087],[152.48658,-4.21087],[152.4524,-4.20127],[152.45183,-4.18792],[152.44939,-4.17734],[152.44304,-4.16912],[152.43133,-4.16302]]],[[[153.58969,-4.09482],[153.58985,-4.08807],[153.60109,-4.06455],[153.62566,-4.03297],[153.64381,-4.02256],[153.66065,-4.02207],[153.66481,-4.0407],[153.65748,-4.04705],[153.67058,-4.09026],[153.65691,-4.12217],[153.62965,-4.12998],[153.60279,-4.10101],[153.59986,-4.0993],[153.59205,-4.10019],[153.58969,-4.09482]]],[[[153.67888,-4.02646],[153.68653,-4.01637],[153.70851,-4.00652],[153.71925,-3.9992],[153.73805,-4.00189],[153.74708,-4.01491],[153.74562,-4.03053],[153.73292,-4.0407],[153.71941,-4.03883],[153.69654,-4.02321],[153.67888,-4.02646]]],[[[152.09449,-10.40203],[152.09913,-10.39088],[152.11012,-10.39129],[152.10768,-10.40057],[152.09449,-10.40203]]],[[[151.86964,-10.34482],[151.86842,-10.33782],[151.87745,-10.33416],[151.86964,-10.34482]]],[[[151.85271,-10.25953],[151.86231,-10.25026],[151.86459,-10.25465],[151.85662,-10.26491],[151.85271,-10.25953]]],[[[144.5923,-3.51344],[144.59303,-3.50579],[144.60027,-3.49977],[144.6102,-3.50254],[144.61866,-3.50872],[144.6198,-3.51629],[144.61362,-3.51963],[144.60768,-3.51784],[144.59588,-3.51735],[144.5923,-3.51344]]],[[[144.06157,-3.21531],[144.07347,-3.19747],[144.0958,-3.18854],[144.1345,-3.23009],[144.11515,-3.24794],[144.08092,-3.23906],[144.06157,-3.21531]]],[[[142.81813,-1.73333],[142.81853,-1.71201],[142.83351,-1.69704],[142.85239,-1.69264],[142.86549,-1.7033],[142.8449,-1.71266],[142.82911,-1.72291],[142.81813,-1.73333]]],[[[150.95533,-9.60735],[150.95981,-9.59238],[150.97788,-9.58245],[150.99635,-9.58034],[151.01173,-9.58506],[151.02223,-9.5914],[151.02491,-9.60076],[151.02784,-9.60223],[151.02809,-9.60752],[151.02426,-9.62396],[151.01677,-9.62705],[151.01979,-9.63844],[151.02467,-9.63893],[151.03012,-9.64316],[151.03419,-9.65016],[151.03126,-9.66082],[151.01791,-9.66888],[151.01238,-9.66432],[151.01092,-9.6526],[150.99684,-9.63494],[150.96892,-9.62021],[150.95533,-9.60735]]],[[[143.78028,-8.51328],[143.79225,-8.50408],[143.80323,-8.50075],[143.80991,-8.49652],[143.81593,-8.49537],[143.82211,-8.49969],[143.82293,-8.50953],[143.81349,-8.53086],[143.79607,-8.53826],[143.78256,-8.5276],[143.78028,-8.51328]]],[[[143.54086,-8.35003],[143.55063,-8.3362],[143.59962,-8.33262],[143.63795,-8.34059],[143.65691,-8.35475],[143.66863,-8.37265],[143.67628,-8.39959],[143.68165,-8.41269],[143.67897,-8.42148],[143.66773,-8.42799],[143.64828,-8.42588],[143.62574,-8.41237],[143.58985,-8.37176],[143.54086,-8.35003]]],[[[143.59938,-8.11077],[143.61329,-8.0949],[143.64064,-8.09889],[143.65406,-8.10426],[143.67986,-8.12103],[143.69011,-8.13665],[143.68824,-8.15358],[143.66668,-8.16741],[143.6338,-8.16473],[143.61378,-8.13885],[143.59938,-8.11077]]],[[[143.56422,-8.02996],[143.57781,-8.01824],[143.61256,-8.02012],[143.65602,-8.03965],[143.67563,-8.05381],[143.68637,-8.06634],[143.6976,-8.09092],[143.69044,-8.10019],[143.67595,-8.09336],[143.64845,-8.08473],[143.60711,-8.08172],[143.5818,-8.06862],[143.56422,-8.02996]]],[[[151.11948,-4.92571],[151.12159,-4.91416],[151.14381,-4.89609],[151.16017,-4.88812],[151.17555,-4.88714],[151.18849,-4.89153],[151.20582,-4.90154],[151.22332,-4.91839],[151.22332,-4.93328],[151.2068,-4.94752],[151.19597,-4.95176],[151.17107,-4.95623],[151.15317,-4.95338],[151.13152,-4.93816],[151.11948,-4.92571]]],[[[143.50717,-3.34759],[143.50856,-3.33856],[143.51466,-3.33148],[143.51588,-3.32041],[143.52296,-3.31422],[143.54282,-3.31683],[143.56886,-3.33017],[143.59392,-3.34873],[143.60027,-3.36761],[143.58522,-3.37868],[143.56853,-3.37884],[143.52312,-3.36102],[143.50717,-3.34759]]],[[[149.91212,-1.66416],[149.91212,-1.65374],[149.92042,-1.6513],[149.94337,-1.65846],[149.95232,-1.65032],[149.95631,-1.63348],[149.96412,-1.6303],[149.97543,-1.64275],[149.98121,-1.65691],[149.98927,-1.66839],[150.00424,-1.67262],[150.01881,-1.67197],[150.02345,-1.67474],[150.01759,-1.68125],[150.0005,-1.6858],[149.97462,-1.68418],[149.94825,-1.67311],[149.93995,-1.67547],[149.9358,-1.68304],[149.92726,-1.68499],[149.91733,-1.67694],[149.91212,-1.66416]]]]},"source":"Natural Earth Admin 0 Countries, 1:10m, version 5.1.1","sourceUrl":"https://www.naturalearthdata.com/downloads/10m-cultural-vectors/10m-admin-0-countries/"}
