{"type":"Feature","properties":{"isoA2":"PM","name":"Saint Pierre and Miquelon"},"geometry":{"type":"MultiPolygon","coordinates":[[[[-56.2403,46.76569],[-56.2189,46.78827],[-56.20751,46.79784],[-56.19188,46.80663],[-56.18025,46.80956],[-56.16137,46.81159],[-56.14753,46.80785],[-56.15095,46.79365],[-56.1608,46.78437],[-56.16519,46.77253],[-56.14476,46.76569],[-56.16808,46.75727],[-56.19579,46.75275],[-56.22191,46.75462],[-56.2403,46.76569]]],[[[-56.3966,47.10399],[-56.3959,47.11359],[-56.38768,47.12539],[-56.37743,47.13426],[-56.36628,47.1402],[-56.35464,47.14126],[-56.34276,47.13565],[-56.36132,47.12596],[-56.37169,47.11616],[-56.37116,47.1059],[-56.357,47.09467],[-56.34032,47.08906],[-56.3048,47.08316],[-56.25333,47.0537],[-56.2517,47.04389],[-56.25231,47.03022],[-56.25601,47.01801],[-56.26936,47.00845],[-56.28034,46.98969],[-56.29186,46.98542],[-56.2976,46.98754],[-56.30199,46.99697],[-56.30517,46.99909],[-56.31216,46.99836],[-56.3297,46.99226],[-56.34358,46.99592],[-56.35021,46.99462],[-56.35017,46.98542],[-56.34577,46.97993],[-56.33385,46.97956],[-56.32592,46.97647],[-56.31371,46.97565],[-56.30858,46.97175],[-56.30675,46.96499],[-56.31603,46.9538],[-56.31603,46.91279],[-56.31176,46.90013],[-56.30118,46.89631],[-56.27379,46.89545],[-56.2355,46.87202],[-56.24926,46.84227],[-56.2893,46.81379],[-56.34626,46.7836],[-56.35851,46.78075],[-56.37068,46.7862],[-56.37792,46.79902],[-56.37507,46.80695],[-56.37511,46.81395],[-56.3911,46.82404],[-56.39635,46.83637],[-56.37987,46.85151],[-56.34276,46.87556],[-56.32828,46.91494],[-56.33678,46.95425],[-56.385,47.03563],[-56.38817,47.05183],[-56.3911,47.08784],[-56.3966,47.10399]]]]},"source":"Natural Earth Admin 0 Countries, 1:10m, version 5.1.1","sourceUrl":"https://www.naturalearthdata.com/downloads/10m-cultural-vectors/10m-admin-0-countries/"}
