{"type":"Feature","properties":{"isoA2":"PN","name":"Pitcairn Islands"},"geometry":{"type":"MultiPolygon","coordinates":[[[[-130.12035,-25.06829],[-130.11046,-25.06439],[-130.10115,-25.06439],[-130.09301,-25.06797],[-130.08625,-25.07513],[-130.09594,-25.07708],[-130.10534,-25.07675],[-130.11368,-25.07383],[-130.12035,-25.06829]]],[[[-124.79711,-24.66709],[-124.78653,-24.66399],[-124.78059,-24.66465],[-124.77807,-24.67254],[-124.78059,-24.6666],[-124.78539,-24.66448],[-124.79711,-24.66709]]],[[[-128.35025,-24.34124],[-128.33019,-24.32431],[-128.3037,-24.33465],[-128.29084,-24.36566],[-128.29015,-24.39837],[-128.30012,-24.41367],[-128.32067,-24.40065],[-128.34219,-24.37176],[-128.35025,-24.34124]]],[[[-130.75308,-23.92962],[-130.74527,-23.92441],[-130.74136,-23.92441],[-130.7421,-23.92783],[-130.75084,-23.93467],[-130.75308,-23.92962]]]]},"source":"Natural Earth Admin 0 Countries, 1:10m, version 5.1.1","sourceUrl":"https://www.naturalearthdata.com/downloads/10m-cultural-vectors/10m-admin-0-countries/"}
