{"type":"Feature","properties":{"isoA2":"PS","name":"Palestine"},"geometry":{"type":"MultiPolygon","coordinates":[[[[34.20027,31.31427],[34.22267,31.32665],[34.23666,31.34235],[34.28142,31.3767],[34.30161,31.4077],[34.3484,31.43765],[34.36818,31.46817],[34.44337,31.53457],[34.47877,31.57827],[34.4812,31.58314],[34.52013,31.55833],[34.55603,31.53983],[34.4957,31.49441],[34.48041,31.48562],[34.36734,31.39281],[34.34584,31.35772],[34.34553,31.34072],[34.3538,31.30636],[34.3509,31.28925],[34.31587,31.2569],[34.2644,31.22419],[34.24835,31.21145],[34.22461,31.27572],[34.20027,31.31427]]],[[[34.86715,31.39643],[34.88173,31.42987],[34.92679,31.49441],[34.93247,31.52697],[34.93288,31.55492],[34.93733,31.582],[34.95531,31.61187],[34.97361,31.63037],[35.05923,31.6768],[35.11423,31.71768],[35.12574,31.7331],[35.14895,31.73735],[35.15436,31.73343],[35.16673,31.73205],[35.17942,31.7201],[35.20526,31.72319],[35.21939,31.71512],[35.22415,31.71916],[35.228,31.71743],[35.2314,31.71261],[35.23797,31.70933],[35.24242,31.71085],[35.24432,31.71936],[35.24921,31.72357],[35.25247,31.73805],[35.26281,31.74863],[35.25972,31.75693],[35.25315,31.76252],[35.2527,31.76965],[35.25814,31.78371],[35.2629,31.78968],[35.25995,31.79257],[35.25587,31.81222],[35.26494,31.82627],[35.26018,31.82877],[35.25361,31.82935],[35.25157,31.83128],[35.25723,31.83859],[35.24998,31.84437],[35.24477,31.84514],[35.23335,31.84261],[35.22746,31.85031],[35.22565,31.85724],[35.22655,31.86725],[35.22202,31.87918],[35.21205,31.88149],[35.20526,31.87725],[35.2048,31.8711],[35.21296,31.85339],[35.21613,31.83915],[35.21576,31.82011],[35.21327,31.81876],[35.19664,31.82644],[35.18359,31.82512],[35.18223,31.81992],[35.18577,31.81412],[35.18617,31.80874],[35.17392,31.80755],[35.13696,31.81429],[35.12139,31.82484],[35.11247,31.82396],[35.09759,31.83127],[35.08809,31.84813],[35.07632,31.85416],[35.05602,31.85332],[35.04562,31.84827],[35.02749,31.83273],[35.01294,31.82934],[35.00155,31.8285],[34.98031,31.83132],[34.97743,31.83337],[34.97874,31.83733],[34.99854,31.85384],[35.00657,31.85606],[35.03011,31.85701],[35.03432,31.86111],[35.03901,31.90864],[35.0299,31.92443],[35.01635,31.92659],[35.00542,31.93377],[35.00378,31.93921],[35.00773,31.94492],[35.00122,31.94962],[34.98669,31.96723],[34.99784,31.97878],[34.99883,31.9939],[34.99677,32.0111],[35.00724,32.02077],[34.98422,32.08958],[34.98694,32.12399],[34.97704,32.14999],[34.96268,32.17346],[34.95822,32.18645],[34.96141,32.20158],[35.00027,32.23201],[35.00761,32.24439],[35.01112,32.2571],[35.00937,32.26764],[35.00244,32.27514],[34.98994,32.27847],[34.99304,32.29157],[34.99655,32.32304],[35.00068,32.33573],[35.02156,32.34459],[35.0288,32.36516],[35.04471,32.43412],[35.06435,32.46314],[35.0907,32.47923],[35.12068,32.49133],[35.15168,32.50791],[35.1768,32.53269],[35.19075,32.54171],[35.20863,32.54264],[35.22372,32.5359],[35.25225,32.51595],[35.27044,32.51047],[35.33338,32.51308],[35.36314,32.51011],[35.39291,32.49448],[35.4018,32.47096],[35.40138,32.44001],[35.40686,32.41479],[35.4328,32.40826],[35.45668,32.40761],[35.56096,32.38472],[35.56561,32.36795],[35.55941,32.36795],[35.55941,32.37482],[35.55197,32.37482],[35.55197,32.36795],[35.55734,32.35821],[35.55652,32.32821],[35.56561,32.31335],[35.56117,32.3017],[35.56086,32.28263],[35.56458,32.26359],[35.57254,32.25191],[35.56375,32.24682],[35.55941,32.23759],[35.57254,32.23759],[35.55517,32.17439],[35.55941,32.16253],[35.55941,32.15509],[35.55125,32.15153],[35.5467,32.14703],[35.5467,32.1416],[35.55197,32.1352],[35.53523,32.11081],[35.53461,32.09923],[35.54515,32.08683],[35.5283,32.0751],[35.52282,32.05784],[35.52468,32.01169],[35.53554,31.98823],[35.53998,31.95562],[35.54587,31.94456],[35.54515,31.93661],[35.5406,31.93201],[35.52747,31.92735],[35.52468,31.91924],[35.54908,31.8392],[35.53833,31.82674],[35.53833,31.8193],[35.55941,31.76535],[35.52758,31.73507],[35.48014,31.64112],[35.46422,31.56856],[35.45916,31.49188],[35.39012,31.48707],[35.33234,31.4588],[35.22331,31.38103],[35.16491,31.36227],[35.04017,31.3632],[34.98032,31.35618],[34.9549,31.34863],[34.92741,31.34491],[34.90095,31.34848],[34.87883,31.36284],[34.86715,31.39643]]]]},"source":"Natural Earth Admin 0 Countries, 1:10m, version 5.1.1","sourceUrl":"https://www.naturalearthdata.com/downloads/10m-cultural-vectors/10m-admin-0-countries/"}
