{"type":"Feature","properties":{"isoA2":"PT","name":"Portugal"},"geometry":{"type":"MultiPolygon","coordinates":[[[[-9.49747,38.78824],[-9.49747,38.80976],[-9.49193,38.81924],[-9.4555,38.85047],[-9.42272,38.9314],[-9.42536,38.99164],[-9.43664,39.02949],[-9.42665,39.05172],[-9.42255,39.07863],[-9.3837,39.13403],[-9.37142,39.16092],[-9.35086,39.19731],[-9.34678,39.23523],[-9.34059,39.26683],[-9.35407,39.31623],[-9.36583,39.33601],[-9.40176,39.36522],[-9.40929,39.37519],[-9.39782,39.378],[-9.35292,39.36793],[-9.27924,39.40582],[-9.2608,39.41844],[-9.24032,39.42],[-9.2279,39.40843],[-9.2176,39.40619],[-9.20592,39.41547],[-9.21353,39.42862],[-9.22989,39.44074],[-9.21365,39.46104],[-9.19108,39.48154],[-9.18287,39.49258],[-9.13569,39.51618],[-9.09043,39.57928],[-9.08834,39.59666],[-9.09034,39.61564],[-9.07795,39.64248],[-9.07169,39.68044],[-8.99303,39.84317],[-8.86815,40.12482],[-8.85326,40.13923],[-8.84162,40.12596],[-8.82506,40.12006],[-8.78498,40.11872],[-8.78498,40.12617],[-8.8011,40.13793],[-8.81615,40.14655],[-8.83361,40.15168],[-8.87938,40.15624],[-8.89647,40.16474],[-8.90661,40.17939],[-8.90844,40.20067],[-8.89574,40.22875],[-8.86539,40.27546],[-8.79857,40.47443],[-8.78486,40.53682],[-8.76579,40.58254],[-8.753,40.64082],[-8.74462,40.64692],[-8.74462,40.61904],[-8.72468,40.64452],[-8.71028,40.65347],[-8.69616,40.64692],[-8.69001,40.64692],[-8.69001,40.65314],[-8.6964,40.66132],[-8.6988,40.66795],[-8.69616,40.67365],[-8.68639,40.67792],[-8.68078,40.67499],[-8.67687,40.66966],[-8.67199,40.66681],[-8.6621,40.66987],[-8.65363,40.67719],[-8.64159,40.69416],[-8.65746,40.7014],[-8.66633,40.7132],[-8.66365,40.72407],[-8.64493,40.72891],[-8.62182,40.73066],[-8.60387,40.73578],[-8.58837,40.74421],[-8.57266,40.75556],[-8.58951,40.75471],[-8.61473,40.74494],[-8.63988,40.74006],[-8.64537,40.73973],[-8.66845,40.74746],[-8.67569,40.75556],[-8.6837,40.78311],[-8.64558,40.82368],[-8.65526,40.84492],[-8.65697,40.82856],[-8.6632,40.81493],[-8.67052,40.81118],[-8.67569,40.82445],[-8.68981,40.8041],[-8.70055,40.77798],[-8.70739,40.75031],[-8.70983,40.72516],[-8.71426,40.70905],[-8.72509,40.68598],[-8.73843,40.6645],[-8.7508,40.65314],[-8.6551,40.9938],[-8.65526,41.0305],[-8.6671,41.09756],[-8.66613,41.13276],[-8.64835,41.14663],[-8.64835,41.15278],[-8.68578,41.15949],[-8.70519,41.18692],[-8.71837,41.2215],[-8.73717,41.24966],[-8.73229,41.26293],[-8.73461,41.27408],[-8.74462,41.29743],[-8.74446,41.32811],[-8.74914,41.33779],[-8.75613,41.34054],[-8.76403,41.36131],[-8.77815,41.37934],[-8.7838,41.39387],[-8.78556,41.43488],[-8.77485,41.46834],[-8.78647,41.49107],[-8.78826,41.5118],[-8.79273,41.52584],[-8.79542,41.54255],[-8.80834,41.57294],[-8.81286,41.5954],[-8.81949,41.61188],[-8.82045,41.6301],[-8.8286,41.64816],[-8.83051,41.67159],[-8.82706,41.68281],[-8.80468,41.68928],[-8.74328,41.69697],[-8.72594,41.70311],[-8.71003,41.71186],[-8.69616,41.72199],[-8.80687,41.69697],[-8.82999,41.69465],[-8.84289,41.69579],[-8.86111,41.70437],[-8.88031,41.73686],[-8.88032,41.76553],[-8.87204,41.81057],[-8.8789,41.83902],[-8.87475,41.84956],[-8.8675,41.85912],[-8.79662,41.90331],[-8.76277,41.93195],[-8.7508,41.96898],[-8.73959,41.97511],[-8.71701,41.98377],[-8.69127,41.98961],[-8.67081,41.99981],[-8.66321,42.00989],[-8.65257,42.03144],[-8.64389,42.04149],[-8.62688,42.05103],[-8.60942,42.05366],[-8.57281,42.05441],[-8.55443,42.06007],[-8.52002,42.07772],[-8.50121,42.08309],[-8.34675,42.10169],[-8.32995,42.10844],[-8.30427,42.12583],[-8.29538,42.13009],[-8.27068,42.132],[-8.25233,42.13758],[-8.22236,42.15363],[-8.2134,42.14402],[-8.20433,42.1288],[-8.20738,42.08578],[-8.20402,42.06955],[-8.1913,42.06209],[-8.17616,42.06526],[-8.15839,42.07139],[-8.13761,42.07291],[-8.11844,42.06686],[-8.1032,42.05581],[-8.09508,42.04092],[-8.09736,42.02348],[-8.10803,42.0109],[-8.12392,42.0009],[-8.15296,41.98682],[-8.18213,41.96542],[-8.22071,41.92271],[-8.23022,41.90468],[-8.23171,41.88605],[-8.2204,41.8682],[-8.18459,41.85773],[-8.17704,41.84985],[-8.17539,41.8366],[-8.17957,41.8107],[-8.09348,41.80673],[-8.04857,41.81639],[-8.01571,41.84189],[-8.00589,41.85396],[-7.99364,41.86367],[-7.97943,41.86861],[-7.96336,41.86662],[-7.94476,41.86695],[-7.93535,41.87995],[-7.92579,41.90817],[-7.9061,41.91385],[-7.90336,41.88682],[-7.89659,41.85794],[-7.86481,41.85789],[-7.85789,41.86378],[-7.84972,41.87577],[-7.83923,41.87837],[-7.81215,41.87714],[-7.75014,41.88838],[-7.72203,41.89925],[-7.70637,41.89625],[-7.67867,41.88135],[-7.66116,41.87491],[-7.60736,41.87318],[-7.62281,41.84174],[-7.62219,41.83233],[-7.60607,41.82554],[-7.5884,41.82422],[-7.5671,41.82659],[-7.54669,41.83205],[-7.53155,41.84016],[-7.52633,41.84737],[-7.52328,41.86016],[-7.51584,41.86499],[-7.50814,41.86494],[-7.493,41.8569],[-7.48329,41.85621],[-7.46938,41.85254],[-7.45657,41.83923],[-7.44696,41.82184],[-7.44272,41.80595],[-7.42954,41.8145],[-7.40541,41.8352],[-7.39192,41.84205],[-7.37683,41.84404],[-7.3405,41.84321],[-7.32247,41.84541],[-7.25146,41.8637],[-7.21865,41.87905],[-7.19793,41.9015],[-7.19565,41.91736],[-7.20211,41.94974],[-7.19994,41.96372],[-7.17731,41.97837],[-7.15974,41.98573],[-7.14537,41.98749],[-7.11318,41.97243],[-7.08274,41.95279],[-7.05127,41.94201],[-7.01577,41.95367],[-6.99236,41.96638],[-6.96952,41.9577],[-6.94513,41.94336],[-6.91712,41.9391],[-6.85495,41.94295],[-6.83123,41.95395],[-6.82493,41.98377],[-6.79439,41.97971],[-6.7579,41.93757],[-6.72798,41.93085],[-6.65677,41.93308],[-6.62282,41.94096],[-6.60949,41.96232],[-6.58515,41.95465],[-6.57166,41.94261],[-6.56763,41.92607],[-6.5758,41.8829],[-6.56789,41.87587],[-6.55006,41.87388],[-6.52422,41.86742],[-6.53575,41.84858],[-6.56014,41.76688],[-6.56438,41.7575],[-6.5774,41.73973],[-6.57435,41.73105],[-6.56768,41.72244],[-6.56308,41.71304],[-6.5605,41.69446],[-6.55528,41.6749],[-6.54153,41.6589],[-6.51342,41.65092],[-6.50303,41.65309],[-6.47436,41.66593],[-6.46082,41.67655],[-6.44707,41.67624],[-6.36594,41.66361],[-6.3171,41.65015],[-6.27225,41.62823],[-6.23008,41.5949],[-6.20595,41.57028],[-6.25364,41.51752],[-6.27953,41.497],[-6.28589,41.48687],[-6.28517,41.47897],[-6.28248,41.4723],[-6.28294,41.46563],[-6.32103,41.41959],[-6.32113,41.41101],[-6.35235,41.40926],[-6.36625,41.40517],[-6.37917,41.39732],[-6.37617,41.39685],[-6.37555,41.39081],[-6.37917,41.37747],[-6.39958,41.37747],[-6.431,41.33903],[-6.46314,41.31412],[-6.49585,41.29495],[-6.55445,41.27562],[-6.5635,41.27071],[-6.62892,41.26994],[-6.64664,41.26761],[-6.65822,41.25785],[-6.69377,41.21738],[-6.70695,41.19433],[-6.74224,41.17144],[-6.75522,41.15883],[-6.75899,41.15175],[-6.75651,41.12705],[-6.76478,41.10886],[-6.80436,41.06442],[-6.818,41.05414],[-6.84529,41.05191],[-6.90684,41.0561],[-6.92787,41.04794],[-6.93179,41.02913],[-6.94249,41.016],[-6.94042,41.00339],[-6.93061,40.99207],[-6.89924,40.96675],[-6.88518,40.94892],[-6.86363,40.9083],[-6.85526,40.88722],[-6.84704,40.8789],[-6.83206,40.8759],[-6.82116,40.87006],[-6.81619,40.85683],[-6.82033,40.84423],[-6.83666,40.84025],[-6.83805,40.81493],[-6.83351,40.79782],[-6.83914,40.77689],[-6.83914,40.75751],[-6.83697,40.7433],[-6.82431,40.71069],[-6.81625,40.67716],[-6.81428,40.64718],[-6.82131,40.63018],[-6.84446,40.59778],[-6.85046,40.58223],[-6.84839,40.56476],[-6.83976,40.55458],[-6.82855,40.54554],[-6.81806,40.53189],[-6.81252,40.51463],[-6.81532,40.50254],[-6.83867,40.47722],[-6.85712,40.44213],[-6.85128,40.40952],[-6.82808,40.38059],[-6.79444,40.3564],[-6.81196,40.33232],[-6.82079,40.32534],[-6.86394,40.30095],[-6.8702,40.29553],[-6.87387,40.28778],[-6.8751,40.27124],[-6.87805,40.26524],[-6.89645,40.25548],[-6.91583,40.25444],[-6.93541,40.25584],[-6.95469,40.25336],[-6.99779,40.23171],[-7.01577,40.2255],[-7.02476,40.2162],[-7.03458,40.19305],[-7.0431,40.18137],[-7.03484,40.16675],[-7.02765,40.13264],[-7.01577,40.11905],[-6.97717,40.11342],[-6.96642,40.11032],[-6.95572,40.10293],[-6.94213,40.08634],[-6.91991,40.06489],[-6.87971,40.00919],[-6.89691,39.98712],[-6.90161,39.97648],[-6.89975,39.96562],[-6.90368,39.95668],[-6.90952,39.93198],[-6.91257,39.92811],[-6.92229,39.92242],[-6.92523,39.91793],[-6.92513,39.91224],[-6.92156,39.90216],[-6.92177,39.89715],[-6.92425,39.87157],[-6.92766,39.86191],[-6.95283,39.83287],[-6.98523,39.82114],[-6.99303,39.81607],[-7.00027,39.80253],[-6.99887,39.79178],[-6.99458,39.78259],[-6.99303,39.77421],[-6.9968,39.76471],[-7.00874,39.74832],[-7.01334,39.73892],[-7.01365,39.72962],[-7.00962,39.71546],[-7.02114,39.69401],[-7.03577,39.68926],[-7.18289,39.6751],[-7.21405,39.67618],[-7.23576,39.68652],[-7.25286,39.68233],[-7.29275,39.68332],[-7.31141,39.68032],[-7.34143,39.67184],[-7.55729,39.6798],[-7.51584,39.59376],[-7.49786,39.58105],[-7.46809,39.55025],[-7.45135,39.53785],[-7.41755,39.5242],[-7.40892,39.51557],[-7.39941,39.49366],[-7.38417,39.484],[-7.36293,39.47609],[-7.32092,39.46741],[-7.31353,39.45744],[-7.31363,39.4361],[-7.31885,39.41325],[-7.32671,39.39884],[-7.33193,39.38473],[-7.33141,39.36261],[-7.32665,39.34132],[-7.31926,39.32954],[-7.30045,39.31791],[-7.25084,39.27063],[-7.26433,39.25233],[-7.26578,39.23135],[-7.25808,39.2113],[-7.24413,39.19564],[-7.21932,39.18484],[-7.19157,39.17916],[-7.16806,39.17063],[-7.15581,39.15151],[-7.15793,39.14138],[-7.16889,39.12185],[-7.16749,39.11348],[-7.15721,39.10544],[-7.14253,39.09953],[-7.12729,39.09748],[-7.11519,39.1011],[-7.09127,39.11245],[-7.06491,39.11477],[-7.03882,39.10914],[-7.01577,39.09681],[-6.9997,39.0847],[-6.98569,39.06676],[-6.97939,39.04718],[-6.98631,39.03007],[-6.97489,39.02302],[-6.97329,39.01395],[-6.97882,39.00382],[-6.98864,38.99377],[-7.02212,38.94287],[-7.0445,38.91863],[-7.06605,38.9046],[-7.0522,38.88499],[-7.05727,38.86944],[-7.05608,38.85515],[-7.07654,38.84324],[-7.08868,38.83337],[-7.10486,38.82719],[-7.15101,38.81929],[-7.16062,38.8129],[-7.1662,38.80342],[-7.17974,38.79089],[-7.19643,38.77999],[-7.21152,38.77536],[-7.27043,38.73751],[-7.28407,38.71325],[-7.29095,38.67909],[-7.29296,38.65627],[-7.29095,38.63816],[-7.28604,38.63191],[-7.27353,38.62539],[-7.27043,38.6177],[-7.27586,38.60382],[-7.31771,38.55625],[-7.3358,38.50587],[-7.34562,38.49414],[-7.33409,38.48101],[-7.33518,38.46944],[-7.34484,38.45833],[-7.35921,38.44636],[-7.34552,38.44096],[-7.31715,38.42458],[-7.21136,38.31753],[-7.19633,38.29216],[-7.16718,38.27208],[-7.12687,38.1909],[-7.10351,38.17359],[-7.08832,38.17338],[-7.06305,38.17754],[-7.03871,38.18622],[-7.02641,38.19963],[-7.01815,38.19803],[-6.9921,38.20428],[-6.9642,38.20614],[-6.9475,38.19664],[-6.95763,38.16816],[-6.96549,38.15333],[-6.97898,38.11995],[-6.99763,38.08961],[-7.00636,38.05933],[-7.01577,38.04683],[-7.02398,38.02256],[-7.04936,38.02021],[-7.10594,38.03866],[-7.12326,38.04001],[-7.13199,38.03238],[-7.14191,38.01158],[-7.15225,38.00065],[-7.15974,37.9968],[-7.17286,37.99383],[-7.18527,37.98869],[-7.2233,37.99383],[-7.23405,37.98807],[-7.26583,37.98295],[-7.2727,37.97701],[-7.27213,37.96895],[-7.26909,37.95944],[-7.26862,37.94924],[-7.27389,37.93154],[-7.2958,37.88487],[-7.30686,37.85077],[-7.33441,37.81193],[-7.42634,37.75062],[-7.44401,37.73015],[-7.45755,37.70008],[-7.46633,37.65197],[-7.47161,37.6369],[-7.47848,37.62887],[-7.50489,37.60639],[-7.51434,37.6014],[-7.51176,37.59528],[-7.51584,37.58094],[-7.52969,37.56717],[-7.52912,37.5567],[-7.52367,37.55567],[-7.51543,37.52934],[-7.50633,37.51812],[-7.48148,37.50037],[-7.47595,37.49425],[-7.46887,37.47557],[-7.46293,37.45113],[-7.46003,37.42914],[-7.46225,37.41787],[-7.44499,37.38676],[-7.43745,37.30734],[-7.42758,37.27452],[-7.43424,37.25933],[-7.42939,37.23675],[-7.41442,37.19282],[-7.4064,37.18049],[-7.40022,37.17853],[-7.40022,37.17235],[-7.40762,37.16486],[-7.42431,37.17504],[-7.44571,37.17963],[-7.46866,37.18033],[-7.49014,37.17853],[-7.51179,37.17178],[-7.55223,37.14924],[-7.569,37.14444],[-7.62735,37.11396],[-7.63516,37.10541],[-7.78661,37.02269],[-7.81957,36.99873],[-7.83406,36.99893],[-7.8496,37.00438],[-7.87072,37.00788],[-7.93244,37.00853],[-7.94953,37.01411],[-7.95812,37.00263],[-7.96882,37.00373],[-7.9912,37.01411],[-7.98135,37.00169],[-7.9781,36.99535],[-7.9768,36.98676],[-7.99926,37.01325],[-8.03527,37.0375],[-8.10656,37.06928],[-8.14748,37.07653],[-8.17915,37.0881],[-8.2129,37.08691],[-8.2932,37.0777],[-8.36538,37.098],[-8.39522,37.08714],[-8.43883,37.08273],[-8.48226,37.09575],[-8.48425,37.09416],[-8.53746,37.11783],[-8.58015,37.12397],[-8.62678,37.12116],[-8.64159,37.11774],[-8.65465,37.1103],[-8.68627,37.08295],[-8.74767,37.08295],[-8.75967,37.08027],[-8.78555,37.06721],[-8.79857,37.06249],[-8.81371,37.06159],[-8.83722,37.05659],[-8.85916,37.0408],[-8.87892,37.04721],[-8.9051,37.02774],[-8.9156,37.0246],[-8.93562,37.01097],[-8.94603,37.00788],[-8.96117,37.0124],[-8.97208,37.02119],[-8.9829,37.0266],[-8.99787,37.02147],[-8.99104,37.04951],[-8.98559,37.06338],[-8.94179,37.11871],[-8.91356,37.16991],[-8.92272,37.19965],[-8.88137,37.23248],[-8.86709,37.27672],[-8.88277,37.30993],[-8.86668,37.33515],[-8.83866,37.36032],[-8.83336,37.38459],[-8.81599,37.41791],[-8.79786,37.4896],[-8.7955,37.53536],[-8.8013,37.55906],[-8.81114,37.5749],[-8.82437,37.58755],[-8.82653,37.60057],[-8.81286,37.64468],[-8.80826,37.67202],[-8.79931,37.69758],[-8.78621,37.70262],[-8.75764,37.70673],[-8.75219,37.73078],[-8.75219,37.73457],[-8.76183,37.72777],[-8.78406,37.72313],[-8.8087,37.72289],[-8.81701,37.7403],[-8.80958,37.79123],[-8.79718,37.84487],[-8.79896,37.87809],[-8.80481,37.90187],[-8.82067,37.92727],[-8.85387,37.93228],[-8.89485,37.95254],[-8.89005,37.96092],[-8.8754,37.96735],[-8.8675,37.97362],[-8.81568,38.06211],[-8.79699,38.13325],[-8.7744,38.18695],[-8.77795,38.24069],[-8.78547,38.30391],[-8.79507,38.35923],[-8.82094,38.39882],[-8.84679,38.42007],[-8.87828,38.44916],[-8.91466,38.47285],[-8.94262,38.48139],[-8.92732,38.4938],[-8.90453,38.4864],[-8.8675,38.46088],[-8.82185,38.44855],[-8.80016,38.43911],[-8.79857,38.42609],[-8.75699,38.42731],[-8.65689,38.40595],[-8.6068,38.41869],[-8.63683,38.42015],[-8.66275,38.42451],[-8.73616,38.45185],[-8.74503,38.46027],[-8.7508,38.47394],[-8.75251,38.48798],[-8.75089,38.50064],[-8.74576,38.51008],[-8.73717,38.51488],[-8.73717,38.52237],[-8.75145,38.52643],[-8.76122,38.53807],[-8.76423,38.55207],[-8.75764,38.5633],[-8.77335,38.56533],[-8.79296,38.5336],[-8.81286,38.52855],[-8.81286,38.52237],[-8.79064,38.51992],[-8.78026,38.50544],[-8.78002,38.48908],[-8.7884,38.48139],[-8.81233,38.48286],[-8.83226,38.48705],[-8.8675,38.50186],[-8.90583,38.5124],[-8.95489,38.50514],[-8.99977,38.46425],[-8.99186,38.45948],[-9.0486,38.44067],[-9.14566,38.43138],[-9.16591,38.42509],[-9.18214,38.41562],[-9.20036,38.41248],[-9.23062,38.41869],[-9.234,38.42422],[-9.23375,38.43146],[-9.23107,38.43769],[-9.21996,38.44904],[-9.19003,38.47253],[-9.18387,38.50413],[-9.18379,38.55154],[-9.20807,38.59742],[-9.23846,38.63541],[-9.25267,38.66548],[-9.23439,38.67336],[-9.14504,38.68107],[-9.12414,38.67097],[-9.11392,38.65888],[-9.10774,38.65888],[-9.11392,38.67939],[-9.09887,38.68561],[-9.06729,38.69233],[-9.0524,38.69367],[-9.0524,38.6999],[-9.02117,38.72653],[-8.94713,38.77424],[-8.94262,38.77558],[-8.94262,38.78172],[-8.95263,38.79491],[-8.96426,38.81485],[-8.97029,38.83543],[-8.96312,38.85065],[-8.98632,38.84943],[-8.99682,38.86555],[-9.00259,38.88984],[-9.01154,38.9134],[-8.96911,38.98395],[-8.94323,39.0152],[-8.90844,39.03628],[-8.88842,39.04011],[-8.84553,39.04291],[-8.82653,39.04926],[-8.79035,39.07062],[-8.77465,39.08344],[-8.76513,39.09772],[-8.83642,39.05671],[-8.92272,39.04926],[-8.93586,39.04072],[-8.95507,39.01219],[-9.00353,38.95775],[-9.05891,38.87141],[-9.08967,38.84357],[-9.10025,38.83023],[-9.10656,38.81379],[-9.10226,38.76159],[-9.09825,38.73786],[-9.1125,38.71418],[-9.16329,38.70167],[-9.22017,38.69389],[-9.28521,38.69876],[-9.30349,38.68771],[-9.32178,38.67032],[-9.36059,38.68952],[-9.40478,38.70409],[-9.42919,38.70726],[-9.47167,38.70246],[-9.49169,38.70759],[-9.49128,38.72773],[-9.48473,38.7447],[-9.49747,38.78824]]],[[[-16.54235,32.58051],[-16.52526,32.56721],[-16.50666,32.54418],[-16.49206,32.51716],[-16.48705,32.49168],[-16.53677,32.55801],[-16.54076,32.56851],[-16.54235,32.58051]]],[[[-17.25211,32.81452],[-17.24645,32.8286],[-17.23127,32.83438],[-17.22497,32.8393],[-17.20027,32.86848],[-17.18489,32.87417],[-17.16613,32.86848],[-17.15575,32.86123],[-17.13195,32.83906],[-17.12169,32.83438],[-17.0939,32.8277],[-17.06798,32.81415],[-17.04117,32.8122],[-17.01431,32.81704],[-16.99478,32.82754],[-16.97997,32.83324],[-16.95788,32.83779],[-16.91975,32.84121],[-16.90307,32.83633],[-16.87287,32.81745],[-16.86075,32.81322],[-16.8087,32.78001],[-16.79747,32.77456],[-16.78563,32.77228],[-16.74747,32.77082],[-16.73013,32.76679],[-16.71361,32.75861],[-16.70368,32.76463],[-16.69302,32.76667],[-16.68248,32.76463],[-16.67268,32.75861],[-16.68977,32.75487],[-16.72509,32.74116],[-16.73786,32.7381],[-16.74999,32.73062],[-16.78222,32.69611],[-16.80639,32.65681],[-16.84781,32.64403],[-16.8959,32.64159],[-16.9768,32.6472],[-17.14297,32.70555],[-17.18065,32.72598],[-17.21447,32.75064],[-17.2412,32.77912],[-17.24991,32.79654],[-17.25211,32.81452]]],[[[-16.39835,33.03978],[-16.39835,33.04662],[-16.38801,33.04735],[-16.37987,33.05134],[-16.37413,33.05817],[-16.36168,33.09032],[-16.3413,33.10594],[-16.31713,33.11078],[-16.29589,33.10126],[-16.28913,33.10871],[-16.28978,33.07941],[-16.286,33.06753],[-16.27538,33.06025],[-16.31078,33.06607],[-16.32567,33.06582],[-16.33995,33.0572],[-16.35269,33.04377],[-16.36433,33.03437],[-16.37829,33.03205],[-16.39835,33.03978]]],[[[-7.95572,36.98054],[-7.90396,36.97484],[-7.88402,36.98086],[-7.8601,37.00043],[-7.85326,36.98676],[-7.85912,36.98338],[-7.8601,36.98054],[-7.87849,36.97085],[-7.90388,36.96589],[-7.93139,36.9665],[-7.95572,36.97309],[-7.95572,36.98054]]],[[[-25.20165,36.99042],[-25.19099,37.00043],[-25.17032,37.01553],[-25.13362,37.02302],[-25.09447,37.02448],[-25.0668,37.02147],[-25.04674,37.01073],[-25.02921,36.99238],[-25.01692,36.97044],[-25.0122,36.9492],[-25.02709,36.93431],[-25.06066,36.93724],[-25.11901,36.95262],[-25.15172,36.94587],[-25.1691,36.94599],[-25.17667,36.95604],[-25.18322,36.9689],[-25.1953,36.98017],[-25.20165,36.99042]]],[[[-25.85949,37.85391],[-25.84146,37.90599],[-25.76456,37.91157],[-25.73908,37.90599],[-25.70421,37.88264],[-25.69811,37.87434],[-25.69717,37.86254],[-25.6942,37.85269],[-25.68883,37.84585],[-25.68073,37.84333],[-25.55378,37.82966],[-25.53889,37.83295],[-25.51256,37.84748],[-25.49889,37.85077],[-25.48986,37.84805],[-25.45848,37.82966],[-25.44205,37.83731],[-25.33975,37.8618],[-25.19783,37.86441],[-25.15917,37.85204],[-25.13516,37.82233],[-25.13231,37.7862],[-25.15685,37.75454],[-25.19473,37.74071],[-25.32755,37.72724],[-25.37243,37.71743],[-25.42032,37.71357],[-25.46544,37.7154],[-25.48827,37.71369],[-25.50569,37.70673],[-25.5327,37.72012],[-25.55907,37.72907],[-25.61555,37.74091],[-25.70425,37.74404],[-25.82506,37.81542],[-25.85949,37.85391]]],[[[-28.5489,38.48444],[-28.5489,38.52855],[-28.51867,38.55012],[-28.48526,38.55781],[-28.41454,38.55646],[-28.3745,38.55048],[-28.27457,38.50186],[-28.22623,38.48444],[-28.20629,38.47085],[-28.19579,38.46772],[-28.17447,38.46479],[-28.10949,38.4466],[-28.06383,38.44278],[-28.04711,38.43256],[-28.0406,38.40908],[-28.05419,38.39851],[-28.08487,38.39818],[-28.16271,38.40717],[-28.18521,38.40595],[-28.20531,38.40034],[-28.24185,38.37759],[-28.25365,38.38255],[-28.26293,38.39484],[-28.27457,38.40567],[-28.29678,38.41132],[-28.43944,38.41352],[-28.45954,38.40567],[-28.52538,38.45392],[-28.5489,38.48444]]],[[[-28.8424,38.59943],[-28.80895,38.60423],[-28.7799,38.60489],[-28.76635,38.60676],[-28.75377,38.61172],[-28.74511,38.61921],[-28.72859,38.63898],[-28.71959,38.64521],[-28.63264,38.614],[-28.60973,38.5974],[-28.59606,38.55272],[-28.635,38.5406],[-28.64395,38.53535],[-28.63207,38.52363],[-28.6234,38.52237],[-28.63622,38.51553],[-28.64782,38.51582],[-28.67178,38.52237],[-28.68395,38.52143],[-28.71435,38.51533],[-28.72704,38.51488],[-28.74958,38.52351],[-28.77538,38.55439],[-28.79532,38.56952],[-28.84114,38.59113],[-28.8424,38.59943]]],[[[-28.31579,38.74209],[-28.31554,38.75507],[-28.29747,38.74925],[-28.26448,38.73151],[-28.25036,38.72773],[-28.23253,38.72557],[-28.03433,38.66633],[-27.89098,38.60423],[-27.81664,38.58283],[-27.77892,38.56708],[-27.76061,38.54902],[-27.77745,38.54413],[-27.79646,38.54157],[-27.83576,38.54279],[-27.8522,38.54727],[-27.88492,38.56053],[-27.91515,38.56517],[-27.932,38.5703],[-27.9486,38.57783],[-27.96239,38.58686],[-27.97688,38.59309],[-28.00377,38.58942],[-28.02074,38.5974],[-28.03454,38.59007],[-28.04418,38.59394],[-28.06163,38.61172],[-28.07437,38.61762],[-28.17789,38.64509],[-28.19579,38.65575],[-28.21557,38.68212],[-28.22305,38.68623],[-28.23864,38.68285],[-28.24722,38.68623],[-28.24962,38.68993],[-28.24926,38.69819],[-28.26549,38.70319],[-28.31212,38.73526],[-28.31579,38.74209]]],[[[-27.39171,38.75886],[-27.36876,38.78266],[-27.33178,38.79804],[-27.29821,38.80353],[-27.14428,38.79609],[-27.11555,38.78608],[-27.07506,38.767],[-27.04255,38.74445],[-27.03751,38.72435],[-27.04088,38.71442],[-27.02282,38.70283],[-27.02013,38.69367],[-27.02575,38.69001],[-27.04776,38.68293],[-27.05435,38.67939],[-27.05614,38.67133],[-27.05175,38.65428],[-27.05435,38.64521],[-27.06029,38.64142],[-27.0891,38.63101],[-27.11417,38.63898],[-27.18171,38.63935],[-27.2045,38.65266],[-27.21715,38.6413],[-27.22838,38.6411],[-27.25292,38.65266],[-27.2788,38.65742],[-27.30476,38.65888],[-27.32763,38.66633],[-27.35269,38.68439],[-27.3734,38.70698],[-27.38329,38.72773],[-27.39171,38.75886]]],[[[-28.07299,39.05297],[-28.07152,39.06761],[-28.05484,39.09772],[-28.04483,39.10322],[-28.03433,39.10505],[-28.02383,39.10322],[-28.01382,39.09772],[-28.00707,39.10456],[-27.99128,39.08779],[-27.95808,39.06647],[-27.94221,39.05305],[-27.9359,39.03596],[-27.94717,39.02424],[-27.96622,39.01732],[-27.98347,39.01512],[-28.0039,39.01594],[-28.02522,39.01911],[-28.04516,39.02558],[-28.06163,39.03628],[-28.07299,39.05297]]],[[[-31.2849,39.41616],[-31.27562,39.42609],[-31.28091,39.4431],[-31.27562,39.4571],[-31.26708,39.47207],[-31.26256,39.49189],[-31.25577,39.50747],[-31.23933,39.51756],[-31.21898,39.52241],[-31.20051,39.5222],[-31.20792,39.50861],[-31.19856,39.50218],[-31.18627,39.49665],[-31.17272,39.49535],[-31.15954,39.50178],[-31.14074,39.48273],[-31.13268,39.46552],[-31.13158,39.423],[-31.13903,39.40029],[-31.15665,39.37263],[-31.17723,39.35562],[-31.19367,39.36465],[-31.21251,39.35773],[-31.23445,39.3557],[-31.25475,39.3581],[-31.26879,39.36465],[-31.27815,39.3784],[-31.28466,39.39789],[-31.2849,39.41616]]],[[[-31.1527,39.70108],[-31.14965,39.71149],[-31.1411,39.72089],[-31.12938,39.72712],[-31.1173,39.72834],[-31.08267,39.72272],[-31.08023,39.69331],[-31.09997,39.66401],[-31.13158,39.65884],[-31.13305,39.66535],[-31.14891,39.69636],[-31.1527,39.70108]]],[[[-16.02798,30.0336],[-16.0231,30.03229],[-16.02302,30.02924],[-16.02725,30.02961],[-16.02798,30.0336]]],[[[-15.87475,30.13793],[-15.87344,30.14354],[-15.86441,30.15253],[-15.85546,30.14692],[-15.85497,30.13959],[-15.85977,30.13329],[-15.87475,30.13793]]],[[[-9.07966,38.82014],[-9.0714,38.83759],[-9.06139,38.85224],[-9.05012,38.86172],[-9.03527,38.87055],[-9.03458,38.8642],[-9.04141,38.84919],[-9.05456,38.83299],[-9.07315,38.81818],[-9.07966,38.82014]]]]},"source":"Natural Earth Admin 0 Countries, 1:10m, version 5.1.1","sourceUrl":"https://www.naturalearthdata.com/downloads/10m-cultural-vectors/10m-admin-0-countries/"}
