{"type":"Feature","properties":{"isoA2":"PY","name":"Paraguay"},"geometry":{"type":"Polygon","coordinates":[[[-62.65036,-22.23446],[-62.62752,-22.18454],[-62.57284,-22.00078],[-62.41197,-21.50086],[-62.2757,-21.06657],[-62.27188,-21.00094],[-62.2773,-20.57978],[-62.26883,-20.55311],[-62.2324,-20.50102],[-62.01081,-20.19954],[-61.94425,-20.10415],[-61.89257,-20.0009],[-61.76121,-19.65777],[-61.7532,-19.64588],[-61.73723,-19.63958],[-61.51084,-19.60692],[-60.00638,-19.2981],[-59.08954,-19.28673],[-59.06965,-19.29148],[-59.0111,-19.33096],[-58.17528,-19.82137],[-58.16443,-19.83295],[-58.16117,-19.84721],[-58.16422,-19.88028],[-58.16221,-19.91232],[-58.14515,-19.96958],[-58.14185,-20.0009],[-58.14448,-20.02312],[-58.14314,-20.06529],[-58.14474,-20.08616],[-58.15952,-20.13908],[-58.15833,-20.18114],[-58.15234,-20.18466],[-58.14407,-20.18352],[-58.13704,-20.18559],[-58.12051,-20.20388],[-58.11854,-20.21442],[-58.15528,-20.22641],[-58.16267,-20.24316],[-58.15632,-20.26166],[-58.13704,-20.27437],[-58.13094,-20.27282],[-58.12004,-20.26135],[-58.10976,-20.26073],[-58.10309,-20.26445],[-58.09508,-20.2722],[-58.09032,-20.28171],[-58.09994,-20.3092],[-58.09772,-20.33462],[-58.09079,-20.35943],[-58.08299,-20.37617],[-58.06712,-20.39353],[-58.04563,-20.40935],[-58.02315,-20.42072],[-58.00418,-20.42516],[-57.9894,-20.43312],[-57.99214,-20.45089],[-58.0079,-20.47983],[-58.01002,-20.50009],[-58.00894,-20.52572],[-58.00475,-20.5498],[-57.99333,-20.57378],[-57.99364,-20.60675],[-57.99095,-20.6206],[-57.97783,-20.64013],[-57.97312,-20.65119],[-57.97359,-20.66194],[-57.98108,-20.68117],[-57.98062,-20.69274],[-57.97442,-20.70401],[-57.96501,-20.71103],[-57.95638,-20.7099],[-57.94718,-20.67507],[-57.934,-20.66742],[-57.91809,-20.6698],[-57.90429,-20.679],[-57.89065,-20.70638],[-57.86021,-20.73026],[-57.85768,-20.73987],[-57.86527,-20.74742],[-57.877,-20.75238],[-57.89876,-20.75661],[-57.90667,-20.76219],[-57.91793,-20.77408],[-57.93307,-20.78462],[-57.94041,-20.79361],[-57.93395,-20.79971],[-57.90801,-20.80198],[-57.88765,-20.80591],[-57.8707,-20.81645],[-57.85964,-20.83165],[-57.85711,-20.84973],[-57.86739,-20.86007],[-57.90868,-20.88157],[-57.91793,-20.89438],[-57.91483,-20.90565],[-57.89809,-20.91485],[-57.89303,-20.91485],[-57.86993,-20.93273],[-57.84703,-20.95598],[-57.84031,-20.95598],[-57.83603,-20.93851],[-57.81758,-20.9536],[-57.81603,-20.97541],[-57.82538,-20.99856],[-57.85246,-21.03784],[-57.85173,-21.052],[-57.83603,-21.08248],[-57.82988,-21.12703],[-57.83396,-21.17385],[-57.84786,-21.21622],[-57.8707,-21.24764],[-57.89902,-21.26718],[-57.90429,-21.27493],[-57.90491,-21.28743],[-57.88233,-21.31637],[-57.86631,-21.32092],[-57.85556,-21.33074],[-57.86331,-21.35689],[-57.92992,-21.45311],[-57.94527,-21.48721],[-57.94915,-21.5083],[-57.94811,-21.53052],[-57.93979,-21.54819],[-57.9216,-21.55543],[-57.91209,-21.56401],[-57.91933,-21.58395],[-57.93214,-21.60669],[-57.93902,-21.62374],[-57.93483,-21.64069],[-57.92434,-21.65868],[-57.91178,-21.67304],[-57.90114,-21.67893],[-57.89561,-21.68844],[-57.93902,-21.75531],[-57.93845,-21.77464],[-57.93478,-21.79293],[-57.93571,-21.81205],[-57.94894,-21.83386],[-57.95591,-21.85112],[-57.94667,-21.86549],[-57.93276,-21.88192],[-57.92537,-21.90497],[-57.92992,-21.91737],[-57.95323,-21.95819],[-57.96263,-21.96698],[-57.96486,-21.97669],[-57.98682,-22.0353],[-57.98837,-22.04904],[-57.98625,-22.07447],[-57.97286,-22.08118],[-57.96139,-22.09007],[-57.95245,-22.10599],[-57.94,-22.11839],[-57.90625,-22.12893],[-57.8955,-22.12893],[-57.87819,-22.12211],[-57.87137,-22.12118],[-57.86285,-22.12583],[-57.84388,-22.14371],[-57.83179,-22.14113],[-57.81577,-22.12831],[-57.80548,-22.12862],[-57.7953,-22.131],[-57.7875,-22.12966],[-57.77541,-22.12397],[-57.77779,-22.12232],[-57.77743,-22.11705],[-57.77365,-22.10775],[-57.75619,-22.11064],[-57.73634,-22.10371],[-57.72327,-22.10475],[-57.70994,-22.10847],[-57.68963,-22.10929],[-57.66369,-22.10061],[-57.65449,-22.10454],[-57.63893,-22.14454],[-57.6272,-22.16511],[-57.61407,-22.17699],[-57.59671,-22.18102],[-57.57273,-22.17771],[-57.5547,-22.17027],[-57.5423,-22.17151],[-57.5346,-22.17441],[-57.51119,-22.18877],[-57.47248,-22.1803],[-57.46395,-22.1804],[-57.44318,-22.18795],[-57.43228,-22.18867],[-57.41786,-22.19384],[-57.38499,-22.21327],[-57.37864,-22.21337],[-57.37502,-22.20727],[-57.36665,-22.20913],[-57.35125,-22.2172],[-57.33993,-22.21699],[-57.33482,-22.21172],[-57.33177,-22.20242],[-57.31632,-22.20366],[-57.27167,-22.21379],[-57.25244,-22.21058],[-57.22748,-22.19125],[-57.21379,-22.18815],[-57.20945,-22.19208],[-57.2064,-22.20748],[-57.19953,-22.21286],[-57.18997,-22.21358],[-57.17793,-22.20738],[-57.17038,-22.20572],[-57.15416,-22.208],[-57.11504,-22.22288],[-57.11328,-22.22939],[-57.10847,-22.23353],[-57.08506,-22.23807],[-57.07922,-22.23859],[-57.05948,-22.2327],[-57.02765,-22.23508],[-57.01117,-22.23384],[-56.98647,-22.24138],[-56.97572,-22.24169],[-56.96455,-22.23487],[-56.96549,-22.25089],[-56.96052,-22.25482],[-56.94259,-22.25399],[-56.92494,-22.26236],[-56.91479,-22.26288],[-56.90368,-22.23694],[-56.892,-22.25223],[-56.88172,-22.27724],[-56.87955,-22.28996],[-56.85606,-22.29316],[-56.84286,-22.28903],[-56.81965,-22.26546],[-56.81314,-22.25616],[-56.8119,-22.24965],[-56.80828,-22.24799],[-56.79456,-22.25254],[-56.78699,-22.25182],[-56.75436,-22.24262],[-56.74679,-22.24396],[-56.74353,-22.25037],[-56.7332,-22.24407],[-56.72855,-22.23745],[-56.72054,-22.21947],[-56.71537,-22.21544],[-56.6986,-22.2235],[-56.66457,-22.25998],[-56.64881,-22.2635],[-56.64413,-22.25544],[-56.6547,-22.23735],[-56.64835,-22.23136],[-56.62917,-22.22474],[-56.59574,-22.20149],[-56.58496,-22.19053],[-56.56791,-22.16231],[-56.55802,-22.15642],[-56.55461,-22.15208],[-56.54597,-22.13007],[-56.53068,-22.10909],[-56.5113,-22.09142],[-56.49383,-22.08656],[-56.4218,-22.07447],[-56.40764,-22.07581],[-56.3973,-22.08625],[-56.37084,-22.14733],[-56.34733,-22.1804],[-56.31684,-22.20769],[-56.26108,-22.23859],[-56.23152,-22.26536],[-56.21426,-22.27538],[-56.1968,-22.27931],[-56.02472,-22.28737],[-56.01136,-22.28386],[-55.99857,-22.27724],[-55.98523,-22.28324],[-55.97087,-22.29388],[-55.95526,-22.30132],[-55.89294,-22.3068],[-55.87439,-22.31734],[-55.86103,-22.28954],[-55.81077,-22.3531],[-55.77016,-22.38142],[-55.76024,-22.39196],[-55.75158,-22.41625],[-55.7483,-22.5009],[-55.74127,-22.53718],[-55.72393,-22.56963],[-55.69791,-22.59557],[-55.66468,-22.61273],[-55.64435,-22.61955],[-55.6312,-22.62678],[-55.62368,-22.63867],[-55.62048,-22.65934],[-55.62151,-22.66709],[-55.62701,-22.68363],[-55.62779,-22.6921],[-55.61918,-22.71691],[-55.61833,-22.72569],[-55.62859,-22.75897],[-55.64593,-22.78791],[-55.659,-22.8183],[-55.65657,-22.85571],[-55.6343,-22.93281],[-55.63435,-22.95007],[-55.63998,-22.98376],[-55.63781,-23.00071],[-55.61146,-23.02914],[-55.60068,-23.04453],[-55.59523,-23.06407],[-55.60014,-23.10055],[-55.59939,-23.11709],[-55.58867,-23.13011],[-55.56087,-23.14592],[-55.53524,-23.22912],[-55.53565,-23.24587],[-55.55901,-23.29134],[-55.56216,-23.30788],[-55.5556,-23.33031],[-55.52488,-23.36049],[-55.51387,-23.3794],[-55.51555,-23.4102],[-55.54247,-23.4658],[-55.53991,-23.50053],[-55.53307,-23.53402],[-55.53389,-23.56998],[-55.53053,-23.60347],[-55.51131,-23.62941],[-55.46697,-23.67323],[-55.44532,-23.73545],[-55.43018,-23.92856],[-55.42067,-23.95451],[-55.39804,-23.97683],[-55.36718,-23.98965],[-55.30435,-23.99409],[-55.27272,-24.00039],[-55.23683,-24.01269],[-55.20086,-24.01951],[-55.16544,-24.01683],[-55.10557,-23.98851],[-55.04229,-23.98903],[-55.01149,-23.98055],[-54.99457,-23.97311],[-54.96106,-23.97177],[-54.94364,-23.96918],[-54.92675,-23.95988],[-54.90489,-23.93301],[-54.89192,-23.92061],[-54.82742,-23.88702],[-54.69684,-23.84516],[-54.67978,-23.83668],[-54.65459,-23.81146],[-54.63922,-23.80444],[-54.61255,-23.81115],[-54.44316,-23.89993],[-54.4229,-23.91379],[-54.36761,-23.98468],[-54.24529,-24.05062],[-54.30105,-24.0899],[-54.32477,-24.11822],[-54.33464,-24.14891],[-54.33185,-24.16504],[-54.31898,-24.19676],[-54.31412,-24.23418],[-54.30627,-24.24668],[-54.28265,-24.27531],[-54.26105,-24.32947],[-54.26219,-24.35851],[-54.2717,-24.38941],[-54.2841,-24.41133],[-54.32291,-24.46435],[-54.33453,-24.49669],[-54.33479,-24.52729],[-54.32068,-24.59591],[-54.32131,-24.62837],[-54.37112,-24.76665],[-54.39975,-24.80479],[-54.40729,-24.82122],[-54.46228,-25.03723],[-54.46419,-25.05594],[-54.46331,-25.07278],[-54.4552,-25.09211],[-54.42972,-25.13056],[-54.42662,-25.14947],[-54.43567,-25.16704],[-54.46941,-25.19546],[-54.48145,-25.21324],[-54.50357,-25.27866],[-54.52848,-25.31432],[-54.54708,-25.33664],[-54.57566,-25.36031],[-54.59798,-25.39752],[-54.60981,-25.43276],[-54.61183,-25.44403],[-54.61245,-25.46552],[-54.60852,-25.48764],[-54.5985,-25.50583],[-54.59147,-25.52475],[-54.59416,-25.54862],[-54.59994,-25.5727],[-54.60222,-25.59244],[-54.58625,-25.62469],[-54.58336,-25.64484],[-54.5985,-25.65383],[-54.63372,-25.65208],[-54.64289,-25.66158],[-54.64315,-25.68794],[-54.62493,-25.74024],[-54.62206,-25.75998],[-54.61715,-25.77352],[-54.59452,-25.79873],[-54.5879,-25.81083],[-54.58956,-25.83294],[-54.59922,-25.85072],[-54.61007,-25.86653],[-54.61524,-25.88286],[-54.60733,-25.92792],[-54.6064,-25.94663],[-54.61524,-25.96172],[-54.62369,-25.96431],[-54.64795,-25.96565],[-54.65619,-25.96916],[-54.66227,-25.97991],[-54.66159,-25.98994],[-54.65826,-26.00038],[-54.65333,-26.03076],[-54.64253,-26.0628],[-54.64315,-26.08523],[-54.66382,-26.1492],[-54.65994,-26.1644],[-54.64185,-26.18403],[-54.63829,-26.19695],[-54.66433,-26.23623],[-54.66614,-26.24367],[-54.66366,-26.2633],[-54.66366,-26.30837],[-54.6834,-26.35084],[-54.69306,-26.41193],[-54.69766,-26.42815],[-54.70647,-26.4418],[-54.73717,-26.47321],[-54.76531,-26.49409],[-54.78035,-26.51042],[-54.78983,-26.52851],[-54.78877,-26.54256],[-54.7835,-26.55672],[-54.78035,-26.57522],[-54.78128,-26.59817],[-54.78495,-26.62277],[-54.79306,-26.64499],[-54.80701,-26.66121],[-54.81732,-26.66576],[-54.83497,-26.65439],[-54.87936,-26.65439],[-54.90334,-26.65987],[-54.9199,-26.67413],[-54.93073,-26.69398],[-54.94388,-26.73997],[-54.95114,-26.75754],[-54.96101,-26.77232],[-54.97527,-26.78782],[-54.99178,-26.79464],[-55.04074,-26.79847],[-55.0609,-26.80518],[-55.12578,-26.86358],[-55.13268,-26.88063],[-55.11888,-26.92001],[-55.12232,-26.94171],[-55.13836,-26.9537],[-55.16156,-26.95732],[-55.2012,-26.95546],[-55.21665,-26.95122],[-55.23518,-26.94223],[-55.25655,-26.93458],[-55.2806,-26.93427],[-55.32941,-26.95846],[-55.37623,-26.96383],[-55.39633,-26.96931],[-55.414,-26.97985],[-55.43085,-26.99639],[-55.44276,-27.01551],[-55.44883,-27.03587],[-55.45131,-27.08207],[-55.46185,-27.09798],[-55.4864,-27.10005],[-55.514,-27.09747],[-55.53384,-27.09943],[-55.54536,-27.11524],[-55.54952,-27.13581],[-55.55534,-27.15379],[-55.57174,-27.16155],[-55.59828,-27.16754],[-55.59898,-27.18263],[-55.57487,-27.22356],[-55.56867,-27.24598],[-55.57071,-27.25642],[-55.58407,-27.27678],[-55.58076,-27.29167],[-55.58164,-27.30552],[-55.59133,-27.32836],[-55.60748,-27.34551],[-55.62872,-27.35637],[-55.65363,-27.36009],[-55.68171,-27.37941],[-55.7175,-27.41734],[-55.75473,-27.4437],[-55.81517,-27.41414],[-55.84209,-27.40742],[-55.85416,-27.40122],[-55.86279,-27.39109],[-55.87785,-27.35357],[-55.89284,-27.33487],[-55.91309,-27.32784],[-55.93637,-27.32825],[-55.96066,-27.33156],[-55.98485,-27.33228],[-56.00689,-27.32825],[-56.07376,-27.3049],[-56.09895,-27.30055],[-56.12455,-27.2989],[-56.14998,-27.31182],[-56.16889,-27.32474],[-56.20543,-27.36215],[-56.22801,-27.37125],[-56.25677,-27.37828],[-56.27984,-27.38965],[-56.28532,-27.41135],[-56.28147,-27.43863],[-56.28532,-27.46096],[-56.297,-27.4809],[-56.31648,-27.50044],[-56.33599,-27.52566],[-56.34966,-27.55635],[-56.36754,-27.58064],[-56.39973,-27.58684],[-56.43136,-27.57537],[-56.46148,-27.55387],[-56.48732,-27.52721],[-56.50621,-27.50013],[-56.54644,-27.45507],[-56.613,-27.44639],[-56.68312,-27.46468],[-56.73423,-27.50044],[-56.77116,-27.50674],[-56.80746,-27.4868],[-56.86926,-27.4315],[-56.90435,-27.41869],[-56.94099,-27.4221],[-56.97732,-27.43533],[-57.07623,-27.48401],[-57.10899,-27.49062],[-57.1801,-27.48731],[-57.19121,-27.48421],[-57.20041,-27.47894],[-57.22707,-27.45868],[-57.2371,-27.45424],[-57.29249,-27.4407],[-57.30298,-27.43553],[-57.32629,-27.41486],[-57.33523,-27.40949],[-57.3604,-27.40339],[-57.3867,-27.40349],[-57.48768,-27.41641],[-57.51336,-27.41414],[-57.53568,-27.40722],[-57.69779,-27.33352],[-57.70937,-27.3298],[-57.81158,-27.31068],[-57.85478,-27.29756],[-57.91338,-27.28629],[-57.94403,-27.27461],[-58.02196,-27.25983],[-58.05353,-27.25901],[-58.11399,-27.26893],[-58.12882,-27.26965],[-58.23822,-27.25704],[-58.51076,-27.27844],[-58.60016,-27.31296],[-58.6042,-27.31626],[-58.59991,-27.26614],[-58.60156,-27.24567],[-58.61401,-27.22666],[-58.63872,-27.21012],[-58.65236,-27.19803],[-58.6584,-27.18511],[-58.65329,-27.15627],[-58.63882,-27.13591],[-58.61613,-27.12382],[-58.56549,-27.11597],[-58.56053,-27.10553],[-58.56239,-27.09013],[-58.56218,-27.07214],[-58.5564,-27.05551],[-58.54544,-27.04104],[-58.53603,-27.03618],[-58.5305,-27.04052],[-58.52704,-27.05416],[-58.51981,-27.0585],[-58.51154,-27.06016],[-58.50756,-27.05509],[-58.50673,-27.03845],[-58.50136,-27.02367],[-58.49237,-27.00972],[-58.47454,-26.99008],[-58.46663,-26.97592],[-58.48162,-26.96383],[-58.48369,-26.9506],[-58.47547,-26.93799],[-58.45981,-26.92817],[-58.41553,-26.91753],[-58.39387,-26.90967],[-58.38467,-26.89707],[-58.3747,-26.88756],[-58.32892,-26.88415],[-58.31579,-26.87412],[-58.32215,-26.85676],[-58.34039,-26.84446],[-58.35238,-26.83051],[-58.34003,-26.8086],[-58.32334,-26.80384],[-58.30551,-26.80911],[-58.28856,-26.81149],[-58.27481,-26.79836],[-58.27848,-26.7902],[-58.28654,-26.77873],[-58.28794,-26.7686],[-58.2714,-26.76426],[-58.25176,-26.76322],[-58.24794,-26.75816],[-58.2452,-26.68023],[-58.24065,-26.66121],[-58.23554,-26.64984],[-58.23228,-26.6486],[-58.22716,-26.65201],[-58.19569,-26.65749],[-58.18386,-26.65677],[-58.17864,-26.65067],[-58.18138,-26.64158],[-58.19208,-26.62463],[-58.19228,-26.61285],[-58.17151,-26.59858],[-58.16495,-26.59228],[-58.17053,-26.5868],[-58.18541,-26.56499],[-58.20799,-26.55021],[-58.21337,-26.54453],[-58.21735,-26.52758],[-58.21419,-26.51239],[-58.20872,-26.49688],[-58.20593,-26.47942],[-58.20272,-26.47156],[-58.18867,-26.46205],[-58.18541,-26.45172],[-58.2096,-26.43125],[-58.21306,-26.41865],[-58.20618,-26.40273],[-58.1727,-26.3493],[-58.16763,-26.33503],[-58.16495,-26.3186],[-58.17001,-26.28656],[-58.16996,-26.27033],[-58.16185,-26.2633],[-58.14598,-26.2601],[-58.12329,-26.25152],[-58.10598,-26.23953],[-58.1066,-26.2261],[-58.12123,-26.21669],[-58.13714,-26.20946],[-58.14893,-26.19933],[-58.1513,-26.18145],[-58.13322,-26.18899],[-58.12764,-26.19468],[-58.12402,-26.20191],[-58.11523,-26.19096],[-58.10629,-26.17029],[-58.09668,-26.1367],[-58.0865,-26.12719],[-58.0216,-26.10569],[-57.98821,-26.08854],[-57.87272,-26.0103],[-57.85969,-25.99428],[-57.85959,-25.98094],[-57.90584,-25.96865],[-57.89824,-25.95356],[-57.86331,-25.92761],[-57.85711,-25.91986],[-57.85137,-25.90839],[-57.85241,-25.89795],[-57.87535,-25.8902],[-57.87819,-25.88317],[-57.87535,-25.87615],[-57.85422,-25.86891],[-57.83324,-25.85878],[-57.81282,-25.84524],[-57.80187,-25.83139],[-57.81706,-25.79749],[-57.82063,-25.77827],[-57.80559,-25.7699],[-57.78724,-25.76411],[-57.76792,-25.75068],[-57.75107,-25.73486],[-57.74037,-25.72215],[-57.76058,-25.71564],[-57.76848,-25.70995],[-57.77458,-25.70169],[-57.7537,-25.67275],[-57.74125,-25.6619],[-57.71991,-25.65383],[-57.68834,-25.6527],[-57.67898,-25.64701],[-57.67526,-25.63926],[-57.66808,-25.61229],[-57.63878,-25.6158],[-57.62307,-25.61539],[-57.6163,-25.60919],[-57.61165,-25.58593],[-57.60069,-25.5788],[-57.58715,-25.5757],[-57.57532,-25.56443],[-57.57005,-25.54666],[-57.55692,-25.45984],[-57.55811,-25.44351],[-57.56529,-25.43039],[-57.57873,-25.41674],[-57.64079,-25.37261],[-57.64121,-25.36052],[-57.67149,-25.29013],[-57.70234,-25.27091],[-57.72177,-25.24611],[-57.75407,-25.18089],[-57.766,-25.16787],[-57.79732,-25.15392],[-57.81241,-25.14368],[-57.85649,-25.09676],[-57.8707,-25.08529],[-57.89049,-25.07868],[-57.96976,-25.07847],[-57.98377,-25.07423],[-57.98987,-25.0641],[-57.99364,-25.05273],[-58.00046,-25.04436],[-58.00981,-25.0425],[-58.03214,-25.04509],[-58.04206,-25.04436],[-58.11151,-25.01232],[-58.12402,-25.01294],[-58.13389,-24.99785],[-58.22406,-24.94122],[-58.24251,-24.94173],[-58.25915,-24.953],[-58.28726,-24.97977],[-58.2993,-24.98772],[-58.31197,-24.99361],[-58.32328,-24.99527],[-58.33599,-24.99186],[-58.34132,-24.98617],[-58.35057,-24.9686],[-58.4148,-24.90308],[-58.43852,-24.8728],[-58.45077,-24.86174],[-58.4734,-24.8513],[-58.69422,-24.81202],[-58.69938,-24.80727],[-58.70192,-24.79931],[-58.70812,-24.79508],[-58.72326,-24.7867],[-58.73747,-24.78278],[-58.78847,-24.78164],[-58.8092,-24.77678],[-59.00092,-24.64418],[-59.0327,-24.63705],[-59.04241,-24.63054],[-59.06246,-24.61235],[-59.07218,-24.60677],[-59.09719,-24.60542],[-59.11698,-24.59881],[-59.1544,-24.57628],[-59.17791,-24.56873],[-59.20649,-24.55023],[-59.24808,-24.53721],[-59.27046,-24.51819],[-59.2856,-24.51612],[-59.29506,-24.51292],[-59.30808,-24.49876],[-59.34097,-24.4876],[-59.35741,-24.469],[-59.37777,-24.43355],[-59.38709,-24.42383],[-59.42603,-24.39251],[-59.45027,-24.38239],[-59.45972,-24.35851],[-59.4659,-24.35355],[-59.48766,-24.34477],[-59.51042,-24.33267],[-59.53998,-24.3088],[-59.55843,-24.30539],[-59.5754,-24.29588],[-59.60052,-24.29288],[-59.61052,-24.28958],[-59.61773,-24.28348],[-59.63532,-24.26146],[-59.67364,-24.22539],[-60.03367,-24.00701],[-60.05173,-24.00287],[-60.07238,-24.00484],[-60.1193,-24.02024],[-60.14325,-24.0252],[-60.21813,-24.02737],[-60.29642,-24.01641],[-60.32802,-24.01796],[-60.33737,-24.01641],[-60.34804,-24.01083],[-60.36758,-23.99471],[-60.37835,-23.98851],[-60.38742,-23.98717],[-60.42305,-23.98851],[-60.48488,-23.97735],[-60.51772,-23.95575],[-60.53596,-23.94758],[-60.57175,-23.94603],[-60.57754,-23.94417],[-60.59358,-23.91223],[-60.59462,-23.90655],[-60.60384,-23.90469],[-60.62115,-23.8958],[-60.63216,-23.89229],[-60.64371,-23.89136],[-60.68968,-23.89363],[-60.69942,-23.89125],[-60.71986,-23.87503],[-60.72929,-23.87213],[-60.81685,-23.8741],[-60.83763,-23.87182],[-60.86636,-23.85591],[-60.89995,-23.83048],[-60.93666,-23.81384],[-60.97483,-23.82407],[-61.00635,-23.80547],[-61.01581,-23.79669],[-61.03022,-23.77462],[-61.03624,-23.76883],[-61.03805,-23.7554],[-61.04999,-23.73473],[-61.06622,-23.71571],[-61.09252,-23.70186],[-61.10965,-23.67561],[-61.11885,-23.66641],[-61.10975,-23.64998],[-61.10624,-23.62724],[-61.10986,-23.60698],[-61.12223,-23.5982],[-61.13949,-23.59272],[-61.15445,-23.58032],[-61.16781,-23.56657],[-61.18024,-23.55717],[-61.2144,-23.55717],[-61.22357,-23.55128],[-61.24292,-23.53308],[-61.27261,-23.52358],[-61.28295,-23.50993],[-61.28897,-23.49412],[-61.29695,-23.48141],[-61.36178,-23.45474],[-61.38485,-23.45371],[-61.39868,-23.45009],[-61.4357,-23.42374],[-61.45193,-23.41743],[-61.4703,-23.41412],[-61.49185,-23.4132],[-61.50107,-23.40782],[-61.51038,-23.38436],[-61.52634,-23.37475],[-61.52546,-23.36472],[-61.51606,-23.34498],[-61.53397,-23.34457],[-61.54577,-23.3426],[-61.55464,-23.33837],[-61.60515,-23.28927],[-61.61962,-23.28287],[-61.66685,-23.28287],[-61.68031,-23.27925],[-61.68876,-23.2745],[-61.70442,-23.25837],[-61.71853,-23.24928],[-61.733,-23.24339],[-61.74426,-23.23481],[-61.74881,-23.21734],[-61.74948,-23.19884],[-61.75227,-23.18706],[-61.75847,-23.17745],[-61.76927,-23.16556],[-61.78002,-23.15688],[-61.80266,-23.14499],[-61.81428,-23.13518],[-61.83697,-23.10469],[-61.84498,-23.09725],[-61.95645,-23.03441],[-61.99205,-22.99813],[-62.0059,-22.97891],[-62.00606,-22.97436],[-62.00895,-22.96971],[-62.00378,-22.94635],[-62.00606,-22.93684],[-62.01717,-22.92175],[-62.03582,-22.88486],[-62.05045,-22.8645],[-62.07163,-22.84393],[-62.08083,-22.83235],[-62.0846,-22.82016],[-62.08936,-22.81995],[-62.09923,-22.81375],[-62.10786,-22.80651],[-62.10879,-22.803],[-62.11587,-22.7998],[-62.12615,-22.77572],[-62.15349,-22.74781],[-62.16408,-22.7259],[-62.1708,-22.71732],[-62.18418,-22.7137],[-62.18827,-22.70833],[-62.17592,-22.68487],[-62.19504,-22.6736],[-62.19462,-22.66058],[-62.18765,-22.63856],[-62.19297,-22.62823],[-62.19659,-22.62647],[-62.20253,-22.6272],[-62.21493,-22.6243],[-62.23974,-22.61376],[-62.25281,-22.60363],[-62.25297,-22.59113],[-62.23886,-22.57304],[-62.23322,-22.5563],[-62.24118,-22.53842],[-62.26335,-22.51444],[-62.28139,-22.51206],[-62.28382,-22.50483],[-62.28454,-22.4887],[-62.28723,-22.48395],[-62.29451,-22.47981],[-62.30573,-22.47671],[-62.34872,-22.47134],[-62.36826,-22.46442],[-62.43807,-22.41966],[-62.45497,-22.40385],[-62.46195,-22.38876],[-62.47057,-22.38184],[-62.51073,-22.37016],[-62.52339,-22.36489],[-62.54762,-22.33533],[-62.56468,-22.322],[-62.61315,-22.31145],[-62.62529,-22.30505],[-62.63268,-22.29595],[-62.63082,-22.28768],[-62.62421,-22.2789],[-62.62028,-22.26846],[-62.62643,-22.25502],[-62.61961,-22.25502],[-62.62483,-22.24727],[-62.6318,-22.24076],[-62.64038,-22.23621],[-62.65036,-22.23446]]]},"source":"Natural Earth Admin 0 Countries, 1:10m, version 5.1.1","sourceUrl":"https://www.naturalearthdata.com/downloads/10m-cultural-vectors/10m-admin-0-countries/"}
