{"type":"Feature","properties":{"isoA2":"SA","name":"Saudi Arabia"},"geometry":{"type":"MultiPolygon","coordinates":[[[[34.57276,28.11278],[34.58741,28.13182],[34.59693,28.1389],[34.60564,28.14256],[34.60621,28.14753],[34.62672,28.16055],[34.62045,28.16738],[34.62713,28.17666],[34.64031,28.18106],[34.64031,28.17642],[34.63347,28.17487],[34.6517,28.16779],[34.65772,28.17056],[34.6609,28.18106],[34.65528,28.18106],[34.65528,28.18789],[34.64812,28.19424],[34.64959,28.20087],[34.65724,28.20629],[34.6683,28.20897],[34.6683,28.21577],[34.66489,28.22451],[34.67457,28.27045],[34.68873,28.26362],[34.68873,28.27729],[34.68043,28.27167],[34.67457,28.27725],[34.69467,28.29442],[34.71502,28.32746],[34.73048,28.36359],[34.74106,28.41059],[34.76059,28.43659],[34.76791,28.46646],[34.77508,28.48334],[34.80378,28.52713],[34.79617,28.57219],[34.79343,28.61943],[34.77847,28.6645],[34.79689,28.72582],[34.80982,28.75796],[34.82537,28.78437],[34.82537,28.79059],[34.8191,28.79059],[34.83611,28.81647],[34.83855,28.82856],[34.83277,28.83959],[34.83277,28.84585],[34.84409,28.87641],[34.84197,28.88963],[34.82537,28.89423],[34.82537,28.90038],[34.8401,28.92243],[34.85629,28.96381],[34.86378,29.00625],[34.85255,29.0314],[34.85255,29.04507],[34.86402,29.06367],[34.87355,29.08527],[34.89357,29.17475],[34.8982,29.18773],[34.90935,29.21015],[34.90789,29.21638],[34.90935,29.23066],[34.91896,29.23908],[34.94207,29.25047],[34.93523,29.26728],[34.93263,29.28925],[34.93637,29.30386],[34.94809,29.29828],[34.95069,29.30573],[34.95558,29.30512],[34.94801,29.31997],[34.94532,29.3369],[34.94938,29.35169],[36.01644,29.18995],[36.04382,29.19088],[36.06946,29.20003],[36.47708,29.49461],[36.70487,29.83115],[36.72875,29.85353],[36.75624,29.86552],[37.4702,29.99455],[37.4917,30.01119],[37.63453,30.31278],[37.64755,30.33086],[37.6707,30.34761],[37.98138,30.49881],[37.48002,31.00726],[36.95953,31.491],[37.95048,31.74447],[38.96344,31.99433],[38.99806,32.00694],[39.11682,32.1029],[39.13625,32.11535],[39.15774,32.12135],[40.02901,31.99448],[40.37028,31.93847],[40.42413,31.92053],[42.0754,31.07986],[42.85871,30.49468],[44.69183,29.20184],[44.71746,29.1931],[46.35746,29.06314],[46.53244,29.09575],[46.97923,29.04722],[47.43347,28.99472],[47.4945,28.90403],[47.54995,28.7706],[47.5546,28.74538],[47.55842,28.69148],[47.56803,28.66099],[47.58167,28.63148],[47.59681,28.60882],[47.61816,28.59149],[47.6411,28.57725],[47.65981,28.56004],[47.66813,28.53351],[48.43278,28.54048],[48.45639,28.51846],[48.46876,28.51065],[48.49464,28.50015],[48.49855,28.49291],[48.50766,28.44916],[48.50782,28.41572],[48.49903,28.39338],[48.47608,28.40078],[48.4712,28.39419],[48.46876,28.38711],[48.48829,28.38589],[48.50489,28.38963],[48.51734,28.39899],[48.52394,28.41446],[48.53549,28.40762],[48.53492,28.39867],[48.52394,28.38032],[48.51783,28.35419],[48.5171,28.34243],[48.52223,28.31883],[48.53492,28.29881],[48.61842,28.21727],[48.62355,28.20527],[48.60914,28.1861],[48.60174,28.16738],[48.60084,28.14777],[48.60646,28.12645],[48.61647,28.11054],[48.64812,28.07197],[48.6548,28.06159],[48.65211,28.04609],[48.66782,28.03767],[48.702,28.02399],[48.7129,28.02289],[48.74708,28.02399],[48.75587,28.02172],[48.77589,28.01195],[48.78793,28.00971],[48.792,28.00702],[48.79151,28.0008],[48.78452,27.98924],[48.77809,27.98664],[48.76401,27.98924],[48.74684,27.98164],[48.74236,27.97525],[48.74366,27.96133],[48.75327,27.94798],[48.77329,27.92976],[48.79624,27.91364],[48.81471,27.90668],[48.8152,27.90225],[48.83766,27.8723],[48.87794,27.83682],[48.88266,27.82673],[48.87379,27.80659],[48.87257,27.79389],[48.87338,27.78213],[48.87672,27.777],[48.87452,27.76992],[48.86549,27.75406],[48.85279,27.73749],[48.8392,27.72858],[48.8462,27.7403],[48.84767,27.74873],[48.84547,27.77326],[48.84848,27.7873],[48.85426,27.79536],[48.8576,27.80353],[48.85287,27.81794],[48.83806,27.80402],[48.82179,27.76683],[48.80502,27.7565],[48.82342,27.79963],[48.82553,27.8111],[48.82057,27.83002],[48.81251,27.8286],[48.80405,27.81501],[48.78517,27.7447],[48.78452,27.72858],[48.77882,27.71955],[48.78004,27.7141],[48.79135,27.71491],[48.79689,27.71971],[48.80397,27.73648],[48.81129,27.74282],[48.81129,27.69819],[48.81528,27.68757],[48.82455,27.68895],[48.834,27.69746],[48.8392,27.70808],[48.8462,27.69709],[48.84734,27.68382],[48.84547,27.66714],[48.85808,27.66283],[48.86769,27.66779],[48.87501,27.67748],[48.88014,27.68757],[48.88054,27.67031],[48.87843,27.66421],[48.8733,27.65965],[48.87818,27.65058],[48.87713,27.64448],[48.87062,27.64118],[48.85963,27.64045],[48.8733,27.61249],[48.84897,27.62336],[48.83888,27.6232],[48.8318,27.61249],[48.85279,27.60464],[48.87078,27.60562],[48.88478,27.61506],[48.89381,27.63296],[48.90064,27.63296],[48.90748,27.61872],[48.89527,27.60773],[48.89112,27.58812],[48.89674,27.57201],[48.91432,27.57152],[48.92164,27.57884],[48.91725,27.58584],[48.90952,27.59268],[48.90748,27.59943],[48.91529,27.60863],[48.92604,27.61384],[48.94907,27.61872],[48.96852,27.62035],[48.9817,27.61457],[49.01734,27.58519],[49.05421,27.56826],[49.06397,27.55634],[49.04469,27.54418],[49.05893,27.53815],[49.07162,27.5395],[49.07765,27.54654],[49.07203,27.55785],[49.08888,27.55109],[49.10629,27.54686],[49.1443,27.54418],[49.15268,27.54633],[49.17042,27.55573],[49.17848,27.55785],[49.21957,27.55044],[49.23976,27.54511],[49.25514,27.53237],[49.27809,27.50324],[49.29908,27.4899],[49.30535,27.48212],[49.30787,27.47451],[49.30982,27.45669],[49.31276,27.44863],[49.30014,27.44806],[49.29265,27.45295],[49.28989,27.46235],[49.29176,27.47533],[49.28492,27.47533],[49.26393,27.45287],[49.20883,27.45808],[49.18922,27.44115],[49.18189,27.44115],[49.17506,27.45832],[49.15772,27.45848],[49.1198,27.44115],[49.1281,27.43692],[49.16139,27.42691],[49.18312,27.41112],[49.19549,27.40644],[49.202,27.39867],[49.20704,27.39517],[49.21258,27.3968],[49.2295,27.41181],[49.22967,27.41389],[49.23504,27.41816],[49.24025,27.42719],[49.25457,27.41779],[49.26385,27.41389],[49.25685,27.40005],[49.23748,27.38813],[49.22967,27.37971],[49.22674,27.36872],[49.22608,27.34276],[49.2234,27.33129],[49.23406,27.33389],[49.24578,27.33942],[49.26743,27.35521],[49.27882,27.35879],[49.29217,27.35545],[49.31276,27.34496],[49.30486,27.32551],[49.30787,27.3063],[49.31511,27.28681],[49.31902,27.26643],[49.31707,27.2237],[49.3226,27.20572],[49.33953,27.20783],[49.33839,27.1896],[49.34522,27.18281],[49.35597,27.185],[49.36687,27.19416],[49.36183,27.20913],[49.37086,27.21874],[49.3864,27.21963],[49.40089,27.20783],[49.40707,27.21528],[49.41236,27.20401],[49.39747,27.16258],[49.38885,27.15933],[49.36687,27.16063],[49.37485,27.14907],[49.3991,27.14472],[49.40707,27.13272],[49.41717,27.13813],[49.42359,27.14647],[49.43507,27.16681],[49.43588,27.16234],[49.4419,27.16063],[49.43189,27.14277],[49.4402,27.1398],[49.46567,27.14696],[49.48129,27.14444],[49.50831,27.13398],[49.52443,27.13272],[49.49732,27.15908],[49.48911,27.17475],[49.50408,27.18793],[49.51645,27.18838],[49.53492,27.17617],[49.54493,27.17365],[49.55275,27.17674],[49.57211,27.19416],[49.56861,27.17829],[49.55942,27.154],[49.5586,27.13955],[49.56463,27.11669],[49.57008,27.10407],[49.57553,27.09858],[49.59425,27.09072],[49.61248,27.07197],[49.67018,26.99091],[49.69947,26.95824],[49.70826,26.95213],[49.73666,26.9409],[49.77084,26.91356],[49.83302,26.88801],[49.87184,26.86249],[49.89405,26.8603],[49.91725,26.86148],[49.94215,26.85834],[49.97299,26.84235],[50.00196,26.81696],[50.05201,26.75593],[50.0691,26.72858],[50.14194,26.68134],[50.15846,26.66486],[50.16188,26.63923],[50.11671,26.67536],[50.09254,26.68911],[50.03785,26.69522],[50.02369,26.69953],[50.01401,26.71076],[50.00636,26.74763],[49.99757,26.74136],[49.98846,26.72443],[49.98374,26.7082],[49.98325,26.68374],[49.9865,26.67276],[49.99366,26.66315],[50.00367,26.65363],[50.00636,26.64859],[50.00221,26.58739],[50.00367,26.57071],[50.03061,26.49461],[50.04184,26.47846],[50.05828,26.46393],[50.07651,26.45376],[50.16228,26.42707],[50.19158,26.40355],[50.20924,26.36953],[50.21656,26.32392],[50.21599,26.21507],[50.21225,26.19131],[50.202,26.17137],[50.18238,26.1601],[50.18189,26.17548],[50.17408,26.18073],[50.16342,26.17723],[50.15455,26.16625],[50.16098,26.1411],[50.15838,26.10248],[50.1504,26.06322],[50.14137,26.03596],[50.12582,26.04645],[50.12143,26.06074],[50.12029,26.09121],[50.11329,26.10326],[50.08676,26.12531],[50.08131,26.1291],[50.07667,26.1291],[50.07358,26.13154],[50.07162,26.15925],[50.06568,26.17373],[50.05787,26.18358],[50.04566,26.19452],[50.0324,26.20108],[50.02101,26.19766],[49.99488,26.15217],[49.97584,26.13959],[49.98097,26.12612],[49.99732,26.10822],[49.99952,26.1009],[50.0088,26.08649],[50.01043,26.07689],[49.99318,26.06806],[49.99,26.06045],[49.9961,26.03172],[49.99692,26.01728],[49.99,26.00178],[50.00685,25.99653],[50.02101,26.00446],[50.02817,26.01948],[50.0241,26.03596],[50.0337,26.03335],[50.04054,26.02827],[50.05201,26.01545],[50.05738,26.01317],[50.06463,26.01337],[50.0669,25.99628],[50.10133,25.98949],[50.1115,25.97602],[50.11671,25.95824],[50.1277,25.94037],[50.1277,25.93354],[50.10776,25.91474],[50.11834,25.86786],[50.14194,25.81611],[50.16188,25.7827],[50.22202,25.71735],[50.24724,25.67943],[50.2575,25.6319],[50.25123,25.6319],[50.23374,25.67951],[50.22674,25.68716],[50.21461,25.68964],[50.19996,25.69587],[50.18751,25.70356],[50.17498,25.72045],[50.15919,25.73176],[50.14471,25.73334],[50.14137,25.71381],[50.14869,25.69986],[50.17433,25.68301],[50.18238,25.67284],[50.18922,25.68716],[50.19606,25.68716],[50.23406,25.61518],[50.34799,25.48212],[50.37428,25.46117],[50.36199,25.503],[50.38136,25.51289],[50.38592,25.51065],[50.38999,25.48867],[50.40211,25.47797],[50.41017,25.4641],[50.42872,25.4562],[50.4629,25.44693],[50.47153,25.4372],[50.4909,25.39228],[50.48341,25.38544],[50.49562,25.37006],[50.50912,25.34357],[50.52036,25.31477],[50.52508,25.29267],[50.51759,25.24486],[50.51979,25.23212],[50.52906,25.21629],[50.53468,25.19904],[50.54908,25.17479],[50.55161,25.15949],[50.54542,25.1186],[50.55348,25.07795],[50.56218,25.05484],[50.57276,25.04287],[50.58041,25.06216],[50.60629,25.04271],[50.63347,25.01142],[50.64479,24.99506],[50.66163,24.97997],[50.68141,24.91389],[50.70655,24.89887],[50.72641,24.88166],[50.73504,24.84341],[50.73732,24.78217],[50.75001,24.75312],[50.76059,24.7364],[50.77133,24.72696],[50.78614,24.72724],[50.80787,24.74665],[50.88101,24.6364],[50.9286,24.58721],[50.97888,24.56773],[51.03888,24.55987],[51.09546,24.56018],[51.14745,24.57628],[51.21526,24.62585],[51.21762,24.61766],[51.26881,24.6245],[51.27817,24.61888],[51.28639,24.60838],[51.29518,24.60261],[51.30641,24.61083],[51.30747,24.60309],[51.30633,24.59406],[51.30242,24.58661],[51.29591,24.58356],[51.29029,24.57852],[51.29225,24.56782],[51.29689,24.55809],[51.29957,24.55622],[51.29656,24.52192],[51.30242,24.51716],[51.32008,24.52269],[51.33367,24.53205],[51.36109,24.57612],[51.37517,24.5891],[51.38795,24.59707],[51.39584,24.60834],[51.39527,24.63133],[51.41,24.62433],[51.4284,24.62287],[51.44386,24.6197],[51.45533,24.59418],[51.48308,24.59219],[51.4983,24.58356],[51.4983,24.57612],[51.48211,24.56924],[51.46144,24.56346],[51.4437,24.55476],[51.43621,24.5388],[51.4323,24.53876],[51.40952,24.51585],[51.39527,24.48794],[51.33619,24.44794],[51.31137,24.41486],[51.30641,24.40599],[51.30226,24.37401],[51.29957,24.36445],[51.29965,24.34634],[51.29591,24.34394],[51.28045,24.34357],[51.27857,24.34052],[51.27882,24.30777],[51.28224,24.30297],[51.34498,24.2978],[51.36785,24.30297],[51.3978,24.32152],[51.41285,24.32347],[51.47901,24.31086],[51.49692,24.29828],[51.52613,24.26826],[51.56935,24.25617],[51.57554,24.21772],[51.57316,24.12783],[51.57854,24.10184],[51.59352,24.07832],[52.53848,22.95475],[52.55848,22.93858],[52.58307,22.93111],[55.1053,22.62095],[55.12039,22.62343],[55.18684,22.70358],[55.62671,22.02377],[55.63705,22.00191],[55.63757,21.97897],[54.97838,19.99542],[51.97861,18.99564],[49.12882,18.6121],[49.03585,18.57972],[48.18443,18.16393],[48.16195,18.14892],[47.58901,17.46328],[47.57211,17.43232],[47.45796,17.13089],[47.42757,17.09183],[47.1909,16.95891],[47.16134,16.94744],[47.12878,16.94305],[46.983,16.9491],[46.97034,16.95685],[46.7472,17.25476],[46.7101,17.27538],[46.32263,17.22407],[45.43038,17.31202],[45.3847,17.32649],[45.22213,17.41739],[45.16539,17.42839],[44.64645,17.43181],[44.62465,17.42721],[44.56196,17.40447],[44.5338,17.40287],[44.46517,17.41646],[44.40414,17.41873],[44.30735,17.40896],[44.23056,17.39186],[44.21154,17.39062],[44.16938,17.40235],[44.14901,17.40483],[44.13429,17.3947],[44.11966,17.36995],[44.10447,17.35196],[44.08535,17.34344],[44.05936,17.34706],[44.02096,17.36602],[44.00391,17.36783],[43.98231,17.35682],[43.96711,17.33956],[43.9543,17.32003],[43.93869,17.3052],[43.91513,17.30184],[43.90329,17.30432],[43.89735,17.30737],[43.89404,17.31217],[43.89006,17.32018],[43.89265,17.35103],[43.88671,17.35367],[43.86324,17.34695],[43.84578,17.34618],[43.80619,17.34959],[43.76878,17.34551],[43.75064,17.34566],[43.73064,17.35243],[43.6893,17.38385],[43.61954,17.45883],[43.57706,17.48297],[43.50337,17.51345],[43.48714,17.51749],[43.45314,17.51878],[43.43495,17.52286],[43.41289,17.51996],[43.39102,17.51196],[43.30307,17.45904],[43.21595,17.38721],[43.16504,17.32592],[43.2222,17.30783],[43.24184,17.29342],[43.25217,17.27197],[43.2486,17.25192],[43.22618,17.24127],[43.20334,17.23631],[43.17688,17.22551],[43.15616,17.2097],[43.15006,17.18996],[43.15099,17.16686],[43.1453,17.14655],[43.12432,17.10697],[43.11843,17.08625],[43.12246,17.07012],[43.13032,17.05348],[43.136,17.03142],[43.1359,17.00961],[43.13156,16.99044],[43.11543,16.95183],[43.10872,16.92698],[43.11264,16.91003],[43.13373,16.87101],[43.14582,16.83448],[43.15734,16.82538],[43.19445,16.81546],[43.20473,16.80771],[43.2115,16.79686],[43.21285,16.78389],[43.20861,16.7734],[43.18287,16.758],[43.16851,16.73722],[43.17068,16.72348],[43.17977,16.70823],[43.18608,16.68327],[43.17998,16.66462],[43.16293,16.66152],[43.12277,16.6733],[43.09776,16.67779],[43.08495,16.67257],[43.07999,16.65883],[43.07864,16.63769],[43.07461,16.61878],[43.04877,16.55346],[43.03627,16.5363],[43.01467,16.5207],[42.97095,16.49579],[42.95627,16.49073],[42.91741,16.4838],[42.90677,16.47936],[42.90294,16.46628],[42.90677,16.43492],[42.89819,16.4189],[42.87245,16.40164],[42.83731,16.38722],[42.78948,16.37096],[42.7881,16.37368],[42.78826,16.40986],[42.78126,16.42023],[42.79493,16.45283],[42.78826,16.47187],[42.73976,16.52456],[42.72869,16.54719],[42.72495,16.56635],[42.72592,16.61018],[42.73764,16.65282],[42.73732,16.67113],[42.71925,16.67536],[42.72592,16.68281],[42.71388,16.69367],[42.70387,16.70905],[42.70151,16.72333],[42.71241,16.73062],[42.70631,16.74063],[42.67823,16.76472],[42.65919,16.78998],[42.63575,16.81517],[42.59693,16.83682],[42.58693,16.83796],[42.57586,16.83234],[42.54176,16.878],[42.55568,16.92206],[42.54851,16.93814],[42.54859,16.98725],[42.5442,17.00434],[42.52491,17.01496],[42.52068,17.02822],[42.51271,17.03701],[42.45973,17.03848],[42.44752,17.04902],[42.43751,17.06513],[42.42506,17.09308],[42.42058,17.10773],[42.41554,17.14203],[42.41082,17.15575],[42.4017,17.16352],[42.3567,17.18244],[42.35922,17.16519],[42.36647,17.14932],[42.38404,17.121],[42.36378,17.10871],[42.37387,17.04328],[42.36297,17.02481],[42.35727,17.0456],[42.3567,17.11416],[42.35255,17.13467],[42.33912,17.17357],[42.32162,17.30927],[42.31072,17.35098],[42.31666,17.40082],[42.3152,17.42206],[42.30787,17.44432],[42.30152,17.4536],[42.29168,17.45742],[42.27361,17.45995],[42.26857,17.46483],[42.26678,17.47358],[42.26059,17.48505],[42.15284,17.5738],[42.14381,17.57661],[42.14088,17.57119],[42.13404,17.57982],[42.1233,17.60077],[42.10353,17.62751],[42.09352,17.65209],[42.08619,17.65542],[42.06349,17.65086],[42.05323,17.65322],[42.04884,17.66568],[42.04379,17.6743],[42.0005,17.71748],[41.99244,17.71271],[41.97934,17.71064],[41.96974,17.71979],[41.93897,17.76187],[41.92872,17.76716],[41.86948,17.8205],[41.84783,17.81196],[41.81039,17.8369],[41.78761,17.83356],[41.77833,17.85981],[41.76075,17.87653],[41.73927,17.89069],[41.71925,17.90925],[41.67726,17.9606],[41.67091,17.97752],[41.6753,18.00129],[41.67368,18.00926],[41.65357,18.01533],[41.65105,18.03901],[41.6089,18.07518],[41.59352,18.09589],[41.60255,18.11469],[41.58513,18.1354],[41.57797,18.14639],[41.57521,18.15941],[41.57081,18.16519],[41.56202,18.16816],[41.55641,18.1743],[41.56105,18.18985],[41.5407,18.19188],[41.52133,18.19668],[41.52809,18.20718],[41.5337,18.21035],[41.52752,18.22232],[41.51857,18.22797],[41.50717,18.22826],[41.49334,18.22394],[41.50465,18.24299],[41.50563,18.25178],[41.50017,18.25873],[41.50636,18.2722],[41.5005,18.279],[41.48764,18.28083],[41.47218,18.2792],[41.47535,18.29287],[41.47202,18.31196],[41.46461,18.33096],[41.45541,18.34406],[41.45086,18.35602],[41.44467,18.39399],[41.43971,18.41059],[41.43816,18.46418],[41.4358,18.46996],[41.43295,18.47427],[41.4284,18.47687],[41.42107,18.47777],[41.41578,18.48151],[41.41147,18.50576],[41.37526,18.52949],[41.3698,18.53583],[41.36818,18.54629],[41.36329,18.55866],[41.35572,18.56904],[41.34018,18.57563],[41.3283,18.58763],[41.32211,18.58564],[41.3117,18.57534],[41.30779,18.57343],[41.29689,18.57734],[41.2754,18.59203],[41.26734,18.6013],[41.24057,18.65795],[41.22926,18.67333],[41.21656,18.68635],[41.21022,18.69794],[41.20924,18.71161],[41.21217,18.73102],[41.23601,18.79662],[41.23951,18.81704],[41.24252,18.8249],[41.24781,18.82844],[41.24903,18.83417],[41.23951,18.84833],[41.23536,18.84911],[41.21217,18.86201],[41.17124,18.87165],[41.1609,18.90298],[41.16033,18.90888],[41.14096,18.9333],[41.13649,18.93651],[41.13575,18.94693],[41.13722,18.95771],[41.14332,18.97748],[41.15675,19.00385],[41.15886,19.02216],[41.16375,19.04295],[41.17652,19.06737],[41.16782,19.08222],[41.14943,19.09374],[41.12965,19.10163],[41.08644,19.11359],[41.06861,19.12539],[41.05836,19.15298],[41.0442,19.17414],[41.04021,19.18354],[41.0407,19.19465],[41.04819,19.21772],[41.04754,19.22744],[41.04168,19.24575],[41.04021,19.25585],[41.03614,19.26455],[41.01783,19.27399],[41.01352,19.28286],[41.00912,19.30402],[40.9983,19.31493],[40.98292,19.3227],[40.9559,19.34333],[40.95769,19.34642],[40.959,19.35859],[40.95672,19.36864],[40.94695,19.38418],[40.94313,19.40331],[40.93767,19.41938],[40.93832,19.43057],[40.94508,19.44066],[40.95436,19.44868],[40.95924,19.456],[40.95216,19.46406],[40.9546,19.4748],[40.95249,19.48526],[40.94695,19.49372],[40.94467,19.50568],[40.85914,19.53449],[40.83546,19.54662],[40.78468,19.59634],[40.76043,19.60871],[40.76043,19.61494],[40.77125,19.61351],[40.79444,19.60126],[40.80063,19.64224],[40.79803,19.69233],[40.79086,19.71406],[40.74488,19.777],[40.72543,19.78925],[40.674,19.79499],[40.65406,19.79434],[40.64503,19.78474],[40.65659,19.75951],[40.64161,19.77123],[40.62867,19.79214],[40.62037,19.81208],[40.61948,19.82099],[40.60515,19.82953],[40.56446,19.88589],[40.53354,19.904],[40.52703,19.91035],[40.52801,19.91755],[40.54054,19.94392],[40.53452,19.96182],[40.52263,19.97248],[40.4922,19.98485],[40.4546,20.00658],[40.44557,20.00971],[40.43637,20.02334],[40.41847,20.0312],[40.39357,20.06428],[40.38551,20.0681],[40.33375,20.07953],[40.31349,20.09072],[40.26783,20.12531],[40.23211,20.16356],[40.23878,20.17805],[40.22185,20.18903],[40.19565,20.19599],[40.16481,20.20039],[40.15895,20.20539],[40.14959,20.21821],[40.12501,20.24112],[40.12599,20.24555],[40.11557,20.25165],[40.08383,20.27924],[40.06764,20.28653],[40.04518,20.28612],[40.02036,20.28205],[40.00034,20.27513],[39.99195,20.26667],[39.96803,20.27509],[39.9253,20.29938],[39.90309,20.30825],[39.90431,20.29556],[39.91017,20.28848],[39.94109,20.26854],[39.94711,20.26215],[39.94068,20.25918],[39.92319,20.26358],[39.82537,20.32005],[39.81129,20.33149],[39.79819,20.33739],[39.77833,20.34272],[39.7601,20.35082],[39.74464,20.38117],[39.72739,20.39692],[39.67359,20.43623],[39.6465,20.46157],[39.58709,20.55215],[39.56739,20.56769],[39.56739,20.57514],[39.5774,20.57453],[39.5853,20.57587],[39.59107,20.58027],[39.59474,20.58877],[39.57936,20.59138],[39.56666,20.59829],[39.54347,20.61921],[39.53696,20.63028],[39.53102,20.65949],[39.52638,20.67072],[39.49293,20.70624],[39.48992,20.72289],[39.50603,20.7464],[39.47136,20.75747],[39.45753,20.75947],[39.45997,20.75165],[39.46461,20.74604],[39.47787,20.73896],[39.45826,20.74486],[39.43629,20.75666],[39.42319,20.77172],[39.43019,20.78742],[39.42091,20.79169],[39.41676,20.79776],[39.41765,20.80532],[39.42335,20.81411],[39.42775,20.80638],[39.43539,20.80077],[39.45753,20.79426],[39.45118,20.81159],[39.44874,20.8273],[39.43727,20.82575],[39.43019,20.82835],[39.41676,20.8465],[39.41131,20.84687],[39.40968,20.82835],[39.38836,20.84113],[39.35971,20.86262],[39.33912,20.88744],[39.34083,20.91031],[39.35255,20.89891],[39.35963,20.89672],[39.36183,20.90351],[39.35841,20.91535],[39.35279,20.91987],[39.34547,20.92219],[39.32781,20.93183],[39.29713,20.92398],[39.29689,20.92797],[39.26873,20.96857],[39.26238,20.98306],[39.25953,20.99982],[39.25896,21.02387],[39.25571,21.03295],[39.24204,21.04169],[39.23902,21.05093],[39.2378,21.06289],[39.23406,21.06721],[39.22755,21.06928],[39.18539,21.09724],[39.17433,21.10887],[39.16798,21.1363],[39.1587,21.15591],[39.15651,21.16755],[39.16822,21.18529],[39.17018,21.19147],[39.16326,21.20588],[39.12574,21.2604],[39.11199,21.26822],[39.08074,21.31501],[39.15992,21.37983],[39.17107,21.40412],[39.17237,21.43602],[39.16472,21.46491],[39.14967,21.48013],[39.14967,21.48566],[39.16041,21.49445],[39.15895,21.5078],[39.14275,21.54092],[39.13006,21.5196],[39.1198,21.51691],[39.11036,21.52814],[39.10125,21.54841],[39.10865,21.55459],[39.0923,21.57656],[39.08872,21.60586],[39.09018,21.63703],[39.08814,21.66446],[39.0774,21.69156],[39.07936,21.70637],[39.09815,21.71284],[39.10353,21.71857],[39.10857,21.73212],[39.10906,21.74779],[39.10125,21.76],[39.0936,21.73916],[39.08839,21.73045],[39.08074,21.72582],[39.06674,21.72525],[39.06349,21.73005],[39.06373,21.73794],[39.06031,21.7464],[39.04542,21.75873],[39.04037,21.76683],[39.03736,21.77607],[39.0359,21.79263],[39.03297,21.80097],[39.0193,21.80781],[39.01246,21.82209],[38.97855,21.86207],[38.9496,21.92192],[38.93125,22.00607],[38.93265,22.02519],[38.95914,22.03444],[38.98621,22.00224],[39.00569,22.00201],[39.01002,22.02411],[39.01002,22.04361],[39.01246,22.05427],[39.03004,22.06708],[39.03297,22.07221],[39.035,22.09113],[39.04444,22.1308],[39.04664,22.15107],[39.04037,22.15107],[39.02613,22.11689],[39.0193,22.13158],[39.02272,22.14248],[39.02931,22.15322],[39.03297,22.16779],[39.03297,22.20881],[39.04037,22.23578],[39.07325,22.27115],[39.08351,22.31354],[39.09059,22.32339],[39.10865,22.34223],[39.12232,22.37018],[39.14275,22.39061],[39.14275,22.40322],[39.13738,22.4147],[39.12761,22.42121],[39.11492,22.41861],[39.10816,22.40892],[39.10125,22.38044],[39.0948,22.37018],[39.07026,22.36583],[39.06923,22.39449],[39.08207,22.43629],[39.07422,22.49097],[39.08152,22.54679],[39.07399,22.57418],[39.06625,22.58755],[39.03858,22.62271],[39.01246,22.67866],[38.99301,22.70856],[38.98569,22.72427],[38.98829,22.7364],[39.01466,22.75898],[39.01303,22.76679],[38.96502,22.81631],[38.94549,22.8312],[38.93678,22.82636],[38.96469,22.79466],[38.97145,22.76386],[38.97828,22.75373],[38.97088,22.74689],[38.95771,22.77496],[38.92985,22.81502],[38.9026,22.84317],[38.851,22.92972],[38.85117,22.94327],[38.88041,22.92849],[38.91285,22.86197],[38.93051,22.85676],[38.94142,22.85053],[38.95102,22.85196],[38.95883,22.85912],[38.96469,22.87043],[38.95428,22.8819],[38.93735,22.9121],[38.91961,22.92109],[38.91147,22.92845],[38.90528,22.93846],[38.9026,22.94929],[38.89389,22.96515],[38.87387,22.97281],[38.85108,22.97797],[38.83432,22.98652],[38.81422,22.98273],[38.79957,22.99868],[38.77906,23.04116],[38.79021,23.05134],[38.79868,23.06464],[38.80437,23.07925],[38.80641,23.09325],[38.80393,23.12186],[38.79921,23.13726],[38.79835,23.1496],[38.78666,23.15456],[38.77762,23.13929],[38.76512,23.1611],[38.74769,23.18296],[38.72926,23.21625],[38.71144,23.23575],[38.70395,23.25776],[38.69171,23.27296],[38.68892,23.28654],[38.68025,23.3038],[38.68042,23.31825],[38.67287,23.34815],[38.65933,23.37179],[38.64654,23.40073],[38.63711,23.46817],[38.63124,23.49005],[38.62892,23.50788],[38.61215,23.52432],[38.60475,23.53539],[38.60018,23.56825],[38.57789,23.55663],[38.56804,23.56249],[38.55991,23.56249],[38.56088,23.54572],[38.57032,23.53693],[38.59547,23.52839],[38.59547,23.52147],[38.56202,23.52436],[38.54006,23.54324],[38.53922,23.59187],[38.49485,23.64464],[38.46437,23.73607],[38.45997,23.76081],[38.45265,23.784],[38.43702,23.80207],[38.42709,23.80671],[38.39957,23.81409],[38.39013,23.82413],[38.37748,23.85602],[38.36535,23.87045],[38.33271,23.87943],[38.31913,23.88639],[38.30934,23.89338],[38.29956,23.91022],[38.28334,23.9278],[38.25891,23.94482],[38.23847,23.95058],[38.22209,23.95257],[38.18536,23.97593],[38.16564,23.99292],[38.14664,24.01491],[38.12618,24.02943],[38.07914,24.07039],[38.06288,24.07601],[38.04573,24.06739],[38.00758,24.09308],[37.96642,24.11709],[37.93532,24.13901],[37.94112,24.15095],[37.95842,24.16208],[37.98307,24.16566],[37.97326,24.17471],[37.95846,24.17031],[37.93953,24.16144],[37.9322,24.17421],[37.94377,24.19136],[37.94795,24.20705],[37.93729,24.21085],[37.93069,24.20341],[37.91837,24.20123],[37.91258,24.19154],[37.9183,24.18627],[37.92154,24.17727],[37.9239,24.15555],[37.91813,24.14959],[37.89601,24.15721],[37.86563,24.14989],[37.82016,24.18171],[37.76759,24.22139],[37.75866,24.24161],[37.74558,24.24988],[37.71041,24.26646],[37.69571,24.27921],[37.67609,24.29124],[37.64096,24.29169],[37.62599,24.28144],[37.62273,24.26824],[37.62839,24.24804],[37.58577,24.24666],[37.57517,24.26164],[37.54571,24.27441],[37.52272,24.26773],[37.50064,24.2887],[37.48675,24.31115],[37.46466,24.33959],[37.4294,24.36731],[37.41796,24.40097],[37.42785,24.42113],[37.43525,24.41887],[37.45495,24.40687],[37.46321,24.42255],[37.45667,24.44125],[37.31923,24.62424],[37.22853,24.7377],[37.22706,24.76537],[37.23048,24.77269],[37.23129,24.78262],[37.23032,24.79255],[37.22706,24.79955],[37.21974,24.8028],[37.2068,24.791],[37.1963,24.78962],[37.17872,24.79938],[37.16578,24.8155],[37.14861,24.85102],[37.17408,24.85057],[37.19654,24.84724],[37.21892,24.84662],[37.24415,24.85444],[37.2566,24.87124],[37.25807,24.92178],[37.27996,24.9641],[37.27703,24.98664],[37.25782,25.02855],[37.25147,25.05256],[37.25782,25.11148],[37.25603,25.1341],[37.25074,25.15546],[37.2422,25.17528],[37.23048,25.19367],[37.21168,25.21426],[37.18002,25.23908],[37.17066,25.2578],[37.16228,25.26569],[37.14234,25.27977],[37.12257,25.29955],[37.10532,25.32217],[37.09327,25.34447],[37.08644,25.38544],[37.07984,25.3946],[37.06463,25.40974],[37.05982,25.41962],[37.0774,25.43106],[37.06267,25.45368],[37.01824,25.4947],[37.01059,25.50739],[36.99448,25.54995],[36.98927,25.55695],[36.9756,25.56513],[36.97039,25.57046],[36.96901,25.57616],[36.96998,25.58857],[36.95826,25.60635],[36.9441,25.6352],[36.93629,25.64615],[36.92351,25.65477],[36.8943,25.66559],[36.8816,25.67284],[36.8423,25.7298],[36.81739,25.75796],[36.79566,25.75947],[36.79371,25.74828],[36.80047,25.73672],[36.80397,25.72679],[36.79225,25.72061],[36.77955,25.72407],[36.74887,25.74388],[36.7339,25.74852],[36.72495,25.75389],[36.70232,25.77998],[36.69606,25.78954],[36.69483,25.7956],[36.69606,25.81713],[36.69386,25.8229],[36.68181,25.82559],[36.67563,25.83051],[36.66342,25.85566],[36.66212,25.8791],[36.67164,25.90143],[36.69264,25.92328],[36.70582,25.94375],[36.70948,25.97114],[36.70558,25.99933],[36.69606,26.02228],[36.67237,26.04523],[36.64064,26.06021],[36.60564,26.06826],[36.57252,26.07071],[36.53663,26.08242],[36.51271,26.11099],[36.44923,26.24689],[36.42628,26.28181],[36.38282,26.33454],[36.30893,26.49824],[36.22983,26.62556],[36.18214,26.68024],[36.1242,26.72675],[36.09767,26.75397],[36.08188,26.79727],[36.05177,26.84467],[36.03199,26.90681],[36.01393,26.90233],[36.00026,26.91352],[35.97674,26.94774],[35.91188,26.99958],[35.83172,27.09272],[35.80307,27.14208],[35.79982,27.15009],[35.79859,27.15998],[35.80079,27.16816],[35.81056,27.18244],[35.81284,27.19107],[35.80795,27.20307],[35.78403,27.2355],[35.69996,27.32477],[35.6526,27.35383],[35.64039,27.36347],[35.61671,27.38963],[35.58985,27.4289],[35.55958,27.45563],[35.5215,27.51846],[35.51051,27.54418],[35.50685,27.56444],[35.5062,27.60053],[35.50026,27.61933],[35.49195,27.63239],[35.459,27.6634],[35.44077,27.69025],[35.41505,27.75137],[35.39438,27.777],[35.38494,27.78262],[35.36476,27.7897],[35.35694,27.79438],[35.35133,27.80142],[35.34685,27.81501],[35.33676,27.83369],[35.33237,27.86221],[35.32276,27.87629],[35.27101,27.9278],[35.25522,27.95279],[35.24562,27.96235],[35.22999,27.96874],[35.18149,28.00292],[35.18149,27.99604],[35.17465,27.99604],[35.16358,28.00934],[35.17652,28.01948],[35.19907,28.02822],[35.21632,28.03767],[35.2269,28.03315],[35.22584,28.03876],[35.21632,28.05439],[35.18263,28.06192],[35.17465,28.06501],[35.16782,28.06501],[35.16782,28.05817],[35.16179,28.05817],[35.15187,28.07103],[35.14479,28.0764],[35.13722,28.0786],[35.11036,28.07893],[35.09864,28.08975],[35.05193,28.11957],[35.042,28.11302],[35.01971,28.11347],[35.02622,28.10297],[35.03077,28.09911],[35.00953,28.11054],[34.99789,28.1142],[34.97584,28.10342],[34.94549,28.09536],[34.93727,28.09125],[34.93133,28.08601],[34.92775,28.0786],[34.92091,28.0786],[34.92091,28.08544],[34.91407,28.08544],[34.90089,28.08226],[34.88063,28.08564],[34.8602,28.08539],[34.84645,28.07119],[34.84376,28.07632],[34.83888,28.0786],[34.83888,28.08544],[34.84645,28.08544],[34.84645,28.09292],[34.84262,28.09984],[34.84767,28.10554],[34.86622,28.11278],[34.8567,28.11644],[34.84702,28.11762],[34.83676,28.11628],[34.82537,28.11278],[34.82537,28.1059],[34.83277,28.1059],[34.83277,28.09911],[34.82162,28.09577],[34.8143,28.08893],[34.80486,28.07119],[34.80177,28.07539],[34.79176,28.0786],[34.80161,28.0904],[34.8191,28.09911],[34.8191,28.11278],[34.80494,28.11335],[34.79371,28.11107],[34.78647,28.10472],[34.78443,28.09292],[34.77735,28.09618],[34.77076,28.09292],[34.77076,28.1059],[34.76499,28.1059],[34.76499,28.09911],[34.75701,28.09911],[34.75196,28.10761],[34.74732,28.11201],[34.74244,28.11156],[34.73658,28.1059],[34.72739,28.11213],[34.71534,28.12763],[34.70924,28.14008],[34.6985,28.13154],[34.695,28.12645],[34.68198,28.13516],[34.6784,28.13076],[34.67775,28.1208],[34.67457,28.11278],[34.65357,28.10358],[34.64715,28.09911],[34.64715,28.09292],[34.6683,28.0786],[34.6683,28.07119],[34.66179,28.07079],[34.65528,28.06501],[34.64715,28.07119],[34.64234,28.05459],[34.64145,28.04169],[34.63502,28.03327],[34.61305,28.03022],[34.61476,28.03498],[34.62045,28.03767],[34.61305,28.0445],[34.60865,28.05882],[34.6067,28.07184],[34.60621,28.09602],[34.59889,28.10326],[34.57439,28.09406],[34.57887,28.1059],[34.57276,28.11278]]],[[[41.75561,16.87839],[41.75708,16.89637],[41.77186,16.89241],[41.77718,16.88467],[41.78922,16.87559],[41.82808,16.85861],[41.84942,16.83533],[41.86006,16.82112],[41.86392,16.79669],[41.86329,16.78514],[41.88114,16.76574],[41.89847,16.75148],[41.90514,16.74758],[41.94139,16.75117],[41.95332,16.7331],[41.97343,16.73166],[41.9936,16.73793],[42.01105,16.73908],[42.02302,16.72743],[42.02292,16.71587],[42.03499,16.71577],[42.06461,16.72838],[42.03649,16.73374],[42.02174,16.7558],[42.03386,16.77383],[42.04135,16.80231],[42.04786,16.81208],[42.06218,16.8142],[42.07651,16.80866],[42.10408,16.79228],[42.10527,16.77558],[42.11849,16.75492],[42.11655,16.74417],[42.14117,16.7406],[42.14769,16.72127],[42.18644,16.70553],[42.18631,16.6914],[42.18346,16.67343],[42.17656,16.65164],[42.17909,16.63491],[42.1882,16.60526],[42.17856,16.58348],[42.15584,16.58498],[42.12797,16.61736],[42.10525,16.62526],[42.08382,16.62672],[42.07317,16.6358],[42.10143,16.64714],[42.11763,16.65986],[42.11111,16.68047],[42.08575,16.69353],[42.03072,16.68754],[42.01056,16.68256],[41.97553,16.66355],[41.95546,16.67011],[41.91686,16.7051],[41.89409,16.71039],[41.8674,16.72857],[41.84337,16.74672],[41.83142,16.76735],[41.82494,16.79824],[41.80756,16.80992],[41.79009,16.81004],[41.77817,16.81269],[41.78077,16.81932],[41.77956,16.84095],[41.7649,16.85904],[41.75561,16.87839]]],[[[41.83497,16.89167],[41.8462,16.90127],[41.87037,16.90265],[41.88795,16.90778],[41.90089,16.91836],[41.91098,16.93602],[41.92311,16.93504],[41.92848,16.9549],[41.92091,16.97895],[41.89405,16.99067],[41.8462,16.99746],[41.84376,17.0019],[41.85141,17.00991],[41.86085,17.01362],[41.86329,17.00495],[41.89568,17.0019],[41.92115,16.99201],[41.93816,16.97289],[41.94516,16.94229],[41.94547,16.92327],[41.93992,16.90147],[41.9438,16.88346],[41.97596,16.87551],[41.98518,16.8536],[41.9441,16.85301],[41.9323,16.83836],[41.93816,16.82136],[41.96266,16.81314],[41.97657,16.805],[41.99544,16.797],[42.00196,16.77256],[42.00185,16.76099],[41.97247,16.77791],[41.93632,16.78846],[41.91889,16.79115],[41.90422,16.80282],[41.86431,16.85193],[41.83497,16.89167]]],[[[49.45362,27.31639],[49.47218,27.34203],[49.50123,27.36054],[49.53126,27.36547],[49.54249,27.36371],[49.56544,27.35175],[49.58513,27.34431],[49.68881,27.31769],[49.67042,27.31143],[49.65512,27.3146],[49.64039,27.32099],[49.62379,27.32445],[49.60727,27.32246],[49.59181,27.3168],[49.57765,27.3083],[49.56544,27.2978],[49.55747,27.30549],[49.55177,27.30402],[49.5381,27.31147],[49.5381,27.31769],[49.55144,27.32282],[49.55405,27.32827],[49.54982,27.33446],[49.54151,27.34186],[49.53126,27.34618],[49.52027,27.34463],[49.48756,27.33413],[49.47495,27.32233],[49.46388,27.30663],[49.45623,27.29035],[49.45362,27.31639]]],[[[36.94435,25.4488],[36.95183,25.46751],[36.96144,25.47777],[36.98748,25.47602],[36.99928,25.46943],[37.00896,25.44986],[37.01539,25.45059],[37.01759,25.45771],[37.02174,25.45279],[37.02687,25.41962],[37.04233,25.40737],[37.04005,25.40644],[37.02809,25.40933],[37.02719,25.40518],[37.03126,25.39875],[37.02329,25.39985],[37.00359,25.41153],[36.99855,25.42243],[37.00026,25.42919],[36.99057,25.43012],[36.97828,25.42695],[36.97145,25.43529],[36.96656,25.44896],[36.95753,25.44896],[36.94654,25.44188],[36.94435,25.4488]]],[[[36.77613,25.48916],[36.77654,25.4964],[36.78712,25.49409],[36.79689,25.48656],[36.8152,25.46589],[36.82374,25.45987],[36.84205,25.45075],[36.87713,25.43696],[36.90642,25.43163],[36.9157,25.4267],[36.92026,25.41958],[36.89943,25.41885],[36.89633,25.40595],[36.90431,25.39411],[36.91627,25.39688],[36.92848,25.40912],[36.94215,25.41836],[36.95834,25.41901],[36.96144,25.4145],[36.94313,25.4055],[36.93539,25.39997],[36.92482,25.38911],[36.91481,25.37092],[36.89975,25.36103],[36.87867,25.37373],[36.85971,25.39289],[36.84148,25.40595],[36.79868,25.44741],[36.7951,25.45327],[36.7951,25.45698],[36.79705,25.45661],[36.79908,25.45869],[36.79721,25.4645],[36.77613,25.48916]]],[[[36.827,25.54719],[36.82895,25.56135],[36.84132,25.57001],[36.85564,25.5683],[36.86655,25.55752],[36.86606,25.54588],[36.84938,25.53303],[36.83985,25.53583],[36.827,25.54719]]],[[[36.68116,25.54414],[36.68141,25.55345],[36.69125,25.56721],[36.7068,25.57123],[36.7256,25.56517],[36.77508,25.53539],[36.78061,25.52774],[36.78582,25.51602],[36.80104,25.50764],[36.81666,25.50239],[36.83904,25.48994],[36.87452,25.46332],[36.88331,25.45433],[36.88185,25.45075],[36.87794,25.4477],[36.87916,25.44335],[36.84506,25.46442],[36.83481,25.46674],[36.82545,25.48412],[36.81617,25.48827],[36.80974,25.48578],[36.80063,25.48847],[36.78061,25.50438],[36.77133,25.50707],[36.76596,25.51423],[36.76539,25.52424],[36.74252,25.5292],[36.73992,25.5327],[36.74399,25.53144],[36.74293,25.53588],[36.73439,25.54662],[36.71925,25.55565],[36.70135,25.55467],[36.68881,25.54637],[36.68116,25.54414]]],[[[36.89812,25.58405],[36.8982,25.59545],[36.90463,25.60318],[36.9144,25.60664],[36.92303,25.60285],[36.92775,25.59308],[36.9284,25.58381],[36.92579,25.57656],[36.92115,25.57624],[36.91505,25.58055],[36.91391,25.5788],[36.91651,25.57144],[36.91586,25.56802],[36.91358,25.56916],[36.92042,25.55512],[36.92758,25.52851],[36.92319,25.51944],[36.91196,25.53498],[36.90545,25.53913],[36.90073,25.5493],[36.89812,25.58405]]],[[[36.49147,25.64509],[36.49968,25.66254],[36.52443,25.68578],[36.53533,25.69815],[36.54363,25.70287],[36.54526,25.69648],[36.5394,25.68496],[36.52263,25.66218],[36.52394,25.6529],[36.53102,25.6446],[36.53793,25.63984],[36.54884,25.63784],[36.55397,25.63133],[36.57032,25.62446],[36.5962,25.60025],[36.60939,25.59154],[36.62289,25.59052],[36.63111,25.59243],[36.6338,25.58999],[36.63453,25.58291],[36.63795,25.57461],[36.64715,25.57095],[36.65593,25.57184],[36.6574,25.57258],[36.65414,25.57372],[36.6548,25.57807],[36.65943,25.5821],[36.66774,25.581],[36.68312,25.57233],[36.68198,25.56635],[36.67604,25.55476],[36.66765,25.54975],[36.6478,25.56147],[36.56772,25.59846],[36.54607,25.60322],[36.5394,25.58918],[36.52947,25.59382],[36.51051,25.61042],[36.49773,25.62397],[36.49147,25.64509]]],[[[36.54005,25.76048],[36.54249,25.80195],[36.55844,25.83637],[36.58367,25.8579],[36.59083,25.86054],[36.57749,25.84858],[36.56658,25.83299],[36.55836,25.81582],[36.55543,25.79633],[36.56414,25.77879],[36.58326,25.76227],[36.59783,25.75837],[36.59734,25.7517],[36.58872,25.73851],[36.58546,25.72549],[36.58839,25.71426],[36.59604,25.70889],[36.6076,25.71125],[36.61109,25.70946],[36.60564,25.70112],[36.59555,25.6966],[36.58302,25.69868],[36.55177,25.71979],[36.54428,25.73135],[36.54005,25.76048]]]]},"source":"Natural Earth Admin 0 Countries, 1:10m, version 5.1.1","sourceUrl":"https://www.naturalearthdata.com/downloads/10m-cultural-vectors/10m-admin-0-countries/"}
