{"type":"Feature","properties":{"isoA2":"SB","name":"Solomon Islands"},"geometry":{"type":"MultiPolygon","coordinates":[[[[159.96339,-11.5206],[159.96925,-11.50319],[159.97609,-11.49139],[159.9961,-11.47308],[160.00327,-11.46111],[160.00668,-11.4651],[160.01759,-11.46852],[160.03199,-11.48358],[160.04176,-11.49049],[160.05242,-11.49521],[160.08717,-11.49481],[160.09669,-11.4992],[160.11671,-11.5167],[160.13738,-11.52988],[160.19337,-11.55633],[160.22299,-11.57838],[160.25847,-11.59547],[160.28745,-11.61736],[160.30812,-11.62664],[160.35279,-11.63983],[160.39389,-11.65781],[160.50367,-11.73602],[160.56446,-11.77304],[160.5822,-11.79485],[160.55885,-11.81121],[160.54689,-11.81129],[160.52963,-11.80682],[160.51783,-11.81121],[160.51246,-11.81813],[160.50457,-11.83831],[160.49732,-11.84588],[160.48317,-11.84498],[160.47096,-11.83172],[160.46013,-11.81504],[160.44956,-11.80438],[160.43434,-11.81097],[160.42848,-11.81121],[160.38527,-11.78379],[160.38006,-11.77703],[160.36891,-11.73455],[160.36012,-11.71689],[160.33969,-11.70135],[160.32936,-11.69834],[160.30812,-11.69703],[160.29811,-11.69451],[160.28582,-11.68694],[160.28338,-11.68084],[160.28517,-11.67474],[160.28484,-11.64951],[160.28207,-11.64186],[160.27076,-11.63299],[160.2518,-11.62615],[160.24057,-11.62469],[160.23048,-11.62615],[160.22584,-11.63104],[160.21632,-11.64804],[160.20997,-11.6535],[160.1893,-11.65537],[160.16847,-11.6535],[160.15122,-11.64715],[160.11248,-11.62607],[160.09262,-11.6194],[160.10076,-11.60508],[160.08253,-11.59222],[160.06642,-11.59352],[160.04135,-11.60508],[160.02369,-11.60068],[160.01059,-11.58945],[159.98194,-11.55429],[159.97779,-11.54022],[159.96551,-11.52581],[159.96339,-11.5206]]],[[[159.77735,-11.28362],[159.792,-11.28395],[159.8047,-11.29046],[159.82228,-11.29266],[159.83937,-11.29762],[159.85109,-11.30771],[159.8532,-11.32448],[159.82993,-11.31536],[159.81056,-11.31048],[159.79331,-11.30242],[159.77735,-11.28362]]],[[[161.71705,-10.21819],[161.73064,-10.20672],[161.75245,-10.22422],[161.76881,-10.25221],[161.77052,-10.27842],[161.74781,-10.28981],[161.74073,-10.28851],[161.73699,-10.2846],[161.73666,-10.27923],[161.74586,-10.26328],[161.74195,-10.25905],[161.73064,-10.25563],[161.7173,-10.23138],[161.71705,-10.21819]]],[[[161.28077,-10.30885],[161.2894,-10.28704],[161.28492,-10.27614],[161.29444,-10.26539],[161.29933,-10.26312],[161.29233,-10.24749],[161.29184,-10.22576],[161.30006,-10.20713],[161.3191,-10.20045],[161.3357,-10.20867],[161.34083,-10.21404],[161.39601,-10.20403],[161.50221,-10.25075],[161.60955,-10.31683],[161.66863,-10.36492],[161.68727,-10.3576],[161.70021,-10.36549],[161.72039,-10.39609],[161.73512,-10.40537],[161.75082,-10.407],[161.77849,-10.40651],[161.79103,-10.4118],[161.82057,-10.42978],[161.8357,-10.44695],[161.85727,-10.44793],[161.88054,-10.4428],[161.89519,-10.43377],[161.93247,-10.44598],[161.94947,-10.44695],[161.96355,-10.44061],[161.97234,-10.4485],[161.98707,-10.46722],[161.99757,-10.47479],[162.00929,-10.47845],[162.04184,-10.47479],[162.05885,-10.47828],[162.06397,-10.47584],[162.06853,-10.45477],[162.07521,-10.44964],[162.08424,-10.44769],[162.09376,-10.44752],[162.11362,-10.45648],[162.14039,-10.49375],[162.1631,-10.50872],[162.1714,-10.52402],[162.19174,-10.57789],[162.1963,-10.58465],[162.21534,-10.59677],[162.22047,-10.62957],[162.22885,-10.64463],[162.24195,-10.65618],[162.27752,-10.67962],[162.28777,-10.69199],[162.29176,-10.7077],[162.292,-10.76474],[162.28891,-10.76963],[162.28256,-10.77174],[162.27524,-10.77695],[162.26498,-10.78948],[162.27174,-10.81439],[162.30348,-10.81943],[162.34343,-10.81805],[162.37485,-10.82366],[162.38551,-10.81878],[162.39259,-10.82692],[162.39161,-10.8388],[162.37827,-10.84482],[162.35328,-10.83896],[162.34116,-10.83815],[162.32716,-10.84482],[162.31967,-10.84027],[162.27866,-10.83554],[162.20704,-10.80804],[162.18393,-10.81097],[162.16196,-10.83115],[162.15073,-10.82513],[162.13803,-10.82318],[162.11085,-10.82366],[162.10109,-10.82147],[162.08009,-10.80381],[162.0359,-10.78655],[162.01987,-10.77337],[162.01124,-10.76963],[161.99855,-10.77166],[161.96941,-10.78134],[161.96013,-10.77956],[161.95069,-10.7741],[161.90886,-10.76214],[161.91033,-10.76409],[161.90463,-10.7667],[161.89177,-10.76963],[161.88527,-10.76735],[161.87135,-10.7553],[161.8615,-10.75262],[161.85483,-10.7457],[161.84685,-10.72812],[161.84132,-10.74277],[161.84051,-10.7492],[161.81861,-10.73317],[161.80698,-10.73008],[161.79217,-10.73496],[161.78956,-10.72869],[161.77849,-10.71502],[161.76922,-10.71884],[161.761,-10.71233],[161.75636,-10.70208],[161.75807,-10.69451],[161.74871,-10.68279],[161.73683,-10.68182],[161.72348,-10.68369],[161.71022,-10.68027],[161.70297,-10.67067],[161.70021,-10.65936],[161.69484,-10.65],[161.67945,-10.64617],[161.66114,-10.62762],[161.64747,-10.61858],[161.64137,-10.62225],[161.63657,-10.63104],[161.62582,-10.62444],[161.60719,-10.60573],[161.60743,-10.59726],[161.60304,-10.59124],[161.58668,-10.58465],[161.58872,-10.57708],[161.58668,-10.57],[161.58131,-10.56316],[161.57301,-10.55682],[161.56471,-10.56666],[161.55274,-10.57],[161.53875,-10.56846],[161.52467,-10.56422],[161.54518,-10.50213],[161.53419,-10.49521],[161.53346,-10.47503],[161.52833,-10.46453],[161.52215,-10.46307],[161.50196,-10.46746],[161.49041,-10.46795],[161.49968,-10.45631],[161.5075,-10.44004],[161.50668,-10.42571],[161.49041,-10.42018],[161.50066,-10.39512],[161.5075,-10.38348],[161.52003,-10.3764],[161.51808,-10.37168],[161.511,-10.36492],[161.50554,-10.36354],[161.48365,-10.36492],[161.47682,-10.35955],[161.47234,-10.35272],[161.46599,-10.34694],[161.45265,-10.3445],[161.42547,-10.3445],[161.41375,-10.34157],[161.40919,-10.33424],[161.40284,-10.33001],[161.38885,-10.3292],[161.36752,-10.33082],[161.36134,-10.33375],[161.35174,-10.34254],[161.34401,-10.3445],[161.33693,-10.34344],[161.33009,-10.3388],[161.30388,-10.33538],[161.29314,-10.33123],[161.28492,-10.32391],[161.28077,-10.30885]]],[[[167.16578,-9.86834],[167.17018,-9.85914],[167.18084,-9.86012],[167.19223,-9.87298],[167.19597,-9.88592],[167.19337,-9.89373],[167.18531,-9.89463],[167.17335,-9.88641],[167.16578,-9.86834]]],[[[167.09181,-9.80332],[167.1045,-9.80185],[167.10825,-9.80462],[167.10402,-9.80657],[167.09181,-9.80332]]],[[[161.92848,-9.72015],[161.92994,-9.70696],[161.9402,-9.69215],[161.95216,-9.69036],[161.9651,-9.69183],[161.97779,-9.68662],[161.97853,-9.69476],[161.97682,-9.69997],[161.97088,-9.70696],[161.96754,-9.71771],[161.96355,-9.72064],[161.96974,-9.73496],[161.98243,-9.81756],[161.98243,-9.83416],[161.97779,-9.85101],[161.96363,-9.83929],[161.95004,-9.81683],[161.9402,-9.79013],[161.92848,-9.72015]]],[[[161.34702,-9.34393],[161.35434,-9.33856],[161.35914,-9.33929],[161.36752,-9.35133],[161.38087,-9.36517],[161.41521,-9.386],[161.42221,-9.39577],[161.42628,-9.41172],[161.45631,-9.45379],[161.4817,-9.50465],[161.49928,-9.52728],[161.50668,-9.54949],[161.53207,-9.58148],[161.54518,-9.60467],[161.55193,-9.62298],[161.55397,-9.64031],[161.5525,-9.67637],[161.55592,-9.69305],[161.57049,-9.72633],[161.57301,-9.74863],[161.56821,-9.77117],[161.5586,-9.78899],[161.54916,-9.79258],[161.54518,-9.77223],[161.50408,-9.72747],[161.49464,-9.70306],[161.48829,-9.69207],[161.47739,-9.68662],[161.46648,-9.68987],[161.45932,-9.71787],[161.4489,-9.73496],[161.43263,-9.71795],[161.41505,-9.69459],[161.40073,-9.67002],[161.39479,-9.64902],[161.39479,-9.52947],[161.39235,-9.50758],[161.39291,-9.49489],[161.40919,-9.466],[161.4061,-9.44997],[161.3982,-9.43353],[161.39479,-9.41277],[161.37501,-9.41961],[161.37501,-9.3987],[161.36842,-9.37957],[161.34702,-9.34393]]],[[[159.59213,-9.3615],[159.6067,-9.34393],[159.60955,-9.30983],[159.61598,-9.29534],[159.64617,-9.28476],[159.70899,-9.24774],[159.74366,-9.25953],[159.77898,-9.282],[159.83269,-9.33025],[159.8733,-9.35947],[159.87973,-9.3681],[159.88413,-9.38242],[159.8947,-9.39959],[159.90821,-9.41562],[159.9214,-9.42645],[159.93971,-9.43287],[159.96095,-9.43467],[160.01027,-9.43182],[160.01979,-9.42767],[160.03468,-9.41619],[160.04347,-9.41416],[160.05616,-9.41741],[160.07911,-9.42645],[160.10987,-9.43353],[160.12062,-9.43328],[160.13038,-9.42929],[160.14796,-9.4157],[160.15772,-9.41277],[160.17905,-9.41497],[160.21119,-9.42425],[160.23048,-9.42645],[160.23715,-9.42457],[160.24562,-9.4157],[160.25099,-9.41277],[160.25652,-9.41326],[160.26515,-9.41872],[160.27076,-9.41961],[160.34596,-9.41961],[160.36012,-9.41351],[160.36638,-9.41277],[160.37818,-9.42425],[160.39845,-9.43287],[160.4192,-9.46111],[160.45932,-9.47503],[160.4756,-9.49326],[160.50367,-9.53631],[160.54078,-9.53143],[160.58644,-9.55137],[160.62843,-9.58229],[160.65447,-9.61077],[160.66147,-9.62762],[160.6657,-9.64813],[160.66798,-9.69004],[160.67302,-9.69801],[160.68393,-9.69834],[160.69996,-9.69346],[160.71266,-9.69541],[160.74383,-9.71396],[160.77711,-9.72283],[160.78541,-9.72747],[160.78785,-9.73756],[160.78696,-9.75156],[160.78956,-9.76385],[160.80209,-9.76914],[160.80551,-9.77402],[160.80584,-9.80633],[160.80828,-9.81601],[160.82032,-9.82789],[160.82635,-9.83733],[160.82472,-9.86728],[160.79851,-9.88405],[160.72332,-9.89951],[160.68426,-9.91188],[160.66293,-9.92295],[160.64479,-9.93711],[160.57252,-9.9192],[160.50864,-9.88926],[160.48683,-9.88519],[160.44581,-9.89267],[160.43287,-9.88909],[160.42416,-9.88014],[160.40797,-9.85849],[160.38754,-9.85849],[160.37843,-9.84206],[160.37379,-9.83733],[160.34425,-9.82562],[160.33595,-9.82024],[160.32032,-9.81512],[160.20826,-9.81015],[160.12387,-9.82318],[160.07911,-9.82383],[160.05152,-9.82049],[160.04038,-9.82057],[160.03126,-9.82383],[160.02459,-9.82024],[160.00327,-9.81683],[159.98113,-9.81097],[159.95899,-9.80934],[159.93727,-9.8056],[159.90309,-9.78786],[159.88722,-9.78281],[159.86785,-9.78574],[159.85182,-9.79274],[159.83562,-9.79388],[159.81495,-9.77899],[159.76873,-9.73219],[159.75074,-9.72064],[159.7234,-9.70696],[159.72234,-9.70281],[159.7234,-9.68662],[159.71941,-9.68239],[159.71111,-9.68027],[159.7059,-9.67637],[159.70216,-9.66758],[159.69907,-9.6491],[159.69207,-9.6456],[159.6753,-9.64324],[159.67213,-9.63698],[159.67481,-9.62811],[159.67498,-9.61761],[159.6657,-9.59515],[159.65398,-9.5748],[159.63966,-9.55641],[159.62338,-9.53973],[159.60841,-9.5289],[159.60182,-9.52191],[159.59913,-9.51238],[159.61215,-9.50579],[159.62176,-9.49822],[159.62721,-9.48797],[159.62526,-9.47763],[159.6111,-9.45713],[159.6067,-9.44752],[159.60629,-9.43581],[159.61354,-9.40936],[159.61248,-9.39886],[159.60776,-9.38551],[159.6067,-9.37493],[159.59213,-9.3615]]],[[[159.80445,-9.13014],[159.81153,-9.1111],[159.82732,-9.10866],[159.83269,-9.10369],[159.8401,-9.12274],[159.84474,-9.14544],[159.84254,-9.16465],[159.82887,-9.17262],[159.81471,-9.16619],[159.80616,-9.15032],[159.80445,-9.13014]]],[[[160.21616,-9.17262],[160.22193,-9.16277],[160.23048,-9.15887],[160.25408,-9.15895],[160.26515,-9.15569],[160.27662,-9.14788],[160.28598,-9.13893],[160.292,-9.13161],[160.3047,-9.08262],[160.31495,-9.0617],[160.33229,-9.06341],[160.35922,-9.11093],[160.37013,-9.11793],[160.39723,-9.12021],[160.40642,-9.12444],[160.41424,-9.13161],[160.40203,-9.14414],[160.38722,-9.17083],[160.37379,-9.17938],[160.36638,-9.18621],[160.34498,-9.17929],[160.32472,-9.16741],[160.30494,-9.15985],[160.28517,-9.16578],[160.28932,-9.17799],[160.27443,-9.18646],[160.25147,-9.19134],[160.23048,-9.19305],[160.23536,-9.18515],[160.23463,-9.17881],[160.22828,-9.17449],[160.21616,-9.17262]]],[[[159.17408,-9.13844],[159.17498,-9.11142],[159.1784,-9.09271],[159.19516,-9.05657],[159.20533,-9.05511],[159.22584,-9.03143],[159.2361,-9.02304],[159.23585,-9.02752],[159.22926,-9.03607],[159.22926,-9.04608],[159.22739,-9.0486],[159.22926,-9.05657],[159.21949,-9.06618],[159.21713,-9.07513],[159.2225,-9.07968],[159.2361,-9.07635],[159.23325,-9.10101],[159.21876,-9.11736],[159.17408,-9.13844]]],[[[160.07911,-9.03948],[160.08717,-9.03704],[160.10515,-9.03509],[160.12387,-9.02939],[160.13429,-9.01556],[160.14112,-9.02304],[160.14763,-9.00872],[160.14601,-9.00254],[160.14112,-8.9944],[160.14503,-8.99],[160.14772,-8.98968],[160.15463,-8.9944],[160.17254,-9.00221],[160.19093,-9.00042],[160.20851,-9.0027],[160.22299,-9.02304],[160.23048,-9.02304],[160.24024,-9.00628],[160.25799,-9.00905],[160.27801,-9.02304],[160.2951,-9.03948],[160.30144,-9.06162],[160.29469,-9.08994],[160.28053,-9.11598],[160.2645,-9.13161],[160.26108,-9.12396],[160.25758,-9.12078],[160.24415,-9.1242],[160.24293,-9.1124],[160.23731,-9.10345],[160.2282,-9.09832],[160.21616,-9.09759],[160.22299,-9.11793],[160.21616,-9.11793],[160.19988,-9.09173],[160.18751,-9.0818],[160.15675,-9.09401],[160.13819,-9.09482],[160.11997,-9.09059],[160.10629,-9.08375],[160.10426,-9.07789],[160.10231,-9.06024],[160.09669,-9.05657],[160.08937,-9.05535],[160.08375,-9.05202],[160.08033,-9.04664],[160.07911,-9.03948]]],[[[159.03932,-9.06854],[159.04103,-9.05731],[159.07228,-9.05657],[159.06609,-9.04323],[159.06935,-9.03379],[159.07887,-9.03053],[159.09213,-9.03607],[159.09213,-9.02304],[159.11256,-9.02923],[159.11118,-9.01873],[159.10727,-9.00953],[159.10084,-9.0014],[159.09213,-8.9944],[159.10646,-8.9944],[159.11622,-8.99928],[159.12403,-8.99993],[159.12989,-8.99635],[159.13364,-8.98838],[159.14039,-9.00189],[159.14438,-9.02093],[159.15431,-9.02923],[159.15935,-9.02907],[159.16717,-9.018],[159.17481,-9.01653],[159.19516,-9.02304],[159.16163,-9.09002],[159.14731,-9.10369],[159.09962,-9.11793],[159.09099,-9.11199],[159.08399,-9.10174],[159.07618,-9.09596],[159.06479,-9.10369],[159.03932,-9.06854]]],[[[160.06666,-9.0136],[160.06804,-9.00335],[160.07496,-8.99179],[160.07911,-8.97772],[160.07439,-8.95135],[160.07765,-8.94313],[160.09262,-8.94052],[160.10841,-8.9612],[160.11378,-8.9743],[160.11313,-8.9944],[160.09913,-8.98846],[160.09083,-8.99578],[160.07911,-9.02304],[160.06666,-9.0136]]],[[[157.4524,-8.72186],[157.45533,-8.70648],[157.49269,-8.71201],[157.5088,-8.71258],[157.52369,-8.70648],[157.5298,-8.71396],[157.54379,-8.69492],[157.54965,-8.69215],[157.55885,-8.69378],[157.56886,-8.70403],[157.59059,-8.71087],[157.60092,-8.72039],[157.60825,-8.73008],[157.63551,-8.74407],[157.64991,-8.76523],[157.64894,-8.78623],[157.62232,-8.79583],[157.61354,-8.79306],[157.57765,-8.77467],[157.5298,-8.76181],[157.47674,-8.73952],[157.4524,-8.72186]]],[[[158.15366,-8.79656],[158.15366,-8.78411],[158.16049,-8.7584],[158.16521,-8.7492],[158.19459,-8.72698],[158.19996,-8.71803],[158.20427,-8.70664],[158.2072,-8.69346],[158.20826,-8.67913],[158.2151,-8.67913],[158.2151,-8.70029],[158.2234,-8.71494],[158.23023,-8.73797],[158.23268,-8.76084],[158.22877,-8.77467],[158.25668,-8.78558],[158.25563,-8.79485],[158.25221,-8.80267],[158.24676,-8.80804],[158.22397,-8.81373],[158.20314,-8.83099],[158.18718,-8.83685],[158.16822,-8.80722],[158.16359,-8.80202],[158.15366,-8.79656]]],[[[157.87924,-8.68255],[157.87924,-8.63144],[157.88608,-8.59661],[157.89601,-8.58473],[157.9004,-8.57643],[157.89975,-8.56243],[157.92677,-8.57887],[157.93767,-8.57936],[157.94142,-8.56243],[157.94825,-8.56341],[157.95167,-8.56634],[157.95509,-8.57676],[157.96314,-8.56373],[157.96046,-8.55413],[157.95509,-8.54372],[157.95509,-8.52825],[157.96119,-8.52158],[157.99594,-8.50791],[158.00359,-8.50644],[158.00961,-8.50107],[158.0171,-8.50791],[158.0171,-8.51474],[158.00864,-8.52093],[158.00522,-8.5285],[158.00685,-8.53688],[158.01336,-8.54551],[158.02638,-8.55096],[158.03728,-8.54551],[158.05689,-8.52825],[158.07765,-8.52353],[158.10279,-8.52361],[158.12379,-8.53037],[158.1325,-8.54551],[158.13502,-8.56683],[158.13347,-8.57415],[158.12574,-8.58294],[158.11638,-8.58563],[158.09555,-8.58554],[158.09156,-8.59352],[158.08693,-8.5971],[158.06756,-8.60467],[158.06495,-8.61093],[158.07097,-8.61688],[158.09059,-8.61981],[158.0984,-8.62461],[158.10825,-8.61956],[158.11891,-8.61777],[158.10621,-8.63453],[158.09156,-8.64512],[158.11427,-8.66774],[158.10572,-8.6911],[158.06495,-8.72698],[158.04762,-8.7514],[158.03859,-8.75677],[158.02117,-8.76084],[158.01336,-8.76523],[157.99903,-8.76727],[157.9769,-8.76263],[157.95704,-8.75596],[157.94825,-8.7514],[157.94557,-8.74472],[157.93946,-8.74017],[157.92774,-8.73447],[157.91334,-8.71396],[157.87924,-8.68255]]],[[[157.20094,-8.56585],[157.20362,-8.55153],[157.21013,-8.53924],[157.21892,-8.52923],[157.2282,-8.52158],[157.25489,-8.5075],[157.27003,-8.49652],[157.28907,-8.45916],[157.31723,-8.43174],[157.3475,-8.41253],[157.36598,-8.41286],[157.38404,-8.42498],[157.39926,-8.44402],[157.40992,-8.46893],[157.41383,-8.49798],[157.41041,-8.50433],[157.39584,-8.52117],[157.38543,-8.55462],[157.38006,-8.56268],[157.37599,-8.57301],[157.3698,-8.57789],[157.35426,-8.57676],[157.34474,-8.57252],[157.33806,-8.57676],[157.33668,-8.5818],[157.33806,-8.6041],[157.33058,-8.63291],[157.32936,-8.6491],[157.33465,-8.66237],[157.37086,-8.70086],[157.39112,-8.71502],[157.41383,-8.7208],[157.41383,-8.72698],[157.3982,-8.73056],[157.37957,-8.72975],[157.36166,-8.72527],[157.34832,-8.71738],[157.33668,-8.70599],[157.3296,-8.70184],[157.32065,-8.70029],[157.31227,-8.69622],[157.31072,-8.68662],[157.3108,-8.66619],[157.30421,-8.65472],[157.27784,-8.61858],[157.26612,-8.61093],[157.25001,-8.60573],[157.22836,-8.59344],[157.20916,-8.57838],[157.20094,-8.56585]]],[[[159.53785,-8.43279],[159.54518,-8.40643],[159.55828,-8.38942],[159.5783,-8.38014],[159.6067,-8.37754],[159.63592,-8.38421],[159.64405,-8.40032],[159.64088,-8.44703],[159.64698,-8.46844],[159.65854,-8.48252],[159.70037,-8.51849],[159.69947,-8.525],[159.68865,-8.53525],[159.67953,-8.54013],[159.67026,-8.54144],[159.65992,-8.53965],[159.63624,-8.52923],[159.61354,-8.50791],[159.60141,-8.48887],[159.59303,-8.48528],[159.57936,-8.49481],[159.56528,-8.4791],[159.54981,-8.4708],[159.53883,-8.45892],[159.53785,-8.43279]]],[[[162.73048,-8.37819],[162.73487,-8.37379],[162.74562,-8.37428],[162.75758,-8.37851],[162.74985,-8.38519],[162.73862,-8.38836],[162.73048,-8.37819]]],[[[160.58106,-8.34051],[160.60133,-8.32545],[160.63844,-8.32977],[160.67555,-8.34336],[160.69532,-8.36159],[160.70281,-8.36452],[160.71314,-8.3624],[160.72397,-8.35687],[160.73023,-8.34905],[160.72682,-8.34027],[160.69597,-8.32008],[160.69874,-8.31308],[160.70574,-8.30625],[160.71461,-8.30202],[160.72332,-8.30299],[160.72332,-8.30926],[160.74659,-8.30967],[160.75896,-8.31666],[160.77784,-8.34336],[160.79005,-8.3532],[160.80047,-8.35882],[160.80982,-8.36728],[160.81951,-8.38494],[160.82398,-8.39715],[160.82635,-8.41595],[160.82911,-8.42083],[160.84742,-8.43279],[160.88103,-8.48398],[160.93287,-8.53932],[160.97315,-8.57301],[160.99684,-8.60377],[161.0066,-8.62282],[161.01059,-8.64153],[161.0027,-8.66237],[160.98373,-8.67409],[160.96119,-8.68222],[160.94239,-8.69215],[160.94907,-8.70534],[160.95338,-8.71852],[160.95297,-8.73162],[160.93702,-8.75888],[160.93678,-8.77166],[160.94663,-8.81373],[160.96534,-8.83123],[160.97592,-8.85027],[160.99008,-8.84783],[161.01401,-8.83685],[161.02296,-8.84075],[161.0503,-8.86126],[161.05909,-8.87103],[161.05974,-8.87802],[161.05307,-8.88974],[161.05909,-8.89886],[161.06715,-8.9035],[161.07374,-8.90301],[161.0796,-8.89886],[161.10304,-8.90985],[161.1281,-8.92742],[161.15113,-8.94964],[161.16896,-8.97454],[161.15593,-8.9695],[161.14576,-8.97731],[161.14283,-8.9887],[161.15154,-8.9944],[161.16359,-8.99944],[161.17514,-9.01165],[161.18092,-9.02752],[161.17579,-9.0429],[161.18458,-9.04778],[161.18849,-9.05413],[161.19125,-9.08343],[161.1963,-9.08603],[161.20289,-9.0862],[161.20997,-9.09002],[161.22283,-9.09775],[161.22869,-9.10369],[161.23097,-9.11452],[161.22755,-9.11907],[161.20248,-9.13844],[161.22071,-9.14666],[161.22706,-9.15179],[161.23097,-9.15895],[161.24399,-9.1539],[161.25571,-9.15691],[161.26173,-9.16595],[161.25831,-9.17938],[161.28492,-9.18621],[161.28492,-9.19305],[161.25782,-9.19931],[161.24781,-9.19988],[161.24431,-9.20525],[161.24513,-9.21697],[161.24928,-9.22869],[161.261,-9.24188],[161.26686,-9.27801],[161.27882,-9.28924],[161.26531,-9.29656],[161.25904,-9.2903],[161.25416,-9.28037],[161.24464,-9.27565],[161.23536,-9.28118],[161.23756,-9.29193],[161.24586,-9.30389],[161.28533,-9.34441],[161.29664,-9.36028],[161.32814,-9.43857],[161.34767,-9.45582],[161.36183,-9.47487],[161.38111,-9.50905],[161.39308,-9.58766],[161.39259,-9.60906],[161.3864,-9.62176],[161.37566,-9.62493],[161.36069,-9.61761],[161.30893,-9.58164],[161.29933,-9.58074],[161.29656,-9.56373],[161.2894,-9.5486],[161.24977,-9.49717],[161.24464,-9.48797],[161.2422,-9.47812],[161.24049,-9.45867],[161.23715,-9.44752],[161.22633,-9.43043],[161.17921,-9.38177],[161.11069,-9.34726],[161.08676,-9.31959],[161.04005,-9.31325],[161.04542,-9.29608],[161.01743,-9.26474],[161.00392,-9.25514],[160.99627,-9.25368],[160.98015,-9.25514],[160.97315,-9.2514],[160.96998,-9.24407],[160.97153,-9.22763],[160.96974,-9.22039],[160.94646,-9.20013],[160.8899,-9.17498],[160.86793,-9.15211],[160.79526,-9.0193],[160.77768,-8.97031],[160.76433,-8.94671],[160.7697,-8.93906],[160.77133,-8.93336],[160.7697,-8.92767],[160.76433,-8.92002],[160.76368,-8.90545],[160.74822,-8.85516],[160.73439,-8.83367],[160.69313,-8.75123],[160.6893,-8.73756],[160.68873,-8.68369],[160.68686,-8.67457],[160.65447,-8.6041],[160.67205,-8.59238],[160.70151,-8.56715],[160.7199,-8.56243],[160.71998,-8.5534],[160.69597,-8.50107],[160.65642,-8.44931],[160.65138,-8.43963],[160.63844,-8.43328],[160.60434,-8.4],[160.59352,-8.38494],[160.58106,-8.34051]]],[[[157.02263,-8.1928],[157.03639,-8.18572],[157.04998,-8.19671],[157.07586,-8.1985],[157.10084,-8.20355],[157.11207,-8.22389],[157.11362,-8.23675],[157.12517,-8.27508],[157.13063,-8.30828],[157.13803,-8.32236],[157.15252,-8.32977],[157.15252,-8.33717],[157.12355,-8.32041],[157.10906,-8.2833],[157.09059,-8.24912],[157.05006,-8.2409],[157.06373,-8.22731],[157.04737,-8.2199],[157.02996,-8.20631],[157.02263,-8.1928]]],[[[157.09645,-8.16497],[157.09783,-8.15895],[157.12232,-8.16741],[157.14568,-8.1657],[157.16733,-8.16741],[157.18727,-8.18572],[157.19679,-8.20672],[157.20411,-8.23284],[157.20826,-8.26133],[157.20769,-8.28875],[157.20094,-8.28875],[157.19898,-8.27459],[157.19142,-8.27191],[157.18181,-8.27256],[157.17302,-8.26881],[157.16912,-8.26141],[157.15992,-8.23349],[157.1504,-8.21592],[157.13917,-8.20094],[157.12452,-8.18865],[157.10467,-8.17889],[157.11207,-8.17262],[157.10182,-8.17164],[157.09718,-8.16912],[157.09645,-8.16497]]],[[[156.78565,-8.0862],[156.78989,-8.05535],[156.81056,-8.05535],[156.81422,-8.07203],[156.82472,-8.06959],[156.84132,-8.11297],[156.81544,-8.11199],[156.78565,-8.0862]]],[[[157.22193,-8.22389],[157.23927,-8.19752],[157.24537,-8.19313],[157.27125,-8.19166],[157.28102,-8.18759],[157.29029,-8.17889],[157.2951,-8.19183],[157.30201,-8.19573],[157.30991,-8.19297],[157.3169,-8.18572],[157.32,-8.17653],[157.32008,-8.15496],[157.32439,-8.14479],[157.32097,-8.13299],[157.32651,-8.1194],[157.34832,-8.09319],[157.35825,-8.07822],[157.37322,-8.04461],[157.38282,-8.03151],[157.42547,-7.98984],[157.44109,-7.97967],[157.50261,-7.95973],[157.50213,-7.96445],[157.50343,-7.96559],[157.50945,-7.96657],[157.57887,-8.00555],[157.60564,-8.00758],[157.59864,-8.02557],[157.60174,-8.03826],[157.60817,-8.05039],[157.61183,-8.06618],[157.61052,-8.10418],[157.61248,-8.12274],[157.61931,-8.13795],[157.60987,-8.15634],[157.61313,-8.16912],[157.636,-8.18939],[157.6447,-8.20517],[157.64177,-8.21771],[157.63697,-8.2291],[157.63966,-8.2409],[157.64649,-8.23366],[157.65235,-8.23512],[157.6587,-8.23952],[157.667,-8.2409],[157.68539,-8.23056],[157.69435,-8.22731],[157.71388,-8.22357],[157.73015,-8.2234],[157.74586,-8.22869],[157.77849,-8.25335],[157.7859,-8.26775],[157.78989,-8.28875],[157.80226,-8.30535],[157.82814,-8.32285],[157.83839,-8.33717],[157.83676,-8.36224],[157.83839,-8.37127],[157.84401,-8.3803],[157.86557,-8.39861],[157.87387,-8.41546],[157.88038,-8.45029],[157.88608,-8.46746],[157.89064,-8.4708],[157.90333,-8.47357],[157.90724,-8.48113],[157.90691,-8.4909],[157.90333,-8.49912],[157.88111,-8.53777],[157.87892,-8.5582],[157.88014,-8.56699],[157.88608,-8.58294],[157.82447,-8.55885],[157.79737,-8.55633],[157.79737,-8.56243],[157.81105,-8.57073],[157.82049,-8.58319],[157.82358,-8.59922],[157.81788,-8.61777],[157.81105,-8.61777],[157.80885,-8.60133],[157.80152,-8.59092],[157.78989,-8.57985],[157.78647,-8.56552],[157.77784,-8.55153],[157.75571,-8.52825],[157.72934,-8.51393],[157.67481,-8.50921],[157.64967,-8.49798],[157.60564,-8.46746],[157.58204,-8.43939],[157.57765,-8.43621],[157.57602,-8.42156],[157.56788,-8.39886],[157.56463,-8.38494],[157.56463,-8.3235],[157.57203,-8.33506],[157.57594,-8.34686],[157.57765,-8.37444],[157.58302,-8.38649],[157.60646,-8.393],[157.61183,-8.40203],[157.615,-8.41237],[157.62208,-8.41074],[157.62908,-8.40114],[157.63234,-8.38836],[157.62696,-8.37802],[157.60336,-8.35573],[157.59376,-8.32334],[157.58269,-8.29941],[157.56707,-8.2763],[157.54965,-8.26141],[157.53736,-8.2584],[157.51808,-8.2658],[157.50261,-8.26881],[157.4961,-8.26474],[157.48894,-8.25742],[157.48178,-8.25596],[157.47584,-8.26881],[157.46485,-8.2623],[157.45655,-8.2623],[157.4275,-8.27508],[157.3934,-8.27557],[157.35646,-8.27207],[157.3449,-8.27508],[157.33619,-8.28932],[157.3296,-8.30804],[157.31886,-8.32586],[157.29713,-8.33717],[157.27955,-8.33343],[157.24537,-8.31365],[157.23504,-8.31666],[157.2282,-8.31666],[157.22193,-8.22389]]],[[[156.53207,-7.97064],[156.5324,-7.94891],[156.54981,-7.93922],[156.56471,-7.95208],[156.57716,-7.96657],[156.58155,-7.97715],[156.58766,-8.00066],[156.60109,-8.02337],[156.60646,-8.04062],[156.61598,-8.09857],[156.61647,-8.11248],[156.61118,-8.12493],[156.61899,-8.14617],[156.61598,-8.17067],[156.60467,-8.19101],[156.58741,-8.1994],[156.57838,-8.18711],[156.55323,-8.11403],[156.53842,-8.09149],[156.53598,-8.06927],[156.54298,-8.02117],[156.53207,-7.97064]]],[[[156.94703,-7.97967],[156.95216,-7.95501],[156.96127,-7.93255],[156.98512,-7.89609],[156.98854,-7.88812],[157.00196,-7.87518],[157.03272,-7.86297],[157.06707,-7.8541],[157.09107,-7.85052],[157.13754,-7.87477],[157.17042,-7.90993],[157.19125,-7.95289],[157.20094,-8.00075],[157.20232,-8.04827],[157.19947,-8.0652],[157.18434,-8.1067],[157.16725,-8.13551],[157.14625,-8.14861],[157.12517,-8.12493],[157.11256,-8.1286],[157.10467,-8.12493],[157.05421,-8.12908],[157.00229,-8.08685],[156.96217,-8.02744],[156.94703,-7.97967]]],[[[156.49708,-7.67498],[156.50416,-7.63006],[156.53077,-7.59246],[156.57097,-7.56943],[156.58399,-7.57244],[156.59327,-7.57684],[156.60157,-7.57757],[156.61118,-7.56943],[156.61411,-7.57781],[156.61939,-7.58514],[156.63168,-7.59678],[156.63413,-7.60182],[156.63396,-7.60931],[156.64959,-7.61126],[156.6526,-7.61419],[156.65284,-7.62737],[156.65707,-7.63144],[156.66676,-7.63543],[156.67644,-7.64227],[156.68482,-7.6657],[156.69459,-7.6723],[156.71485,-7.67864],[156.70753,-7.68613],[156.72104,-7.70037],[156.74366,-7.69183],[156.76612,-7.69988],[156.78761,-7.71315],[156.80714,-7.72015],[156.81471,-7.73455],[156.79949,-7.76653],[156.76271,-7.8165],[156.74399,-7.83196],[156.71974,-7.85703],[156.70411,-7.88502],[156.71119,-7.90887],[156.72055,-7.92108],[156.72071,-7.93182],[156.71339,-7.94036],[156.70069,-7.94549],[156.68922,-7.93523],[156.67807,-7.93231],[156.66635,-7.93922],[156.65968,-7.93922],[156.65748,-7.91912],[156.66179,-7.8991],[156.65895,-7.88397],[156.61183,-7.87119],[156.60841,-7.85459],[156.61866,-7.81308],[156.61476,-7.80511],[156.59083,-7.78851],[156.57781,-7.76165],[156.57097,-7.75433],[156.55323,-7.74749],[156.54518,-7.74651],[156.5442,-7.74359],[156.54526,-7.73935],[156.53484,-7.71657],[156.52882,-7.71331],[156.51564,-7.72015],[156.49708,-7.67498]]],[[[155.50799,-7.37575],[155.51442,-7.35752],[155.54233,-7.32293],[155.54933,-7.32529],[155.57032,-7.32293],[155.58627,-7.33123],[155.6067,-7.35369],[155.61818,-7.36395],[155.59742,-7.38291],[155.57618,-7.38787],[155.52524,-7.38388],[155.50799,-7.37575]]],[[[155.67286,-7.08953],[155.67449,-7.07594],[155.70069,-7.02069],[155.70883,-7.02549],[155.71795,-6.99245],[155.73487,-6.98651],[155.73146,-6.97861],[155.73194,-6.97243],[155.73487,-6.96608],[155.74741,-6.97088],[155.78256,-7.00075],[155.81674,-7.02069],[155.84669,-7.02793],[155.85426,-7.03151],[155.86801,-7.04852],[155.86793,-7.06194],[155.86207,-7.07578],[155.85825,-7.09295],[155.85092,-7.0993],[155.83416,-7.10418],[155.8156,-7.10589],[155.80307,-7.1032],[155.78663,-7.11785],[155.75294,-7.11549],[155.73487,-7.12428],[155.7256,-7.11956],[155.70688,-7.1032],[155.67856,-7.0945],[155.67286,-7.08953]]],[[[156.04273,-6.9804],[156.0586,-6.96941],[156.07342,-6.95574],[156.07667,-6.94752],[156.06568,-6.93377],[156.06373,-6.92506],[156.06715,-6.9109],[156.07146,-6.90643],[156.08717,-6.90163],[156.0818,-6.89569],[156.07325,-6.8908],[156.07,-6.89088],[156.05714,-6.872],[156.04689,-6.85166],[156.04965,-6.83172],[156.07683,-6.8152],[156.09791,-6.8152],[156.09791,-6.82203],[156.08416,-6.82545],[156.07342,-6.83319],[156.06642,-6.8449],[156.06373,-6.85963],[156.07252,-6.86793],[156.08969,-6.87233],[156.10255,-6.87819],[156.09791,-6.89088],[156.1128,-6.91269],[156.11842,-6.91823],[156.12631,-6.92246],[156.1526,-6.93133],[156.14275,-6.93727],[156.13209,-6.93874],[156.12143,-6.93646],[156.11158,-6.93133],[156.10914,-6.94687],[156.10434,-6.96209],[156.09636,-6.97576],[156.08367,-6.98651],[156.08253,-6.97877],[156.07683,-6.96608],[156.07008,-6.97405],[156.06227,-6.9791],[156.05299,-6.98113],[156.04273,-6.9804]]],[[[166.7672,-11.61712],[166.77523,-11.60679],[166.80553,-11.59157],[166.84701,-11.59268],[166.86988,-11.58896],[166.89345,-11.59378],[166.93556,-11.60881],[166.92392,-11.64097],[166.9252,-11.6549],[166.92402,-11.67429],[166.97845,-11.67049],[166.98415,-11.70986],[166.88824,-11.71742],[166.84302,-11.71332],[166.82811,-11.69335],[166.81617,-11.68231],[166.8025,-11.67718],[166.76725,-11.63349],[166.7672,-11.61712]]],[[[166.47769,-11.26998],[166.47976,-11.24742],[166.49427,-11.22928],[166.51186,-11.21342],[166.52511,-11.20905],[166.54042,-11.21456],[166.55576,-11.22679],[166.5639,-11.24103],[166.56471,-11.25993],[166.55725,-11.28364],[166.53416,-11.30809],[166.51645,-11.31128],[166.50883,-11.30932],[166.50048,-11.3046],[166.50076,-11.28888],[166.51032,-11.27468],[166.50913,-11.26092],[166.49497,-11.26927],[166.48345,-11.27866],[166.47769,-11.26998]]],[[[165.75303,-10.75189],[165.77215,-10.7385],[165.79263,-10.70914],[165.80181,-10.70859],[165.79742,-10.74306],[165.81217,-10.75932],[165.82195,-10.76216],[165.82709,-10.74921],[165.83122,-10.70765],[165.84784,-10.68461],[165.87806,-10.65685],[165.92334,-10.65354],[165.99453,-10.66114],[166.02666,-10.64702],[166.06117,-10.65403],[166.07814,-10.66302],[166.08497,-10.67205],[166.11467,-10.66816],[166.14276,-10.66925],[166.14791,-10.69405],[166.13701,-10.70532],[166.13299,-10.72479],[166.09569,-10.73923],[166.08372,-10.74984],[166.06539,-10.75829],[166.0545,-10.76673],[166.035,-10.76539],[166.02817,-10.76727],[166.00238,-10.75722],[165.98081,-10.77337],[165.96957,-10.7702],[165.93422,-10.77574],[165.89181,-10.8241],[165.86196,-10.86854],[165.84936,-10.85615],[165.85239,-10.82862],[165.84042,-10.81457],[165.82837,-10.8123],[165.80008,-10.83754],[165.77024,-10.83582],[165.75647,-10.81216],[165.75303,-10.75189]]],[[[158.3169,-7.57936],[158.32114,-7.57627],[158.33074,-7.57733],[158.36248,-7.5862],[158.36818,-7.58367],[158.36215,-7.57285],[158.36215,-7.56707],[158.36915,-7.56276],[158.37875,-7.56268],[158.38648,-7.56943],[158.39796,-7.57464],[158.42262,-7.57968],[158.43434,-7.59515],[158.45102,-7.60312],[158.47047,-7.60849],[158.4861,-7.61028],[158.50066,-7.61647],[158.51661,-7.63096],[158.52654,-7.64707],[158.52361,-7.65814],[158.50782,-7.65984],[158.49293,-7.65106],[158.48146,-7.6373],[158.47511,-7.62396],[158.46461,-7.63738],[158.44557,-7.63307],[158.40691,-7.61028],[158.40886,-7.61981],[158.42115,-7.64381],[158.41139,-7.64365],[158.38648,-7.63763],[158.36215,-7.63763],[158.36362,-7.63128],[158.35939,-7.61712],[158.34791,-7.60312],[158.32797,-7.59678],[158.31918,-7.58652],[158.3169,-7.57936]]],[[[158.44508,-7.54355],[158.452,-7.532],[158.46892,-7.5346],[158.48951,-7.54697],[158.58774,-7.58034],[158.59596,-7.58587],[158.60572,-7.5862],[158.61459,-7.57431],[158.62526,-7.56414],[158.63966,-7.56943],[158.64617,-7.56357],[158.65398,-7.56129],[158.66131,-7.58099],[158.67579,-7.59384],[158.71485,-7.61028],[158.71876,-7.60442],[158.73308,-7.59157],[158.73927,-7.58929],[158.75172,-7.59344],[158.75701,-7.60361],[158.76027,-7.61598],[158.76661,-7.62737],[158.78614,-7.64569],[158.79819,-7.65447],[158.80812,-7.65814],[158.81446,-7.66473],[158.83025,-7.69378],[158.8484,-7.70436],[158.87232,-7.73382],[158.88478,-7.74131],[158.92075,-7.75433],[158.93865,-7.76507],[158.96876,-7.7907],[158.98976,-7.80218],[158.9795,-7.82195],[158.98707,-7.83961],[159.0027,-7.84889],[159.01694,-7.84368],[159.05689,-7.85996],[159.06861,-7.86761],[159.07545,-7.8803],[159.07936,-7.89495],[159.0857,-7.90358],[159.09962,-7.89837],[159.1268,-7.91953],[159.14943,-7.90887],[159.16798,-7.90488],[159.18629,-7.90618],[159.20826,-7.91188],[159.19557,-7.91766],[159.19874,-7.92685],[159.20924,-7.93548],[159.21876,-7.93922],[159.23569,-7.94085],[159.24513,-7.94557],[159.25074,-7.9542],[159.25587,-7.96657],[159.27296,-7.95403],[159.28305,-7.96266],[159.29103,-7.97869],[159.30128,-7.98707],[159.33383,-7.98984],[159.34718,-7.9861],[159.35279,-7.9734],[159.37135,-7.98187],[159.38697,-7.99391],[159.4026,-7.98235],[159.41293,-7.99342],[159.42156,-8.01426],[159.43165,-8.03151],[159.44793,-8.04388],[159.47633,-8.0595],[159.48943,-8.06959],[159.50367,-8.07586],[159.50994,-8.08953],[159.55641,-8.1264],[159.64894,-8.18125],[159.84205,-8.32562],[159.84645,-8.33538],[159.82504,-8.3576],[159.80421,-8.38616],[159.79664,-8.39178],[159.78785,-8.38681],[159.77662,-8.38405],[159.76539,-8.38535],[159.75685,-8.39178],[159.75758,-8.39756],[159.77328,-8.40862],[159.78159,-8.42539],[159.79103,-8.42539],[159.80047,-8.42067],[159.8086,-8.4118],[159.81788,-8.4201],[159.84791,-8.4616],[159.85597,-8.47666],[159.85873,-8.49098],[159.85939,-8.51133],[159.88885,-8.53379],[159.9004,-8.55071],[159.88722,-8.56243],[159.87827,-8.56072],[159.84636,-8.54209],[159.82504,-8.54209],[159.82008,-8.5368],[159.81471,-8.52402],[159.79737,-8.51727],[159.78549,-8.49896],[159.76482,-8.49228],[159.74391,-8.46746],[159.71241,-8.44313],[159.70289,-8.43279],[159.70069,-8.42303],[159.70281,-8.41424],[159.70037,-8.40789],[159.68523,-8.40545],[159.67384,-8.3987],[159.62721,-8.3576],[159.54396,-8.34002],[159.50831,-8.31854],[159.48341,-8.30828],[159.46111,-8.28973],[159.44484,-8.28118],[159.42774,-8.27728],[159.41432,-8.28191],[159.38063,-8.26165],[159.36231,-8.25628],[159.34539,-8.26141],[159.3353,-8.23838],[159.32618,-8.22584],[159.31471,-8.22047],[159.30079,-8.21933],[159.28761,-8.21494],[159.27849,-8.20664],[159.27711,-8.19313],[159.25538,-8.20037],[159.2339,-8.19622],[159.21363,-8.18532],[159.11997,-8.11745],[159.11378,-8.11639],[159.0984,-8.11858],[159.09213,-8.11745],[159.0879,-8.11102],[159.08595,-8.08953],[159.07797,-8.08815],[159.07049,-8.09629],[159.06479,-8.09694],[159.03745,-8.08327],[159.0101,-8.08327],[159.00327,-8.06276],[158.98357,-8.05511],[158.97804,-8.04957],[158.97609,-8.03493],[158.96941,-8.03997],[158.94809,-8.04909],[158.9463,-8.02923],[158.93735,-8.01393],[158.92286,-8.00416],[158.90406,-8.00075],[158.84571,-7.9734],[158.84034,-7.93523],[158.83204,-7.9179],[158.81495,-7.92254],[158.78443,-7.91522],[158.76987,-7.90586],[158.77735,-7.89153],[158.76637,-7.87933],[158.75636,-7.87103],[158.74952,-7.87103],[158.73902,-7.88453],[158.72853,-7.872],[158.71485,-7.8362],[158.70362,-7.82293],[158.68849,-7.81121],[158.67115,-7.80511],[158.65398,-7.80967],[158.6443,-7.79176],[158.60076,-7.76776],[158.58497,-7.75433],[158.58009,-7.74082],[158.58058,-7.73024],[158.58497,-7.71006],[158.58497,-7.66863],[158.50685,-7.60361],[158.45533,-7.57627],[158.44654,-7.56072],[158.44508,-7.54355]]],[[[158.26442,-7.47682],[158.26856,-7.46697],[158.27662,-7.4664],[158.30568,-7.48252],[158.31129,-7.49375],[158.32439,-7.48968],[158.33611,-7.49456],[158.35906,-7.51409],[158.37135,-7.50416],[158.39308,-7.50579],[158.41676,-7.51491],[158.43482,-7.52776],[158.42514,-7.53281],[158.41847,-7.53973],[158.41668,-7.54909],[158.42115,-7.56129],[158.37672,-7.5525],[158.36524,-7.54827],[158.34864,-7.52842],[158.33766,-7.51832],[158.30779,-7.51092],[158.28663,-7.49684],[158.2732,-7.49375],[158.2658,-7.48821],[158.26442,-7.47682]]],[[[157.4756,-7.4118],[157.49195,-7.40008],[157.50913,-7.39056],[157.53541,-7.3956],[157.56373,-7.39227],[157.58888,-7.39332],[157.60523,-7.4118],[157.61158,-7.40423],[157.61899,-7.4118],[157.6128,-7.41937],[157.61061,-7.42978],[157.6128,-7.44134],[157.61899,-7.45208],[157.59164,-7.43222],[157.59059,-7.4472],[157.58041,-7.45281],[157.54949,-7.45208],[157.54949,-7.4459],[157.57,-7.43222],[157.53053,-7.42067],[157.51938,-7.41481],[157.5114,-7.41351],[157.48585,-7.41473],[157.4756,-7.4118]]],[[[158.19435,-7.43841],[158.19435,-7.43222],[158.20802,-7.4179],[158.22429,-7.41961],[158.25026,-7.39495],[158.26938,-7.39056],[158.26938,-7.4179],[158.28321,-7.4118],[158.27662,-7.43076],[158.27622,-7.45208],[158.2614,-7.44354],[158.25636,-7.43841],[158.24903,-7.47324],[158.2352,-7.46331],[158.22657,-7.4498],[158.21534,-7.43914],[158.19435,-7.43841]]],[[[157.67856,-7.44817],[157.68897,-7.42303],[157.72169,-7.38388],[157.7693,-7.40081],[157.77622,-7.40797],[157.77809,-7.42295],[157.78989,-7.45965],[157.79737,-7.47324],[157.77027,-7.47479],[157.75603,-7.47389],[157.73927,-7.46689],[157.71827,-7.47324],[157.7107,-7.47096],[157.70436,-7.4616],[157.69777,-7.45957],[157.67856,-7.44817]]],[[[156.44663,-6.66497],[156.44695,-6.64479],[156.45444,-6.63079],[156.4878,-6.60296],[156.50489,-6.59987],[156.52801,-6.60312],[156.54802,-6.61053],[156.55982,-6.62347],[156.57398,-6.63193],[156.58155,-6.64967],[156.59107,-6.64984],[156.60515,-6.64398],[156.64308,-6.65504],[156.66961,-6.67498],[156.72104,-6.73333],[156.73512,-6.74554],[156.78028,-6.77581],[156.82309,-6.78729],[156.88551,-6.82952],[156.92726,-6.84938],[156.96339,-6.85605],[156.98048,-6.86468],[156.99285,-6.86883],[157.00375,-6.87526],[157.01238,-6.89463],[157.03272,-6.8952],[157.04265,-6.89715],[157.0525,-6.90545],[157.07398,-6.93499],[157.11207,-6.96608],[157.12045,-6.98073],[157.1233,-6.99822],[157.12517,-7.04119],[157.13624,-7.08611],[157.15252,-7.12428],[157.18189,-7.16041],[157.18727,-7.17889],[157.20265,-7.16969],[157.20769,-7.16473],[157.21559,-7.18222],[157.22877,-7.19524],[157.2461,-7.20355],[157.26612,-7.20623],[157.27963,-7.2125],[157.28932,-7.22682],[157.29518,-7.24391],[157.29713,-7.25774],[157.30274,-7.26637],[157.31593,-7.27264],[157.3449,-7.282],[157.35621,-7.28851],[157.3685,-7.29827],[157.3794,-7.31023],[157.38648,-7.32293],[157.39275,-7.32293],[157.39519,-7.30633],[157.4026,-7.30576],[157.4131,-7.31194],[157.42408,-7.31609],[157.44557,-7.31618],[157.45558,-7.31422],[157.49187,-7.30096],[157.5114,-7.30023],[157.52491,-7.30999],[157.5298,-7.33319],[157.5298,-7.3576],[157.52638,-7.37086],[157.51344,-7.37656],[157.48552,-7.37762],[157.47348,-7.3847],[157.44793,-7.43222],[157.44606,-7.42051],[157.44174,-7.41424],[157.43556,-7.41351],[157.4275,-7.4179],[157.4144,-7.40749],[157.39015,-7.40203],[157.3449,-7.39804],[157.32545,-7.39178],[157.31202,-7.37884],[157.30795,-7.36028],[157.3169,-7.3366],[157.30844,-7.33961],[157.29029,-7.35711],[157.28256,-7.35345],[157.27801,-7.35654],[157.27662,-7.37078],[157.25758,-7.3598],[157.22193,-7.34783],[157.20094,-7.3366],[157.14796,-7.33229],[157.13893,-7.33319],[157.1325,-7.34295],[157.11834,-7.34246],[157.10426,-7.33221],[157.09343,-7.30202],[157.08269,-7.28753],[157.0691,-7.27435],[157.05689,-7.26832],[157.02849,-7.28102],[157.01466,-7.28265],[157.0228,-7.26832],[157.01352,-7.25189],[156.99855,-7.2387],[156.97926,-7.22991],[156.95753,-7.22674],[156.94386,-7.22161],[156.92774,-7.20875],[156.83432,-7.09979],[156.83009,-7.09051],[156.82765,-7.07806],[156.82325,-7.06707],[156.81397,-7.06227],[156.80063,-7.05877],[156.79322,-7.05023],[156.78305,-7.02809],[156.74391,-6.97389],[156.7317,-6.96608],[156.72202,-6.95648],[156.68702,-6.89715],[156.67058,-6.88567],[156.62306,-6.86093],[156.5962,-6.85076],[156.46111,-6.73333],[156.45444,-6.71941],[156.44663,-6.66497]]],[[[168.79786,-12.28191],[168.81227,-12.26629],[168.82293,-12.26727],[168.82586,-12.28151],[168.80242,-12.29062],[168.79786,-12.28191]]],[[[165.72291,-10.41286],[165.72381,-10.40154],[165.72625,-10.39463],[165.73219,-10.38991],[165.74635,-10.39349],[165.75506,-10.40691],[165.75294,-10.41676],[165.74529,-10.42164],[165.73561,-10.42457],[165.72779,-10.42246],[165.72291,-10.41286]]],[[[160.6076,-7.88885],[160.61207,-7.87672],[160.6233,-7.87444],[160.62989,-7.8803],[160.63575,-7.89105],[160.64796,-7.92685],[160.64088,-7.9284],[160.63201,-7.92702],[160.61305,-7.90114],[160.6076,-7.88885]]],[[[166.93897,-11.64202],[166.94435,-11.62542],[166.95769,-11.61256],[166.97584,-11.61102],[166.98487,-11.61435],[166.98552,-11.62331],[166.97967,-11.6386],[166.96323,-11.65032],[166.94565,-11.65325],[166.93897,-11.64202]]],[[[166.22869,-10.27606],[166.23585,-10.2553],[166.23927,-10.23431],[166.23854,-10.21502],[166.24252,-10.2208],[166.24244,-10.26898],[166.25245,-10.26491],[166.2671,-10.26426],[166.27996,-10.27304],[166.27003,-10.29193],[166.25147,-10.30918],[166.23731,-10.31113],[166.2361,-10.29656],[166.23805,-10.28346],[166.23146,-10.28289],[166.22869,-10.27606]]],[[[156.51686,-7.81813],[156.51791,-7.80926],[156.52589,-7.79941],[156.53639,-7.79111],[156.54542,-7.79168],[156.55942,-7.80242],[156.55543,-7.81731],[156.53484,-7.82741],[156.51686,-7.81813]]]]},"source":"Natural Earth Admin 0 Countries, 1:10m, version 5.1.1","sourceUrl":"https://www.naturalearthdata.com/downloads/10m-cultural-vectors/10m-admin-0-countries/"}
