{"type":"Feature","properties":{"isoA2":"SG","name":"Singapore"},"geometry":{"type":"Polygon","coordinates":[[[103.64039,1.32225],[103.64471,1.33804],[103.67457,1.38032],[103.67888,1.39924],[103.68385,1.4099],[103.69508,1.42133],[103.70834,1.42939],[103.71795,1.43098],[103.73976,1.42813],[103.76222,1.43098],[103.79005,1.44428],[103.80494,1.44863],[103.83155,1.44709],[103.85719,1.43871],[103.93246,1.40111],[103.96079,1.3911],[103.98569,1.38544],[103.99952,1.38032],[104.00343,1.37417],[103.99187,1.35493],[103.97486,1.33446],[103.95436,1.3181],[103.93189,1.31147],[103.90724,1.30874],[103.88771,1.30126],[103.85271,1.27729],[103.84409,1.2685],[103.83888,1.26626],[103.82602,1.26431],[103.80161,1.2648],[103.78956,1.26789],[103.77589,1.28758],[103.75514,1.2971],[103.73015,1.30292],[103.70875,1.30524],[103.66529,1.3041],[103.64763,1.30842],[103.64039,1.32225]]]},"source":"Natural Earth Admin 0 Countries, 1:10m, version 5.1.1","sourceUrl":"https://www.naturalearthdata.com/downloads/10m-cultural-vectors/10m-admin-0-countries/"}
