{"type":"Feature","properties":{"isoA2":"SH","name":"Saint Helena"},"geometry":{"type":"MultiPolygon","coordinates":[[[[-10.03938,-40.33864],[-10.03938,-40.3318],[-10.03002,-40.31374],[-10.02221,-40.30722],[-10.00866,-40.30446],[-9.96276,-40.30185],[-9.94994,-40.30446],[-9.9431,-40.31227],[-9.93236,-40.33904],[-9.92638,-40.34881],[-9.90636,-40.36419],[-9.90001,-40.37217],[-9.89537,-40.38641],[-9.92516,-40.39788],[-9.96508,-40.38274],[-10.03938,-40.33864]]],[[[-12.33532,-37.10426],[-12.32559,-37.09466],[-12.30736,-37.07008],[-12.2919,-37.05576],[-12.24498,-37.05918],[-12.22794,-37.06813],[-12.21312,-37.08001],[-12.19127,-37.09051],[-12.20031,-37.1041],[-12.21174,-37.11102],[-12.24478,-37.13787],[-12.26378,-37.14902],[-12.2766,-37.14918],[-12.30411,-37.12558],[-12.33532,-37.10426]]],[[[-5.78954,-15.99529],[-5.78718,-15.98447],[-5.78038,-15.9734],[-5.77013,-15.94524],[-5.75512,-15.92995],[-5.73705,-15.91717],[-5.72183,-15.90895],[-5.70958,-15.907],[-5.67968,-15.90732],[-5.66666,-15.90211],[-5.65197,-15.9345],[-5.65038,-15.94891],[-5.65355,-15.96356],[-5.66275,-15.97959],[-5.67394,-15.98821],[-5.68692,-15.99481],[-5.70198,-16.00514],[-5.70434,-15.99944],[-5.71565,-15.9909],[-5.72989,-16.00482],[-5.74649,-16.01385],[-5.76374,-16.01572],[-5.78018,-16.00823],[-5.78954,-15.99529]]],[[[-14.41771,-7.93922],[-14.40661,-7.92409],[-14.39061,-7.88934],[-14.3767,-7.87786],[-14.37365,-7.88535],[-14.36998,-7.88934],[-14.36457,-7.88934],[-14.35627,-7.8847],[-14.3474,-7.89984],[-14.31041,-7.9275],[-14.29479,-7.94549],[-14.35033,-7.97471],[-14.37853,-7.97601],[-14.39102,-7.97967],[-14.4064,-7.97389],[-14.411,-7.96307],[-14.41226,-7.95037],[-14.41771,-7.93922]]]]},"source":"Natural Earth Admin 0 Countries, 1:10m, version 5.1.1","sourceUrl":"https://www.naturalearthdata.com/downloads/10m-cultural-vectors/10m-admin-0-countries/"}
