{"type":"Feature","properties":{"isoA2":"SL","name":"Sierra Leone"},"geometry":{"type":"MultiPolygon","coordinates":[[[[-13.3011,9.0353],[-13.3011,9.04149],[-13.27738,9.0586],[-13.23363,9.07206],[-13.20754,9.07671],[-13.19177,9.07299],[-13.15384,9.04932],[-13.13105,9.04147],[-13.11591,9.04395],[-13.08558,9.06598],[-13.047,9.08454],[-13.02886,9.09598],[-13.01525,9.11275],[-13.00204,9.14412],[-12.98416,9.17231],[-12.97848,9.1752],[-12.95915,9.17784],[-12.96021,9.18608],[-12.97393,9.2028],[-12.97835,9.21285],[-12.97375,9.24158],[-12.95791,9.27243],[-12.93701,9.28708],[-12.91753,9.26701],[-12.89564,9.2785],[-12.87611,9.27985],[-12.85689,9.2785],[-12.83583,9.28197],[-12.81913,9.29579],[-12.79526,9.33509],[-12.77792,9.34385],[-12.76415,9.34767],[-12.76356,9.35535],[-12.76756,9.36439],[-12.76779,9.37232],[-12.75976,9.38284],[-12.75408,9.3878],[-12.73723,9.39723],[-12.72294,9.39209],[-12.71645,9.40441],[-12.7016,9.42023],[-12.66752,9.5287],[-12.66863,9.54236],[-12.65527,9.54774],[-12.64992,9.5521],[-12.64729,9.55663],[-12.63855,9.58942],[-12.63385,9.59787],[-12.6246,9.60128],[-12.60682,9.60071],[-12.60277,9.60936],[-12.60155,9.65171],[-12.58225,9.68336],[-12.57308,9.69256],[-12.54202,9.71132],[-12.53876,9.71191],[-12.53747,9.71571],[-12.53765,9.72793],[-12.53569,9.73279],[-12.52556,9.73207],[-12.52246,9.73447],[-12.52727,9.75362],[-12.51362,9.82783],[-12.51432,9.85131],[-12.50833,9.86038],[-12.47233,9.88126],[-12.42699,9.89761],[-12.27674,9.92927],[-12.25359,9.92841],[-12.2356,9.91676],[-12.21739,9.90056],[-12.19364,9.88606],[-12.17483,9.87919],[-12.15835,9.8756],[-12.14135,9.87488],[-11.92177,9.92221],[-11.91495,9.93149],[-11.9101,9.99252],[-11.27267,9.99601],[-11.24729,9.9934],[-11.21345,9.98337],[-11.1996,9.98216],[-11.18854,9.9726],[-11.18125,9.95038],[-11.16766,9.88446],[-11.16027,9.87276],[-11.08596,9.82617],[-11.04493,9.78713],[-11.0101,9.74274],[-10.98633,9.69776],[-10.9746,9.66378],[-10.9685,9.65424],[-10.94664,9.64484],[-10.94013,9.6397],[-10.93579,9.63189],[-10.92907,9.60569],[-10.92168,9.5959],[-10.89605,9.57831],[-10.88633,9.56841],[-10.88282,9.56017],[-10.8777,9.53267],[-10.87057,9.5234],[-10.86018,9.51854],[-10.85259,9.51208],[-10.85367,9.49787],[-10.8591,9.47299],[-10.85486,9.45526],[-10.84396,9.44025],[-10.82908,9.42395],[-10.81342,9.4139],[-10.81145,9.40826],[-10.83176,9.39214],[-10.81936,9.38806],[-10.80169,9.38728],[-10.79523,9.38852],[-10.77476,9.38734],[-10.76546,9.38522],[-10.75347,9.36757],[-10.74154,9.35705],[-10.7282,9.34819],[-10.71776,9.34333],[-10.67513,9.30646],[-10.67384,9.29398],[-10.68805,9.25928],[-10.68795,9.2507],[-10.68392,9.23375],[-10.68521,9.2245],[-10.69317,9.21285],[-10.71497,9.20135],[-10.72474,9.1945],[-10.74257,9.16329],[-10.75347,9.12012],[-10.74634,9.08381],[-10.71043,9.07299],[-10.66909,9.07443],[-10.62935,9.07035],[-10.60599,9.06376],[-10.5941,9.0541],[-10.59178,9.03906],[-10.60713,8.97984],[-10.61188,8.94514],[-10.61012,8.8723],[-10.60847,8.8623],[-10.59937,8.83404],[-10.59968,8.81538],[-10.5863,8.80409],[-10.54532,8.75004],[-10.53023,8.73916],[-10.52475,8.72955],[-10.48186,8.67247],[-10.48967,8.65105],[-10.50331,8.63157],[-10.52212,8.61857],[-10.54517,8.61676],[-10.56542,8.61278],[-10.58465,8.59684],[-10.60051,8.57565],[-10.61648,8.54651],[-10.63188,8.53201],[-10.63885,8.51989],[-10.64118,8.50664],[-10.64108,8.49478],[-10.64387,8.48687],[-10.65467,8.4855],[-10.66909,8.39907],[-10.68381,8.37486],[-10.702,8.35357],[-10.725,8.31986],[-10.73528,8.2873],[-10.71518,8.2696],[-10.7079,8.30314],[-10.68815,8.32407],[-10.65978,8.33327],[-10.62671,8.33151],[-10.61188,8.32526],[-10.58325,8.30691],[-10.57266,8.30458],[-10.55436,8.31184],[-10.51928,8.33479],[-10.46021,8.39215],[-10.44796,8.40763],[-10.42378,8.45656],[-10.41406,8.47018],[-10.40238,8.48101],[-10.38978,8.4891],[-10.37474,8.49478],[-10.3443,8.49907],[-10.33758,8.49855],[-10.31025,8.49036],[-10.29371,8.48307],[-10.28224,8.48462],[-10.28291,8.43295],[-10.31366,8.31035],[-10.33128,8.27229],[-10.33329,8.24976],[-10.32601,8.22154],[-10.31815,8.20164],[-10.32094,8.18312],[-10.34554,8.15935],[-10.36492,8.14821],[-10.38456,8.14211],[-10.40507,8.13927],[-10.48574,8.13886],[-10.50574,8.13584],[-10.52925,8.12429],[-10.54398,8.10607],[-10.56718,8.0632],[-10.57783,8.05315],[-10.60315,8.03923],[-10.61214,8.03186],[-10.61622,8.02251],[-10.61767,8.01078],[-10.61519,7.76904],[-10.63813,7.76552],[-10.64542,7.76304],[-10.6926,7.73757],[-10.73058,7.70547],[-10.8746,7.53086],[-10.88571,7.52218],[-10.89899,7.51649],[-10.93703,7.50776],[-10.9779,7.48492],[-11.12632,7.36803],[-11.20926,7.26219],[-11.21789,7.25408],[-11.30021,7.21708],[-11.31721,7.21357],[-11.35204,7.15925],[-11.37323,7.13884],[-11.37059,7.1284],[-11.35643,7.10536],[-11.35313,7.0928],[-11.35514,7.08406],[-11.36046,7.07864],[-11.36791,7.07595],[-11.38971,7.07352],[-11.39292,7.06686],[-11.3893,7.0467],[-11.39152,7.03177],[-11.39772,7.0128],[-11.40728,6.99637],[-11.43467,6.98081],[-11.43886,6.96387],[-11.43674,6.93854],[-11.47619,6.91942],[-11.49279,6.93277],[-11.53392,6.94212],[-11.55394,6.95254],[-11.57291,6.96581],[-11.588,6.97895],[-11.57429,6.98261],[-11.56749,6.99262],[-11.59553,6.99331],[-11.60774,6.9914],[-11.61588,6.98578],[-11.62214,6.98578],[-11.63121,7.00825],[-11.64517,7.02277],[-11.69815,7.06704],[-11.83959,7.14899],[-12.07372,7.23359],[-12.31485,7.32901],[-12.50658,7.38984],[-12.47619,7.41511],[-12.43961,7.41649],[-12.40217,7.40461],[-12.36946,7.38984],[-12.37108,7.39863],[-12.37589,7.40501],[-12.38341,7.409],[-12.40103,7.41254],[-12.40917,7.42471],[-12.41723,7.43081],[-12.4359,7.43818],[-12.44652,7.43911],[-12.46426,7.42963],[-12.47277,7.43399],[-12.48095,7.44123],[-12.48925,7.44505],[-12.49242,7.4536],[-12.48363,7.47236],[-12.47077,7.49116],[-12.45197,7.50751],[-12.44152,7.52285],[-12.42833,7.5336],[-12.41039,7.52766],[-12.3994,7.53286],[-12.38781,7.53457],[-12.36266,7.53441],[-12.33873,7.54068],[-12.33145,7.53856],[-12.31481,7.52766],[-12.29507,7.53311],[-12.27807,7.5434],[-12.25886,7.55239],[-12.23225,7.5537],[-12.23843,7.56802],[-12.2202,7.57347],[-12.20177,7.57599],[-12.1881,7.58308],[-12.18383,7.60273],[-12.21129,7.59976],[-12.21801,7.59589],[-12.22545,7.60895],[-12.25626,7.60517],[-12.26016,7.59931],[-12.26277,7.59064],[-12.26928,7.58637],[-12.28685,7.58161],[-12.29866,7.57599],[-12.31786,7.57543],[-12.32771,7.57319],[-12.34826,7.56342],[-12.37003,7.55927],[-12.39135,7.55048],[-12.40355,7.54751],[-12.44107,7.5537],[-12.46373,7.562],[-12.47106,7.58112],[-12.47631,7.6022],[-12.49299,7.6164],[-12.49299,7.62254],[-12.48803,7.62714],[-12.48522,7.633],[-12.4855,7.65054],[-12.50036,7.63911],[-12.50699,7.63858],[-12.51281,7.64427],[-12.51964,7.64427],[-12.51964,7.63007],[-12.54393,7.65355],[-12.5314,7.68708],[-12.49299,7.73994],[-12.47663,7.73127],[-12.47126,7.72626],[-12.465,7.7331],[-12.47094,7.74616],[-12.47179,7.75995],[-12.46593,7.77058],[-12.45197,7.77407],[-12.47216,7.78766],[-12.49014,7.77192],[-12.51964,7.72626],[-12.56949,7.69554],[-12.60188,7.68378],[-12.61644,7.69522],[-12.62418,7.69477],[-12.68839,7.70694],[-12.70124,7.70808],[-12.71142,7.71198],[-12.75121,7.73998],[-12.76574,7.74657],[-12.77807,7.7558],[-12.78718,7.77407],[-12.79052,7.79239],[-12.78751,7.80459],[-12.77745,7.81342],[-12.75984,7.82184],[-12.7779,7.819],[-12.82873,7.79828],[-12.87589,7.82868],[-12.88931,7.8548],[-12.89859,7.86571],[-12.92463,7.87495],[-12.93786,7.88638],[-12.9591,7.9112],[-12.93944,7.91511],[-12.90551,7.93415],[-12.88671,7.93854],[-12.871,7.93651],[-12.85448,7.93159],[-12.82128,7.91743],[-12.84146,7.93797],[-12.86685,7.95547],[-12.88842,7.97529],[-12.90526,8.02407],[-12.91177,8.03067],[-12.91006,8.03828],[-12.9038,8.0515],[-12.90148,8.06566],[-12.89517,8.07958],[-12.8863,8.09235],[-12.87589,8.10301],[-12.90807,8.10741],[-12.9215,8.11994],[-12.92943,8.13935],[-12.94481,8.1645],[-12.95621,8.17219],[-12.96972,8.1778],[-12.98107,8.18623],[-12.98571,8.20234],[-12.9851,8.2167],[-12.98298,8.2298],[-12.97875,8.24201],[-12.97208,8.25385],[-12.98111,8.2521],[-12.99942,8.24018],[-13.00634,8.23871],[-13.02359,8.24018],[-13.0677,8.23334],[-13.09044,8.2246],[-13.11791,8.20881],[-13.14273,8.18976],[-13.1577,8.17129],[-13.16393,8.17129],[-13.16173,8.18716],[-13.16393,8.22964],[-13.16828,8.25072],[-13.16881,8.26301],[-13.16393,8.27436],[-13.17565,8.28376],[-13.21028,8.33906],[-13.21227,8.3395],[-13.21447,8.34309],[-13.22387,8.34565],[-13.23103,8.36384],[-13.25642,8.3972],[-13.26366,8.40168],[-13.27416,8.42089],[-13.28677,8.42451],[-13.27294,8.44188],[-13.26854,8.4499],[-13.26696,8.46271],[-13.26968,8.47211],[-13.2827,8.49095],[-13.28677,8.50023],[-13.26549,8.49702],[-13.25951,8.49339],[-13.25267,8.49755],[-13.24584,8.48656],[-13.22891,8.49372],[-13.21076,8.49339],[-13.19298,8.48778],[-13.17756,8.47915],[-13.16487,8.46499],[-13.1444,8.43122],[-13.11002,8.41324],[-13.08568,8.39045],[-13.06037,8.37271],[-13.03356,8.37669],[-13.03356,8.38353],[-13.04577,8.38622],[-13.05626,8.39118],[-13.06383,8.39916],[-13.0677,8.41088],[-13.05407,8.41088],[-13.05407,8.41767],[-13.08336,8.42438],[-13.11095,8.43382],[-13.1256,8.44904],[-13.11612,8.47297],[-13.10436,8.48164],[-13.07433,8.49315],[-13.06151,8.50023],[-13.04792,8.52106],[-13.03995,8.52676],[-13.02672,8.5207],[-13.02709,8.53221],[-13.02416,8.5432],[-13.01305,8.56171],[-13.00328,8.55907],[-12.93712,8.55435],[-12.91832,8.54922],[-12.90722,8.54804],[-12.899,8.55097],[-12.87898,8.56485],[-12.8697,8.56916],[-12.88805,8.57306],[-12.90933,8.5705],[-12.92809,8.57217],[-12.93033,8.58344],[-12.93114,8.58283],[-12.91194,8.60684],[-12.87589,8.68521],[-12.90087,8.65485],[-12.9169,8.62763],[-12.93643,8.607],[-12.97208,8.59642],[-12.98986,8.59732],[-13.00487,8.60017],[-13.01806,8.60017],[-13.04393,8.5847],[-13.06184,8.5832],[-13.07848,8.58902],[-13.08878,8.60269],[-13.06627,8.60684],[-13.05443,8.61896],[-13.04434,8.63337],[-13.02672,8.64423],[-13.02672,8.65107],[-13.04109,8.65428],[-13.04784,8.66474],[-13.05407,8.66474],[-13.06355,8.63394],[-13.07063,8.62198],[-13.08194,8.61693],[-13.09801,8.62189],[-13.11217,8.63394],[-13.13036,8.6579],[-13.14061,8.65225],[-13.14843,8.65339],[-13.15404,8.6601],[-13.1577,8.67097],[-13.16259,8.654],[-13.15429,8.64305],[-13.12291,8.63056],[-13.13659,8.62377],[-13.10904,8.60334],[-13.10749,8.581],[-13.12214,8.55956],[-13.14342,8.54181],[-13.13923,8.53339],[-13.13927,8.52448],[-13.14411,8.5174],[-13.15429,8.51455],[-13.16242,8.51765],[-13.16853,8.52521],[-13.19506,8.56916],[-13.2025,8.58495],[-13.20885,8.61432],[-13.21691,8.63255],[-13.22716,8.64964],[-13.23656,8.66132],[-13.2412,8.67219],[-13.24201,8.68863],[-13.24022,8.71939],[-13.23522,8.71992],[-13.24022,8.82583],[-13.21227,8.85712],[-13.20092,8.85981],[-13.19652,8.85635],[-13.19319,8.8498],[-13.18497,8.84349],[-13.10814,8.84406],[-13.09219,8.84662],[-13.07185,8.85554],[-13.04308,8.85834],[-12.98571,8.85712],[-13.02697,8.8697],[-13.04109,8.86123],[-13.05822,8.86115],[-13.07677,8.86473],[-13.08878,8.87018],[-13.09984,8.86542],[-13.11583,8.86237],[-13.13036,8.86408],[-13.13976,8.88142],[-13.1577,8.88447],[-13.15844,8.89228],[-13.15258,8.89712],[-13.14265,8.91673],[-13.12263,8.92601],[-13.09777,8.93049],[-13.0751,8.93163],[-13.0751,8.93911],[-13.09252,8.94465],[-13.1151,8.94062],[-13.1577,8.92544],[-13.18098,8.92304],[-13.20613,8.92837],[-13.22574,8.94253],[-13.23282,8.96638],[-13.23998,8.95978],[-13.24022,8.95209],[-13.25487,8.96638],[-13.26049,8.96528],[-13.26696,8.95209],[-13.28844,8.96947],[-13.28502,9.01703],[-13.3011,9.0353]]],[[[-12.95165,7.56802],[-12.95165,7.57543],[-12.9143,7.58442],[-12.91031,7.59809],[-12.89806,7.61074],[-12.88329,7.6164],[-12.8448,7.6225],[-12.73567,7.62254],[-12.7189,7.62491],[-12.68114,7.63467],[-12.62141,7.63972],[-12.6007,7.63817],[-12.58113,7.63007],[-12.59586,7.61274],[-12.58605,7.60761],[-12.54752,7.60895],[-12.52965,7.60383],[-12.51537,7.59488],[-12.50353,7.58259],[-12.49299,7.56802],[-12.50438,7.56102],[-12.50536,7.54955],[-12.49914,7.52021],[-12.50182,7.50239],[-12.51757,7.48176],[-12.52644,7.46556],[-12.52745,7.44969],[-12.51887,7.41657],[-12.51964,7.40412],[-12.53234,7.39248],[-12.54967,7.38964],[-12.56578,7.39566],[-12.57486,7.41035],[-12.55443,7.41035],[-12.56802,7.43537],[-12.58556,7.45991],[-12.60554,7.47866],[-12.62609,7.48603],[-12.64061,7.48729],[-12.7318,7.5113],[-12.76439,7.52798],[-12.84923,7.54068],[-12.95165,7.56802]]]]},"source":"Natural Earth Admin 0 Countries, 1:10m, version 5.1.1","sourceUrl":"https://www.naturalearthdata.com/downloads/10m-cultural-vectors/10m-admin-0-countries/"}
