{"type":"Feature","properties":{"isoA2":"SM","name":"San Marino"},"geometry":{"type":"Polygon","coordinates":[[[12.38563,43.92453],[12.39565,43.94841],[12.42139,43.96722],[12.45332,43.97905],[12.48216,43.98257],[12.48919,43.97311],[12.49239,43.95642],[12.49033,43.93916],[12.47803,43.92322],[12.47829,43.91704],[12.46046,43.89526],[12.42945,43.89206],[12.39958,43.90322],[12.38563,43.92453]]]},"source":"Natural Earth Admin 0 Countries, 1:10m, version 5.1.1","sourceUrl":"https://www.naturalearthdata.com/downloads/10m-cultural-vectors/10m-admin-0-countries/"}
