{"type":"Feature","properties":{"isoA2":"SO","name":"Somalia"},"geometry":{"type":"Polygon","coordinates":[[[40.96538,2.81414],[40.97975,2.8419],[41.34273,3.20115],[41.89845,3.99691],[41.9122,4.00797],[41.91747,4.02045],[41.91665,4.0511],[41.92347,4.07055],[41.94124,4.08621],[42.01183,4.12949],[42.06837,4.17455],[42.10289,4.19189],[42.13534,4.20008],[42.29729,4.20173],[42.78977,4.28561],[42.83163,4.30232],[42.86894,4.32676],[42.89963,4.3611],[42.91472,4.3933],[42.9325,4.46322],[42.94594,4.49686],[42.96041,4.51737],[43.11926,4.6477],[43.52849,4.84157],[43.84516,4.91435],[43.93228,4.9452],[43.96898,4.95396],[44.91259,4.89939],[44.94152,4.91148],[45.93599,5.99669],[46.42392,6.49674],[47.97917,7.99657],[48.93911,9.45123],[48.93911,11.24913],[48.97682,11.25141],[49.23959,11.30028],[49.27809,11.31696],[49.2933,11.33796],[49.30348,11.34544],[49.32545,11.33511],[49.3357,11.33462],[49.40008,11.34052],[49.4192,11.34479],[49.43507,11.35106],[49.48862,11.38174],[49.50733,11.3852],[49.52174,11.39378],[49.54444,11.43671],[49.5586,11.45352],[49.57683,11.46003],[49.59962,11.46174],[49.64454,11.46035],[49.66603,11.47114],[49.6753,11.47394],[49.68678,11.47435],[49.71632,11.46776],[49.80486,11.4584],[49.85125,11.46491],[49.88071,11.48823],[49.88852,11.48729],[49.90642,11.49873],[49.91798,11.5019],[49.93442,11.51289],[49.94215,11.51557],[49.94947,11.51496],[49.96266,11.50873],[50.05388,11.51138],[50.07252,11.50873],[50.13152,11.53994],[50.15113,11.55793],[50.16188,11.56338],[50.1976,11.56265],[50.22543,11.57811],[50.26832,11.5893],[50.28891,11.60244],[50.37232,11.66893],[50.41814,11.67805],[50.43702,11.69062],[50.47039,11.72785],[50.50082,11.75483],[50.51271,11.77123],[50.51759,11.79267],[50.51889,11.81525],[50.52296,11.83796],[50.52947,11.85952],[50.53858,11.87865],[50.56121,11.9079],[50.57594,11.92097],[50.58985,11.92646],[50.60206,11.92797],[50.62745,11.94013],[50.63649,11.95161],[50.64112,11.95441],[50.64715,11.95405],[50.65593,11.94843],[50.66147,11.94758],[50.68295,11.95336],[50.72486,11.97114],[50.76157,11.97875],[50.77198,11.98578],[50.79786,11.98912],[50.86706,11.94289],[50.97008,11.93232],[51.02931,11.88508],[51.04884,11.87865],[51.1277,11.87865],[51.14723,11.8736],[51.18116,11.85537],[51.19972,11.8513],[51.22291,11.85078],[51.24708,11.84756],[51.26734,11.83942],[51.2927,11.83311],[51.27735,11.8006],[51.26638,11.75929],[51.24936,11.72878],[51.25571,11.68165],[51.2478,11.65239],[51.22954,11.6359],[51.21253,11.60795],[51.18124,11.57883],[51.14812,11.53604],[51.12477,11.51179],[51.12086,11.50532],[51.12192,11.49413],[51.1277,11.47089],[51.12501,11.44798],[51.11842,11.42626],[51.08619,11.35716],[51.08131,11.3415],[51.07936,11.27595],[51.07252,11.23379],[51.08595,11.18797],[51.13094,11.16075],[51.17444,11.15876],[51.1895,11.13831],[51.1644,11.11677],[51.14226,11.06843],[51.13136,11.05288],[51.12379,11.03876],[51.11834,11.01691],[51.11508,10.99335],[51.13819,10.67674],[51.16065,10.59846],[51.15431,10.58771],[51.13136,10.58393],[51.10743,10.57657],[51.1019,10.55858],[51.10719,10.51504],[51.10222,10.4947],[51.0923,10.48216],[51.07691,10.47582],[51.05568,10.47407],[51.03582,10.46752],[51.01832,10.45209],[51.0101,10.43403],[51.0184,10.41942],[51.0381,10.41608],[51.19044,10.44611],[51.21193,10.44184],[51.22039,10.44204],[51.22389,10.44986],[51.21957,10.46101],[51.20086,10.4715],[51.19654,10.47744],[51.19581,10.50031],[51.19304,10.52119],[51.18678,10.54157],[51.17612,10.56281],[51.19174,10.54898],[51.20734,10.5381],[51.22065,10.52493],[51.25794,10.5038],[51.29253,10.48007],[51.32588,10.47268],[51.33587,10.47461],[51.34587,10.48049],[51.35721,10.48374],[51.39517,10.47902],[51.40308,10.45671],[51.41704,10.44749],[51.39751,10.39579],[51.38502,10.39151],[51.37257,10.38142],[51.37608,10.36769],[51.36742,10.36773],[51.34946,10.375],[51.33613,10.37439],[51.32008,10.37848],[51.30083,10.37257],[51.27287,10.37791],[51.26539,10.39688],[51.26295,10.4086],[51.2566,10.42032],[51.24098,10.4256],[51.0901,10.40731],[51.01713,10.38192],[50.92739,10.32784],[50.90988,10.29564],[50.9017,10.23444],[50.91281,10.17685],[50.8838,10.10126],[50.88868,10.05565],[50.9004,10.02407],[50.9017,10.01166],[50.89975,10.00072],[50.8908,9.98603],[50.8777,9.91665],[50.8812,9.90546],[50.86964,9.88447],[50.86313,9.86603],[50.85401,9.81611],[50.84059,9.77977],[50.83326,9.76878],[50.83863,9.74091],[50.83172,9.71206],[50.82447,9.65107],[50.80616,9.62446],[50.80551,9.59394],[50.813,9.54116],[50.83676,9.47704],[50.84034,9.45612],[50.83741,9.4372],[50.83033,9.41962],[50.76832,9.31928],[50.7483,9.30353],[50.70631,9.28571],[50.68946,9.27485],[50.67677,9.25918],[50.64698,9.21137],[50.64112,9.19636],[50.64918,9.13251],[50.64845,9.11042],[50.63364,9.07319],[50.6045,9.03791],[50.49488,8.95197],[50.46412,8.92056],[50.43971,8.88817],[50.42205,8.85712],[50.40797,8.81635],[50.38982,8.73355],[50.37428,8.69888],[50.32651,8.6411],[50.31959,8.62035],[50.3226,8.55976],[50.31959,8.54181],[50.30348,8.50458],[50.29021,8.48676],[50.27491,8.47915],[50.2562,8.47256],[50.2461,8.45645],[50.23911,8.43635],[50.23015,8.41767],[50.15642,8.32062],[50.14137,8.28799],[50.11305,8.19953],[50.09107,8.16104],[50.05828,8.13032],[49.92937,8.05174],[49.84205,7.96271],[49.82423,7.93391],[49.81251,7.89753],[49.80323,7.82689],[49.8086,7.81501],[49.82342,7.80532],[49.82765,7.7829],[49.82504,7.75776],[49.81935,7.73994],[49.79078,7.69953],[49.76092,7.6673],[49.75221,7.65029],[49.7483,7.60663],[49.74415,7.58906],[49.5866,7.31477],[49.52052,7.23965],[49.36704,7.0257],[49.29322,6.88093],[49.24732,6.81061],[49.19793,6.67357],[49.07472,6.41527],[49.07203,6.3933],[49.07407,6.3708],[49.08351,6.32905],[49.08562,6.30736],[49.0713,6.21992],[49.03614,6.14423],[48.85011,5.82445],[48.69581,5.58735],[48.64674,5.48005],[48.62013,5.444],[48.54811,5.37507],[48.44801,5.20873],[48.32887,5.07966],[48.2024,4.90892],[48.05568,4.61294],[47.9485,4.4571],[47.57797,4.05988],[47.48927,3.93635],[47.33562,3.77875],[47.01295,3.44107],[46.83424,3.23249],[46.70004,3.11327],[46.62574,3.02391],[46.4878,2.90884],[46.41432,2.83344],[46.35157,2.78864],[46.34962,2.78018],[46.3392,2.76171],[46.33448,2.75825],[46.31764,2.7519],[46.30763,2.73603],[46.29982,2.71577],[46.2894,2.69623],[46.2754,2.68586],[46.2365,2.66763],[46.14234,2.56892],[46.13087,2.55402],[46.11451,2.52326],[46.10499,2.51057],[46.063,2.48404],[46.04762,2.45506],[46.02703,2.43814],[45.82635,2.30882],[45.71193,2.24433],[45.23219,1.96768],[45.19972,1.95962],[45.00147,1.86636],[44.83155,1.7497],[44.82399,1.7403],[44.81218,1.73558],[44.67628,1.6376],[44.55006,1.55907],[44.33277,1.38996],[44.22136,1.27562],[44.19842,1.26569],[44.15789,1.24079],[44.14552,1.22956],[44.1421,1.22138],[44.13966,1.21117],[44.13803,1.1916],[44.13396,1.18757],[44.115,1.18203],[44.10377,1.16836],[44.03289,1.09748],[44.01254,1.08421],[43.99098,1.0786],[43.97877,1.06867],[43.93263,1.00983],[43.81983,0.94945],[43.78191,0.92162],[43.73422,0.85497],[43.7173,0.84528],[43.70346,0.84052],[43.65895,0.80492],[43.46762,0.62055],[43.28549,0.41498],[43.09018,0.22337],[42.77027,-0.12933],[42.6478,-0.22894],[42.58033,-0.29754],[42.55592,-0.33213],[42.55356,-0.34238],[42.55397,-0.35125],[42.55079,-0.3576],[42.52662,-0.36273],[42.5193,-0.36932],[42.47975,-0.42205],[42.47446,-0.43865],[42.4865,-0.44939],[42.47641,-0.466],[42.47283,-0.4699],[42.47242,-0.45867],[42.47047,-0.45403],[42.46599,-0.44939],[42.41261,-0.49098],[42.40455,-0.50091],[42.39796,-0.51735],[42.38266,-0.53525],[42.34986,-0.56561],[42.25026,-0.68564],[42.24676,-0.69427],[42.24529,-0.70745],[42.23634,-0.70957],[42.2326,-0.71307],[42.19223,-0.77614],[42.16651,-0.80267],[42.15162,-0.8139],[42.13551,-0.82171],[42.11647,-0.82627],[42.0866,-0.82562],[42.07154,-0.82871],[42.06251,-0.83929],[42.08172,-0.84344],[42.0809,-0.86289],[42.07195,-0.88445],[42.06568,-0.89446],[42.05144,-0.90203],[42.03696,-0.92002],[42.02556,-0.94158],[42.02084,-0.96006],[42.01637,-0.96803],[41.98316,-0.99407],[41.97193,-0.99977],[41.96795,-0.99285],[41.96363,-0.95086],[41.96469,-0.91155],[41.95883,-0.89446],[41.95281,-0.89446],[41.95541,-0.9096],[41.9524,-0.92083],[41.94752,-0.93084],[41.94516,-0.94297],[41.94646,-0.95477],[41.95143,-0.96942],[41.95558,-0.99293],[41.96925,-1.00319],[41.97315,-1.01116],[41.97169,-1.02361],[41.96144,-1.04412],[41.95883,-1.05584],[41.95346,-1.06862],[41.93002,-1.08994],[41.92465,-1.0971],[41.92303,-1.11012],[41.9183,-1.12103],[41.91163,-1.13095],[41.87387,-1.17604],[41.86948,-1.18621],[41.87289,-1.19549],[41.88071,-1.19492],[41.89747,-1.1832],[41.88543,-1.20965],[41.8628,-1.21233],[41.84197,-1.19695],[41.8353,-1.16888],[41.82911,-1.16888],[41.83025,-1.18922],[41.84197,-1.22487],[41.84278,-1.24391],[41.8366,-1.2623],[41.73227,-1.43108],[41.70875,-1.46006],[41.68971,-1.48952],[41.65211,-1.56512],[41.63331,-1.58034],[41.61061,-1.59319],[41.57504,-1.6526],[41.55486,-1.66969],[41.56105,-1.66969],[41.53509,-1.6963],[41.53858,-1.6137],[41.53496,-1.59478],[41.52287,-1.57277],[40.97975,-0.8708],[40.96849,-0.00274],[40.96849,2.49711],[40.96538,2.81414]]]},"source":"Natural Earth Admin 0 Countries, 1:10m, version 5.1.1","sourceUrl":"https://www.naturalearthdata.com/downloads/10m-cultural-vectors/10m-admin-0-countries/"}
