{"type":"Feature","properties":{"isoA2":"ST","name":"São Tomé and Príncipe"},"geometry":{"type":"MultiPolygon","coordinates":[[[[6.46168,0.22215],[6.46632,0.23102],[6.46811,0.23981],[6.46852,0.25995],[6.47088,0.26789],[6.49024,0.29096],[6.49781,0.31269],[6.53305,0.34813],[6.5783,0.36457],[6.60955,0.39037],[6.64186,0.41079],[6.68141,0.40713],[6.70387,0.39183],[6.72706,0.36693],[6.7461,0.33808],[6.75652,0.31086],[6.76092,0.28417],[6.76051,0.2683],[6.75652,0.25007],[6.74855,0.2307],[6.74008,0.21857],[6.71559,0.19546],[6.70314,0.18041],[6.67457,0.13337],[6.65919,0.12885],[6.65333,0.12458],[6.66,0.10733],[6.6526,0.10322],[6.63364,0.09858],[6.61622,0.07811],[6.57838,0.07811],[6.56772,0.04214],[6.5573,0.02827],[6.5442,0.04393],[6.53696,0.02644],[6.52662,0.02412],[6.51637,0.03364],[6.5101,0.05142],[6.51173,0.05272],[6.51661,0.06997],[6.51694,0.07811],[6.51368,0.08828],[6.5027,0.09858],[6.4673,0.21247],[6.46168,0.22215]]],[[[7.32936,1.59626],[7.33009,1.61465],[7.33937,1.61311],[7.35597,1.62002],[7.36402,1.62938],[7.36647,1.64179],[7.36655,1.65811],[7.37184,1.67719],[7.38527,1.69233],[7.40301,1.69977],[7.42124,1.69571],[7.44874,1.69318],[7.45973,1.6883],[7.46274,1.67455],[7.45737,1.66999],[7.43483,1.65888],[7.42872,1.64785],[7.44353,1.64545],[7.45672,1.63833],[7.46176,1.63081],[7.43824,1.62393],[7.43442,1.61522],[7.43556,1.5926],[7.43051,1.57274],[7.42555,1.56273],[7.41822,1.5585],[7.40577,1.55646],[7.40211,1.55073],[7.40138,1.5312],[7.39405,1.5454],[7.38103,1.53799],[7.37224,1.55415],[7.35841,1.5589],[7.34376,1.55988],[7.33253,1.56533],[7.32936,1.59626]]]]},"source":"Natural Earth Admin 0 Countries, 1:10m, version 5.1.1","sourceUrl":"https://www.naturalearthdata.com/downloads/10m-cultural-vectors/10m-admin-0-countries/"}
