{"type":"Feature","properties":{"isoA2":"SV","name":"El Salvador"},"geometry":{"type":"MultiPolygon","coordinates":[[[[-90.11478,13.812],[-90.1123,13.82825],[-90.10698,13.84407],[-90.09904,13.85851],[-90.08708,13.87047],[-90.05964,13.88471],[-90.04737,13.89429],[-90.03809,13.90838],[-90.02298,13.93695],[-90.00817,13.94969],[-89.91208,14.01519],[-89.89079,14.03589],[-89.88012,14.04268],[-89.83585,14.05909],[-89.8211,14.06007],[-89.80296,14.05547],[-89.77694,14.03579],[-89.76227,14.03],[-89.74764,14.03765],[-89.74726,14.0432],[-89.75446,14.0594],[-89.75545,14.06708],[-89.75261,14.07524],[-89.70987,14.14872],[-89.68984,14.17001],[-89.66463,14.18885],[-89.63832,14.20056],[-89.53094,14.22557],[-89.52451,14.23177],[-89.52466,14.24737],[-89.52786,14.25146],[-89.54055,14.25761],[-89.54492,14.26182],[-89.54988,14.28828],[-89.55859,14.30282],[-89.56437,14.30815],[-89.57127,14.31114],[-89.59217,14.31383],[-89.59835,14.32799],[-89.59243,14.33639],[-89.58241,14.34336],[-89.57608,14.35313],[-89.57897,14.36478],[-89.58628,14.37468],[-89.59057,14.38597],[-89.58406,14.40181],[-89.56988,14.41202],[-89.55518,14.41083],[-89.54425,14.40005],[-89.54135,14.38153],[-89.52776,14.39106],[-89.50303,14.42005],[-89.48528,14.42739],[-89.46942,14.42537],[-89.44683,14.41553],[-89.4311,14.41871],[-89.40836,14.44152],[-89.39818,14.44537],[-89.39686,14.42605],[-89.39061,14.43599],[-89.36182,14.41551],[-89.30757,14.40705],[-89.27654,14.39274],[-89.22553,14.38215],[-89.20016,14.36468],[-89.15399,14.3513],[-89.1445,14.35972],[-89.13011,14.38675],[-89.12218,14.39468],[-89.11334,14.39705],[-89.10748,14.39597],[-89.09683,14.38401],[-89.09184,14.37483],[-89.08967,14.36489],[-89.09055,14.35471],[-89.09448,14.34486],[-89.08308,14.33533],[-89.04898,14.33145],[-89.03298,14.32367],[-89.0266,14.3113],[-89.02262,14.28065],[-89.01813,14.27169],[-88.99275,14.25296],[-88.98353,14.24213],[-88.97456,14.22738],[-88.96599,14.19138],[-88.95718,14.18518],[-88.94749,14.18727],[-88.92165,14.19988],[-88.90602,14.19957],[-88.88126,14.1842],[-88.86033,14.15852],[-88.84532,14.12862],[-88.83876,14.10041],[-88.82119,14.10294],[-88.77734,14.09974],[-88.76543,14.10426],[-88.75512,14.11046],[-88.74639,14.11134],[-88.73923,14.09994],[-88.74006,14.08302],[-88.74608,14.06656],[-88.74665,14.05248],[-88.73096,14.04248],[-88.70486,14.03803],[-88.69766,14.03201],[-88.6927,14.02529],[-88.69045,14.01695],[-88.69094,14.01],[-88.68482,14.0123],[-88.65934,14.01612],[-88.63386,14.01447],[-88.5581,13.9909],[-88.51405,13.98765],[-88.50436,13.9837],[-88.49542,13.97514],[-88.49651,13.96956],[-88.4979,13.96837],[-88.50229,13.96894],[-88.49609,13.95569],[-88.49682,13.94403],[-88.50229,13.91711],[-88.48868,13.88135],[-88.48801,13.86533],[-88.49682,13.8512],[-88.47015,13.85249],[-88.45144,13.86357],[-88.43323,13.87107],[-88.39295,13.87977],[-88.38336,13.87926],[-88.36742,13.87311],[-88.36011,13.87238],[-88.35819,13.8874],[-88.35507,13.89096],[-88.34057,13.89003],[-88.32621,13.88507],[-88.31926,13.8976],[-88.30843,13.90148],[-88.29631,13.90236],[-88.28543,13.90597],[-88.27753,13.91334],[-88.27016,13.92602],[-88.2636,13.9331],[-88.25164,13.93809],[-88.24277,13.9367],[-88.23637,13.93814],[-88.23159,13.95181],[-88.24438,13.9661],[-88.24536,13.98589],[-88.24489,13.98925],[-88.23507,13.99287],[-88.22006,13.99132],[-88.19348,13.98556],[-88.17753,13.98519],[-88.12539,13.99127],[-88.09904,13.98982],[-88.08754,13.98054],[-88.07289,13.94341],[-88.05839,13.92649],[-88.03997,13.91013],[-88.02364,13.89117],[-88.01532,13.86636],[-87.96974,13.88853],[-87.95478,13.89246],[-87.94693,13.89091],[-87.93217,13.88156],[-87.92533,13.87962],[-87.90788,13.89153],[-87.90011,13.89414],[-87.87055,13.88957],[-87.86091,13.89019],[-87.85122,13.89688],[-87.84295,13.90711],[-87.8329,13.91525],[-87.81789,13.91587],[-87.80846,13.90864],[-87.79872,13.88233],[-87.79061,13.87047],[-87.76534,13.85887],[-87.7212,13.8219],[-87.70361,13.815],[-87.71263,13.80045],[-87.73281,13.75511],[-87.73784,13.73878],[-87.73136,13.72221],[-87.73629,13.71146],[-87.74632,13.70219],[-87.75503,13.68991],[-87.75864,13.67227],[-87.75782,13.63516],[-87.76009,13.61695],[-87.78407,13.56047],[-87.78993,13.53282],[-87.77947,13.50998],[-87.76916,13.50636],[-87.74797,13.51323],[-87.73343,13.5077],[-87.72573,13.49897],[-87.72058,13.48698],[-87.7188,13.47368],[-87.72115,13.46083],[-87.73841,13.44169],[-87.81717,13.40656],[-87.82571,13.41128],[-87.83068,13.4195],[-87.83829,13.44094],[-87.86644,13.39334],[-87.87377,13.36526],[-87.85538,13.35281],[-87.84362,13.34846],[-87.81041,13.31741],[-87.79153,13.30496],[-87.78991,13.2991],[-87.78991,13.28701],[-87.79809,13.26565],[-87.81798,13.25039],[-87.89232,13.21389],[-87.91246,13.19819],[-87.916,13.1822],[-87.89293,13.16657],[-87.92821,13.15864],[-88.06603,13.16787],[-88.09838,13.17402],[-88.10521,13.17402],[-88.12194,13.16755],[-88.20828,13.16043],[-88.30089,13.17422],[-88.32494,13.16657],[-88.35228,13.17402],[-88.35228,13.18024],[-88.3297,13.18171],[-88.32811,13.19709],[-88.3402,13.21613],[-88.35843,13.22866],[-88.34256,13.20466],[-88.33792,13.19453],[-88.37405,13.19571],[-88.39175,13.19392],[-88.40685,13.18769],[-88.39721,13.18362],[-88.37999,13.18741],[-88.36588,13.18769],[-88.36588,13.18024],[-88.38915,13.17084],[-88.41482,13.17158],[-88.43484,13.18366],[-88.44103,13.2082],[-88.42736,13.20136],[-88.41369,13.21503],[-88.41369,13.22122],[-88.43078,13.22879],[-88.44957,13.25458],[-88.46215,13.26223],[-88.45877,13.24775],[-88.45311,13.23591],[-88.45019,13.22537],[-88.4547,13.21503],[-88.46923,13.22309],[-88.5115,13.23347],[-88.52978,13.24295],[-88.5463,13.27176],[-88.55398,13.27643],[-88.5657,13.27737],[-88.59866,13.28388],[-88.61339,13.28388],[-88.65392,13.27643],[-88.71044,13.27497],[-88.72277,13.2696],[-88.70873,13.26052],[-88.7014,13.25934],[-88.69485,13.26223],[-88.66661,13.25576],[-88.58633,13.26423],[-88.57738,13.26284],[-88.56448,13.25601],[-88.54503,13.23477],[-88.53661,13.22866],[-88.53661,13.22122],[-88.56896,13.22683],[-88.59866,13.2355],[-88.59866,13.22866],[-88.51671,13.21223],[-88.47391,13.19863],[-88.4547,13.18024],[-88.4617,13.16828],[-88.4796,13.17121],[-88.52746,13.19843],[-88.78567,13.24527],[-89.06481,13.37202],[-89.1835,13.44306],[-89.25145,13.47232],[-89.32486,13.48932],[-89.359,13.48932],[-89.385,13.49531],[-89.52707,13.49417],[-89.61635,13.51438],[-89.67977,13.53473],[-89.71313,13.528],[-89.80805,13.52686],[-89.8233,13.53714],[-89.83338,13.57389],[-89.83715,13.59683],[-89.84966,13.60688],[-89.95132,13.66411],[-90.09831,13.7314],[-90.11431,13.79627],[-90.11478,13.812]]],[[[-87.72835,13.18568],[-87.72629,13.19839],[-87.72719,13.21111],[-87.71991,13.21619],[-87.70609,13.21173],[-87.69756,13.19331],[-87.697,13.17806],[-87.69319,13.16786],[-87.70167,13.16341],[-87.71458,13.1679],[-87.72311,13.16408],[-87.72303,13.17489],[-87.72835,13.18568]]],[[[-87.78017,13.24164],[-87.77429,13.24737],[-87.76578,13.24801],[-87.75793,13.24356],[-87.75139,13.22893],[-87.76381,13.21429],[-87.77689,13.22574],[-87.78017,13.24164]]]]},"source":"Natural Earth Admin 0 Countries, 1:10m, version 5.1.1","sourceUrl":"https://www.naturalearthdata.com/downloads/10m-cultural-vectors/10m-admin-0-countries/"}
