{"type":"Feature","properties":{"isoA2":"TD","name":"Chad"},"geometry":{"type":"Polygon","coordinates":[[[13.44918,14.38013],[13.44949,14.43904],[13.48226,14.48359],[13.50779,14.49596],[13.54386,14.51056],[13.58437,14.51382],[13.62426,14.52131],[13.65785,14.54872],[13.6656,14.56689],[13.66674,14.58552],[13.66033,14.62373],[13.65703,14.62965],[13.64628,14.63906],[13.64473,14.64425],[13.64835,14.64942],[13.66808,14.66288],[13.70002,14.69773],[13.70999,14.70512],[13.73005,14.70965],[13.74916,14.71125],[13.76436,14.71908],[13.77325,14.74251],[13.77201,14.76287],[13.75795,14.80553],[13.75392,14.82594],[13.75516,14.84721],[13.76053,14.86636],[13.83391,15.0196],[14.36897,15.74963],[15.45242,16.87623],[15.46555,16.89468],[15.47195,16.91675],[15.73602,19.90354],[15.76723,19.98204],[15.96298,20.31923],[15.97032,20.33633],[15.96815,20.35282],[15.95399,20.37457],[15.66946,20.67187],[15.58812,20.73279],[15.57024,20.75191],[15.55608,20.77367],[15.5442,20.79899],[15.53603,20.84405],[15.5443,20.8903],[15.569,20.92891],[15.60931,20.95066],[15.30101,21.40133],[15.26659,21.44066],[15.24747,21.45326],[15.20024,21.47647],[15.18453,21.4912],[15.1804,21.50727],[15.17202,21.99339],[14.97991,22.99566],[15.96464,23.44221],[15.9851,23.44472],[23.98131,19.49612],[23.98441,15.72116],[23.97262,15.69108],[23.94555,15.69222],[23.82907,15.73103],[23.70752,15.74886],[23.5927,15.74901],[23.52707,15.73517],[23.39581,15.68835],[23.32057,15.68132],[23.16678,15.71294],[23.09464,15.70426],[23.06849,15.68669],[23.00452,15.61143],[22.92566,15.56394],[22.90675,15.5414],[22.89951,15.51019],[22.90685,15.48141],[22.92359,15.45557],[22.94499,15.43312],[22.96648,15.40482],[22.97641,15.37364],[22.97837,15.3402],[22.96566,15.2239],[22.95801,15.20163],[22.91326,15.12169],[22.90551,15.11257],[22.87161,15.0997],[22.84877,15.0875],[22.82903,15.07164],[22.7389,14.97981],[22.72722,14.95904],[22.72195,14.93467],[22.72102,14.91594],[22.71534,14.89943],[22.69549,14.88147],[22.65891,14.85741],[22.65084,14.84194],[22.65084,14.81615],[22.65901,14.76127],[22.66459,14.74375],[22.67968,14.71182],[22.68144,14.70293],[22.67658,14.68897],[22.66635,14.68174],[22.46543,14.62929],[22.42274,14.60908],[22.38233,14.57911],[22.36352,14.54353],[22.38636,14.50653],[22.41716,14.4841],[22.42491,14.47044],[22.43907,14.36292],[22.45096,14.34579],[22.44993,14.33838],[22.44486,14.33336],[22.43132,14.32721],[22.42698,14.323],[22.41809,14.30595],[22.41706,14.29809],[22.41995,14.28623],[22.42905,14.26461],[22.44104,14.24986],[22.45768,14.24115],[22.51411,14.23146],[22.53188,14.22063],[22.54088,14.20118],[22.5477,14.16903],[22.54635,14.13971],[22.53147,14.12263],[22.50822,14.11364],[22.48145,14.10855],[22.45871,14.09612],[22.42161,14.06214],[22.40228,14.0493],[22.24353,13.97543],[22.21469,13.95662],[22.19061,13.93279],[22.09935,13.81942],[22.07496,13.78032],[22.07372,13.77136],[22.09708,13.74976],[22.11289,13.72983],[22.1163,13.71518],[22.11434,13.69971],[22.11434,13.67738],[22.13212,13.63865],[22.19589,13.58046],[22.21056,13.54173],[22.21118,13.48419],[22.21562,13.46499],[22.22865,13.44112],[22.264,13.39918],[22.27598,13.37632],[22.26761,13.33456],[22.23227,13.28904],[22.13997,13.19351],[22.12344,13.18217],[22.01605,13.14023],[21.99838,13.13059],[21.96407,13.09835],[21.93513,13.05915],[21.85296,12.90573],[21.82785,12.8311],[21.80945,12.79367],[21.81369,12.7823],[21.84087,12.74894],[21.88014,12.67628],[21.90081,12.65644],[21.93595,12.63954],[21.97719,12.63184],[22.01967,12.63143],[22.05874,12.6367],[22.10587,12.65039],[22.1441,12.67127],[22.17625,12.7015],[22.20488,12.74336],[22.33014,12.66145],[22.43246,12.62383],[22.44569,12.61107],[22.39587,12.49609],[22.37282,12.46312],[22.37489,12.45087],[22.40797,12.39976],[22.48145,12.17667],[22.48403,12.16474],[22.48383,12.14034],[22.45809,12.03043],[22.47049,12.03611],[22.48145,12.04428],[22.54646,12.06443],[22.58553,12.07136],[22.59886,12.06324],[22.60733,12.07771],[22.6124,12.0728],[22.61353,12.05725],[22.61054,12.03963],[22.59286,11.98893],[22.53705,11.68089],[22.5417,11.63299],[22.56175,11.58601],[22.59235,11.54366],[22.62811,11.50984],[22.66252,11.49307],[22.74303,11.4661],[22.76877,11.44233],[22.77156,11.43331],[22.77187,11.40318],[22.78179,11.39889],[22.87698,11.40884],[22.90044,11.40825],[22.91481,11.3961],[22.92835,11.32515],[22.95367,11.25094],[22.95646,11.2088],[22.95201,11.19105],[22.93517,11.15588],[22.92897,11.13793],[22.92566,11.11813],[22.92514,11.09795],[22.92235,11.08708],[22.90654,11.06989],[22.90023,11.05989],[22.86106,10.91915],[22.80598,10.9245],[22.7451,10.9438],[22.71988,10.96466],[22.68268,10.97414],[22.63834,10.97414],[22.62821,10.97613],[22.60082,10.98781],[22.57705,10.98512],[22.55576,10.97897],[22.53468,10.98052],[22.51194,11.00083],[22.50284,10.99217],[22.49075,10.99315],[22.47628,10.99796],[22.46047,11.00083],[22.44714,10.99827],[22.43763,10.99155],[22.41923,10.97073],[22.40704,10.96305],[22.39184,10.95851],[22.36115,10.95365],[22.33944,10.94773],[22.31877,10.93936],[22.30596,10.93256],[22.28725,10.91595],[22.2765,10.90853],[22.26844,10.909],[22.25304,10.9153],[22.24012,10.9059],[22.22937,10.89197],[22.20064,10.86867],[22.18979,10.8373],[22.17635,10.81621],[22.14824,10.83076],[22.13243,10.82854],[22.04861,10.83699],[22.02949,10.82875],[22.01833,10.80988],[22.0114,10.78929],[22.00489,10.77552],[22.0146,10.75456],[22.00386,10.74327],[21.94308,10.72826],[21.92562,10.72012],[21.89503,10.69919],[21.87208,10.67759],[21.86836,10.67622],[21.86361,10.66793],[21.85275,10.67015],[21.83291,10.67994],[21.82258,10.67876],[21.78485,10.66932],[21.7742,10.65517],[21.76842,10.65199],[21.75343,10.65072],[21.73648,10.64617],[21.72263,10.63672],[21.71684,10.62101],[21.71467,10.6014],[21.70548,10.57181],[21.70331,10.55241],[21.70548,10.53202],[21.71467,10.4937],[21.71684,10.47732],[21.72046,10.46802],[21.74423,10.43911],[21.74279,10.42577],[21.74361,10.41898],[21.75105,10.41182],[21.72046,10.36082],[21.71684,10.33981],[21.71777,10.32898],[21.72305,10.30599],[21.71881,10.29663],[21.70889,10.29353],[21.69741,10.29242],[21.68894,10.28891],[21.67695,10.26917],[21.66889,10.2492],[21.65628,10.23367],[21.63065,10.22744],[21.62527,10.22449],[21.59344,10.21455],[21.58972,10.21661],[21.57928,10.21227],[21.54497,10.22],[21.51324,10.20051],[21.48544,10.16432],[21.43335,10.04606],[21.40689,10.00557],[21.37433,9.97311],[21.3395,9.95991],[21.32607,9.96275],[21.28514,9.97859],[21.27129,9.98725],[21.25692,9.97575],[21.20566,9.91684],[21.19843,9.90299],[21.19543,9.8873],[21.18726,9.88513],[21.13197,9.84943],[21.12174,9.83191],[21.10675,9.79545],[21.10675,9.77806],[21.1052,9.77403],[21.09704,9.77537],[21.09311,9.77434],[21.08029,9.76261],[21.06583,9.7545],[21.06221,9.7562],[21.05291,9.76589],[21.04836,9.76816],[21.04267,9.76708],[21.03782,9.76067],[21.02562,9.75326],[21.01994,9.74793],[21.01735,9.74359],[21.01425,9.72447],[21.00009,9.69739],[20.99689,9.68218],[20.99606,9.6483],[20.98996,9.63561],[20.9758,9.63096],[20.9758,9.62417],[20.9818,9.61678],[20.98314,9.60368],[20.96764,9.6106],[20.96226,9.60693],[20.96051,9.59812],[20.95596,9.58942],[20.93426,9.57706],[20.92506,9.5696],[20.92123,9.55898],[20.91266,9.54433],[20.87421,9.5025],[20.86377,9.49379],[20.84145,9.48441],[20.83431,9.46247],[20.83266,9.43726],[20.82615,9.41808],[20.82026,9.41622],[20.80196,9.42555],[20.79824,9.42338],[20.79235,9.414],[20.77654,9.4078],[20.76662,9.38656],[20.75794,9.37713],[20.7505,9.38454],[20.74088,9.37713],[20.69582,9.36346],[20.65489,9.34297],[20.66792,9.30202],[20.61665,9.30202],[20.59288,9.30822],[20.57231,9.30822],[20.55092,9.32026],[20.54183,9.32163],[20.53821,9.31194],[20.53728,9.2992],[20.53366,9.28964],[20.52643,9.28362],[20.51423,9.2815],[20.49614,9.27088],[20.50266,9.24742],[20.51299,9.22388],[20.5072,9.21326],[20.48178,9.20466],[20.46762,9.18414],[20.45542,9.15931],[20.43517,9.13813],[20.42307,9.14324],[20.41243,9.14205],[20.37832,9.12007],[20.35941,9.11642],[20.27683,9.12074],[20.25699,9.11642],[20.22298,9.14195],[20.21265,9.14497],[20.19797,9.1405],[20.16955,9.12089],[20.15456,9.11642],[20.13761,9.12182],[20.12573,9.13378],[20.11715,9.14575],[20.1096,9.15117],[20.10103,9.14807],[20.09937,9.13071],[20.09059,9.13112],[20.07694,9.13673],[20.06868,9.13813],[20.06051,9.13435],[20.03116,9.11022],[20.02837,9.10456],[20.03033,9.09386],[20.02434,9.08976],[20.01793,9.09105],[20.01442,9.10634],[20.00687,9.11022],[20.00294,9.10852],[19.99953,9.1043],[19.99302,9.08459],[19.96904,9.08288],[19.94341,9.06588],[19.92874,9.06258],[19.91447,9.06927],[19.90217,9.0518],[19.88946,9.04637],[19.80554,9.05113],[19.78466,9.04875],[19.75841,9.04198],[19.73815,9.03937],[19.71397,9.02914],[19.70901,9.02457],[19.70002,9.02059],[19.6564,9.02126],[19.64007,9.014],[19.61361,9.03167],[19.58312,9.02534],[19.55377,9.01333],[19.53083,9.014],[19.52132,9.00883],[19.51584,9.00945],[19.50664,9.014],[19.43016,9.01286],[19.42096,9.01744],[19.38262,9.0032],[19.36939,9.00038],[19.35223,9.00206],[19.33332,9.00656],[19.31627,9.01312],[19.30479,9.02085],[19.29549,9.0095],[19.28578,9.01281],[19.27524,9.02198],[19.26325,9.02826],[19.25343,9.02795],[19.23286,9.02229],[19.19204,9.02017],[19.17964,9.01526],[19.17457,9.00377],[19.16878,9.00222],[19.14212,9.00868],[19.12672,9.00718],[19.10057,9.01526],[19.06068,9.00418],[19.02192,8.98522],[18.99949,8.96964],[18.98482,8.95643],[18.97851,8.94946],[18.97593,8.94199],[18.9719,8.93821],[18.95205,8.93199],[18.93645,8.92336],[18.92859,8.92168],[18.92291,8.91822],[18.91774,8.89881],[18.91061,8.89424],[18.90141,8.89398],[18.89273,8.89793],[18.86968,8.86411],[18.86978,8.84941],[18.88653,8.83584],[18.90296,8.84481],[18.90968,8.83533],[18.91247,8.8184],[18.91733,8.80515],[18.92911,8.79654],[19.04869,8.74567],[19.05778,8.7297],[19.07349,8.72053],[19.10388,8.69805],[19.12413,8.67508],[19.09147,8.65286],[19.08166,8.63723],[19.0613,8.62562],[19.02047,8.54558],[18.92053,8.43212],[18.9104,8.41298],[18.90131,8.38864],[18.88746,8.37096],[18.8549,8.3398],[18.81304,8.27642],[18.79124,8.25738],[18.77377,8.24862],[18.71506,8.22867],[18.67259,8.20751],[18.63858,8.17764],[18.61864,8.13865],[18.61791,8.09013],[18.58928,8.04788],[18.50825,8.03067],[18.07045,8.0192],[17.97723,7.99719],[17.89785,7.96747],[17.85879,7.96044],[17.81724,7.9621],[17.67978,7.9852],[17.6618,7.98628],[17.63988,7.98504],[17.62066,7.97874],[17.59999,7.95037],[17.58077,7.9406],[17.55979,7.93471],[17.52382,7.93099],[17.50367,7.92624],[17.48723,7.91445],[17.47834,7.89182],[17.46636,7.88412],[17.41912,7.89823],[17.406,7.88303],[17.38574,7.87048],[17.25086,7.82283],[17.23464,7.81162],[17.22068,7.79818],[17.21448,7.78681],[17.21107,7.76831],[17.20456,7.76382],[17.1964,7.76516],[17.18865,7.76413],[17.17056,7.74754],[17.13552,7.70511],[17.1163,7.68687],[17.10193,7.67772],[17.09552,7.67824],[17.09025,7.68382],[17.07909,7.68992],[17.05935,7.69653],[17.0456,7.6847],[17.04106,7.6755],[17.04209,7.66703],[17.03899,7.66248],[17.0083,7.66765],[16.99755,7.66672],[16.98897,7.66077],[16.98194,7.64873],[16.96272,7.6507],[16.91962,7.64408],[16.88065,7.63287],[16.86546,7.62444],[16.85482,7.61148],[16.84717,7.59158],[16.8481,7.58471],[16.85585,7.5754],[16.85389,7.5675],[16.85037,7.5659],[16.83673,7.5675],[16.81285,7.54771],[16.80552,7.54368],[16.78236,7.54114],[16.76862,7.55024],[16.74671,7.58657],[16.70981,7.62775],[16.68687,7.64579],[16.6632,7.65742],[16.62455,7.66868],[16.61421,7.67958],[16.60987,7.7016],[16.61183,7.7139],[16.61617,7.72387],[16.61814,7.73431],[16.61307,7.74821],[16.60522,7.7572],[16.57638,7.7678],[16.56016,7.77973],[16.54931,7.79472],[16.54486,7.81301],[16.55024,7.8435],[16.55075,7.8527],[16.54868,7.87001],[16.5092,7.85828],[16.49174,7.84924],[16.47572,7.8358],[16.46941,7.82583],[16.45722,7.79963],[16.45091,7.79208],[16.43737,7.78836],[16.41815,7.79586],[16.4074,7.79606],[16.39221,7.78361],[16.38704,7.76263],[16.38714,7.69467],[16.38301,7.68067],[16.37081,7.6725],[16.28276,7.6601],[16.26188,7.65189],[16.22726,7.62558],[16.20721,7.61354],[16.18561,7.61075],[16.16266,7.61111],[16.12876,7.59949],[16.0652,7.59122],[16.04298,7.58393],[16.02634,7.57489],[16.01228,7.56032],[15.99037,7.52941],[15.9757,7.5152],[15.94314,7.49531],[15.92526,7.48818],[15.7939,7.458],[15.75835,7.45557],[15.72,7.46864],[15.66853,7.51629],[15.62481,7.51975],[15.55195,7.50988],[15.51557,7.5122],[15.48105,7.52326],[15.52198,7.57608],[15.54895,7.6308],[15.56218,7.69018],[15.56291,7.79244],[15.50937,7.80402],[15.48787,7.80495],[15.44074,7.83942],[15.40653,7.92159],[15.34535,8.13599],[15.1837,8.47915],[15.16851,8.4986],[15.11074,8.55514],[15.06857,8.62387],[15.05193,8.64379],[15.03126,8.65875],[15.00583,8.66663],[14.96852,8.67216],[14.95509,8.67622],[14.95147,8.68283],[14.95147,8.69211],[14.94909,8.70428],[14.9401,8.72965],[14.93442,8.739],[14.92728,8.74507],[14.91995,8.74771],[14.91333,8.75244],[14.90827,8.76484],[14.89938,8.77432],[14.8599,8.80331],[14.84605,8.81099],[14.82796,8.81316],[14.80988,8.80861],[14.79386,8.81362],[14.34954,9.16836],[14.33114,9.20022],[14.32133,9.24316],[14.03649,9.56877],[13.9476,9.63776],[13.94595,9.65264],[14.00672,9.73928],[14.08847,9.80964],[14.11979,9.85201],[14.16836,9.94774],[14.17353,9.97503],[14.1817,9.97818],[14.44049,9.99531],[14.73246,9.92381],[14.77257,9.92175],[14.89814,9.96048],[14.94413,9.95882],[15.00242,9.94505],[15.03302,9.94286],[15.06123,9.94924],[15.07167,9.95596],[15.08944,9.97218],[15.10071,9.9789],[15.1096,9.98154],[15.15549,9.98652],[15.21492,9.98409],[15.38297,9.9302],[15.4394,9.93169],[15.68124,9.99128],[15.63794,10.02996],[15.6028,10.04099],[15.53614,10.08052],[15.49014,10.12011],[15.49066,10.12445],[15.4764,10.13274],[15.43919,10.18525],[15.30142,10.31175],[15.29057,10.32898],[15.28427,10.34929],[15.2822,10.37459],[15.27837,10.39428],[15.26876,10.40634],[15.25564,10.41704],[15.24117,10.4329],[15.22721,10.47014],[15.21833,10.48722],[15.19817,10.49649],[15.1866,10.50587],[15.16469,10.50907],[15.14443,10.51631],[15.13823,10.52166],[15.13172,10.5407],[15.13234,10.5654],[15.13843,10.58969],[15.14846,10.60734],[15.14991,10.62312],[15.14226,10.64721],[15.06588,10.79312],[15.06309,10.83076],[15.0756,10.8735],[15.07901,10.89815],[15.0727,10.91577],[15.06247,10.9307],[15.03519,10.99463],[15.02123,11.18255],[15.02826,11.24448],[15.03332,11.26027],[15.05637,11.29342],[15.06309,11.30993],[15.06226,11.32003],[15.05255,11.3298],[15.04945,11.33727],[15.04945,11.34871],[15.0543,11.36409],[15.06061,11.41613],[15.06702,11.43556],[15.07611,11.45331],[15.12231,11.50323],[15.13564,11.53082],[15.12386,11.56317],[15.09575,11.59816],[15.08521,11.61588],[15.0694,11.66079],[15.0665,11.68063],[15.06826,11.70011],[15.07611,11.72146],[15.09306,11.7229],[15.0972,11.72766],[15.09596,11.73412],[15.08531,11.74404],[15.08355,11.74817],[15.08914,11.75763],[15.10536,11.77272],[15.11094,11.7829],[15.08634,11.84047],[15.07983,11.85122],[15.06278,11.85349],[15.051,11.8616],[15.04418,11.87731],[15.04201,11.90237],[15.04697,11.91018],[15.05658,11.91845],[15.0634,11.92728],[15.05058,11.95286],[15.04831,11.96279],[15.05255,11.96723],[15.08118,11.97167],[15.07684,11.98284],[15.05968,11.99731],[15.04945,12.01193],[15.05368,12.03188],[15.05307,12.03803],[15.04573,12.04609],[15.04056,12.05565],[15.04087,12.06758],[15.04459,12.07839],[15.04945,12.08459],[15.03043,12.10092],[15.01183,12.10862],[14.99384,12.1067],[14.97679,12.09415],[14.9648,12.09244],[14.95075,12.10334],[14.92873,12.12861],[14.9031,12.14588],[14.89804,12.1528],[14.89483,12.16737],[14.8999,12.17177],[14.90744,12.17347],[14.91157,12.18014],[14.91013,12.19037],[14.90093,12.20003],[14.89804,12.20747],[14.89804,12.21946],[14.9031,12.23626],[14.90486,12.2484],[14.9063,12.31796],[14.90827,12.3269],[14.89122,12.40265],[14.87747,12.4272],[14.8785,12.44307],[14.87747,12.44704],[14.86589,12.45257],[14.86186,12.45201],[14.86383,12.44704],[14.85545,12.45454],[14.85101,12.45516],[14.84956,12.45702],[14.85204,12.47469],[14.86383,12.49547],[14.83075,12.61825],[14.81918,12.63882],[14.78621,12.63122],[14.76885,12.63324],[14.75872,12.65882],[14.7521,12.66894],[14.74332,12.67716],[14.73412,12.68042],[14.72885,12.67721],[14.71365,12.65251],[14.70208,12.669],[14.71675,12.70181],[14.70993,12.71824],[14.69402,12.72372],[14.66446,12.71597],[14.64813,12.72512],[14.64172,12.7309],[14.62425,12.74188],[14.62074,12.74785],[14.61836,12.7592],[14.61061,12.76235],[14.604,12.7608],[14.58488,12.74635],[14.57526,12.74491],[14.57072,12.75039],[14.56937,12.7694],[14.56069,12.76622],[14.5548,12.7669],[14.55108,12.77157],[14.54901,12.78046],[14.54901,12.81821],[14.53103,12.83625],[14.50044,12.85911],[14.4901,12.87361],[14.49062,12.88635],[14.50612,12.93208],[14.50767,12.95244],[14.50468,12.969],[14.4963,12.98381],[14.48214,12.99882],[14.43543,13.07029],[14.41817,13.08114],[14.06491,13.07799],[13.60731,13.7041],[13.48226,14.25978],[13.44918,14.38013]]]},"source":"Natural Earth Admin 0 Countries, 1:10m, version 5.1.1","sourceUrl":"https://www.naturalearthdata.com/downloads/10m-cultural-vectors/10m-admin-0-countries/"}
