{"type":"Feature","properties":{"isoA2":"TR","name":"Turkey"},"geometry":{"type":"MultiPolygon","coordinates":[[[[26.07,39.49628],[26.09498,39.54857],[26.11069,39.59789],[26.1482,39.62604],[26.15675,39.64924],[26.16359,39.70417],[26.15935,39.71491],[26.14064,39.74274],[26.1364,39.75568],[26.13787,39.76455],[26.14674,39.77021],[26.14991,39.77611],[26.14991,39.79999],[26.15496,39.82616],[26.1517,39.83515],[26.1364,39.83759],[26.14186,39.84903],[26.15675,39.89899],[26.15065,39.92471],[26.14991,39.93378],[26.1526,39.94261],[26.16163,39.9562],[26.16765,39.97358],[26.18865,40.00178],[26.19777,40.00886],[26.25115,39.99486],[26.26694,40.00308],[26.3003,40.01439],[26.31105,40.01948],[26.3532,40.05215],[26.36215,40.06346],[26.365,40.07176],[26.36622,40.08462],[26.37037,40.09471],[26.3694,40.10293],[26.37281,40.10448],[26.38901,40.10517],[26.39324,40.10822],[26.39959,40.12084],[26.40349,40.13898],[26.40301,40.1579],[26.39633,40.17276],[26.40284,40.18744],[26.40797,40.19367],[26.44142,40.1966],[26.46754,40.206],[26.50074,40.21296],[26.51938,40.22516],[26.56365,40.27017],[26.59498,40.28262],[26.60759,40.29043],[26.71461,40.39061],[26.73561,40.40355],[26.7767,40.4055],[26.86305,40.39989],[26.89723,40.40615],[26.90821,40.40371],[26.93442,40.39248],[26.99147,40.38862],[27.01336,40.39248],[27.04127,40.40961],[27.06577,40.43354],[27.09636,40.4523],[27.14308,40.45392],[27.17701,40.4488],[27.21534,40.4477],[27.23756,40.45185],[27.2715,40.46784],[27.28696,40.46821],[27.3034,40.45844],[27.31373,40.44408],[27.32862,40.41356],[27.31495,40.40615],[27.30812,40.40615],[27.30323,40.41096],[27.30177,40.409],[27.29444,40.40615],[27.33758,40.37031],[27.39291,40.34211],[27.45232,40.32201],[27.52329,40.30878],[27.55128,40.30882],[27.56202,40.31049],[27.59702,40.32832],[27.61297,40.331],[27.64088,40.32612],[27.66505,40.31745],[27.688,40.31379],[27.71225,40.3242],[27.73259,40.31729],[27.76271,40.31538],[27.78981,40.32046],[27.81324,40.34711],[27.86736,40.36888],[27.88356,40.3863],[27.86525,40.38679],[27.81528,40.39989],[27.80055,40.39301],[27.79176,40.39289],[27.78582,40.41291],[27.78012,40.41572],[27.77345,40.41649],[27.76743,40.4204],[27.75636,40.4326],[27.75408,40.4383],[27.75318,40.45083],[27.75017,40.45759],[27.73373,40.45905],[27.72584,40.46137],[27.69321,40.48627],[27.68426,40.49616],[27.68426,40.50235],[27.6963,40.50641],[27.70606,40.51191],[27.72242,40.52627],[27.73316,40.53059],[27.74195,40.52631],[27.75017,40.52473],[27.76002,40.53706],[27.78045,40.51533],[27.7894,40.51423],[27.79518,40.5209],[27.8047,40.52277],[27.9699,40.503],[28.01417,40.49116],[28.03443,40.47443],[28.01677,40.45108],[27.92994,40.41694],[27.90398,40.39989],[27.90846,40.37421],[27.94467,40.36603],[28.02752,40.37202],[28.11199,40.39606],[28.34799,40.40404],[28.4004,40.39741],[28.48683,40.39989],[28.47609,40.39793],[28.46754,40.39435],[28.46168,40.38837],[28.45883,40.37946],[28.49952,40.3911],[28.54542,40.3913],[28.59278,40.3819],[28.63771,40.36518],[28.64381,40.37124],[28.65122,40.36636],[28.65805,40.36518],[28.66684,40.36811],[28.67742,40.37604],[28.68539,40.37946],[28.74187,40.38642],[28.75709,40.39619],[28.77198,40.40253],[28.79127,40.40046],[28.82545,40.39248],[28.85564,40.39118],[28.88404,40.3863],[28.89796,40.38133],[28.9214,40.37002],[28.93873,40.36518],[28.95655,40.36319],[29.03395,40.36445],[29.05161,40.36734],[29.06568,40.37572],[29.0739,40.38866],[29.08269,40.41568],[29.0901,40.42723],[29.10279,40.42304],[29.11899,40.42365],[29.1364,40.42788],[29.15154,40.43407],[29.13356,40.45075],[29.1115,40.46613],[29.0879,40.47748],[29.06568,40.48188],[29.011,40.48188],[29.00245,40.47866],[28.98032,40.46455],[28.96949,40.46137],[28.91668,40.47089],[28.82846,40.51301],[28.77418,40.52277],[28.79265,40.55329],[28.82683,40.57062],[28.89772,40.59174],[28.92775,40.60643],[28.97006,40.63947],[28.98634,40.64476],[29.28159,40.66592],[29.32325,40.67674],[29.36378,40.69416],[29.38453,40.70649],[29.39186,40.70783],[29.39918,40.70258],[29.40724,40.6931],[29.41684,40.68675],[29.46144,40.70417],[29.47006,40.71894],[29.47926,40.72407],[29.49057,40.72724],[29.50115,40.72891],[29.51124,40.72748],[29.52752,40.7215],[29.54225,40.70966],[29.54884,40.69098],[29.55991,40.69107],[29.75327,40.72456],[29.8672,40.72891],[29.90358,40.71625],[29.92416,40.71646],[29.9393,40.73505],[29.92921,40.75804],[29.89015,40.76349],[29.80942,40.75556],[29.78663,40.74885],[29.7754,40.74873],[29.76384,40.75275],[29.73756,40.76984],[29.72153,40.77204],[29.68653,40.78156],[29.66619,40.78352],[29.42872,40.77607],[29.41017,40.77123],[29.3943,40.76211],[29.37778,40.75654],[29.35694,40.7624],[29.34848,40.77094],[29.33953,40.78758],[29.32911,40.79035],[29.34343,40.7978],[29.33953,40.80781],[29.33334,40.81485],[29.31544,40.82445],[29.31105,40.81818],[29.30177,40.82445],[29.29347,40.81867],[29.25457,40.81078],[29.25457,40.81704],[29.26417,40.81794],[29.27076,40.82185],[29.2741,40.82884],[29.27459,40.83877],[29.28826,40.83129],[29.28842,40.83779],[29.29493,40.83877],[29.28386,40.85163],[29.26393,40.86978],[29.24098,40.88255],[29.22047,40.87971],[29.20134,40.89395],[29.14479,40.91413],[29.12428,40.92691],[29.10353,40.94672],[29.08318,40.95966],[29.02809,40.98212],[29.03289,40.98457],[29.03484,40.98957],[29.02329,40.99335],[29.01832,41.00389],[29.01466,41.01752],[29.00758,41.0305],[29.02605,41.03827],[29.04615,41.05549],[29.06235,41.07632],[29.07618,41.11441],[29.08815,41.12885],[29.09059,41.14094],[29.0691,41.15278],[29.09262,41.18037],[29.13006,41.2119],[29.16969,41.2331],[29.20623,41.22919],[29.21616,41.23941],[29.23178,41.24071],[29.41961,41.2143],[29.61883,41.1789],[29.88461,41.14899],[30.13689,41.14379],[30.16521,41.14663],[30.18002,41.15156],[30.20346,41.1645],[30.21705,41.16714],[30.22641,41.17292],[30.24049,41.19233],[30.2483,41.18757],[30.25904,41.19575],[30.27125,41.21117],[30.28248,41.21552],[30.29558,41.20742],[30.33668,41.20083],[30.36997,41.18134],[30.69923,41.12153],[30.73243,41.09943],[30.74806,41.09199],[30.83326,41.0799],[31.09059,41.08515],[31.11525,41.09602],[31.12477,41.09813],[31.13706,41.0976],[31.16944,41.09199],[31.21046,41.09813],[31.23121,41.09199],[31.23878,41.09369],[31.24293,41.10236],[31.24887,41.10566],[31.29021,41.11787],[31.32358,41.13386],[31.37859,41.17451],[31.39275,41.18842],[31.40105,41.20209],[31.40504,41.21817],[31.40602,41.23941],[31.40805,41.24836],[31.41749,41.2683],[31.41961,41.28034],[31.41505,41.28587],[31.39617,41.29548],[31.39283,41.30366],[31.40358,41.31647],[31.42514,41.32258],[31.47104,41.32477],[31.4983,41.35204],[31.50856,41.35383],[31.65895,41.39793],[31.87159,41.50458],[31.99334,41.54951],[32.0394,41.57559],[32.13412,41.59943],[32.16188,41.61201],[32.1784,41.63691],[32.24342,41.69294],[32.26336,41.72016],[32.29705,41.72736],[32.35182,41.72944],[32.35369,41.73575],[32.37232,41.7425],[32.37721,41.75406],[32.38258,41.75609],[32.38722,41.75385],[32.39967,41.7425],[32.41725,41.74893],[32.43946,41.76752],[32.45428,41.77725],[32.5232,41.80451],[32.53484,41.81074],[32.54835,41.81574],[32.56284,41.81688],[32.57781,41.81135],[32.58937,41.82697],[32.61256,41.83955],[32.63966,41.8439],[32.6631,41.83495],[32.67921,41.83633],[32.74041,41.85318],[32.75538,41.85912],[32.77027,41.85798],[32.79851,41.85969],[32.82749,41.86469],[32.84457,41.87279],[32.85564,41.86831],[32.92612,41.88182],[32.96193,41.89411],[33.00807,41.9173],[33.16554,41.95698],[33.32447,42.01903],[33.36085,42.02066],[33.43434,42.01065],[33.54054,42.01065],[33.56324,42.00772],[33.61346,41.99372],[33.82716,41.97769],[33.84522,41.98265],[33.87355,41.97443],[34.00359,41.98265],[34.33131,41.94794],[34.44549,41.97285],[34.48268,41.97525],[34.49871,41.97191],[34.52703,41.96064],[34.56178,41.95185],[34.69418,41.94595],[34.74635,41.95038],[34.79859,41.96223],[34.81511,41.96914],[34.85287,41.99152],[34.88901,42.0078],[34.91879,42.03555],[34.9419,42.06928],[34.94809,42.09878],[34.96209,42.09504],[34.99073,42.09113],[35.00343,42.08511],[35.00587,42.09138],[35.0101,42.09276],[35.02394,42.09251],[35.0311,42.08063],[35.04884,42.06513],[35.04444,42.05781],[35.04444,42.05158],[35.08155,42.0292],[35.1045,42.02188],[35.1338,42.02363],[35.14422,42.02851],[35.16041,42.04149],[35.17124,42.04413],[35.18621,42.04247],[35.19581,42.03807],[35.21632,42.02363],[35.21632,42.01679],[35.16261,42.02172],[35.13754,42.01952],[35.11671,42.0069],[35.10743,41.99168],[35.09881,41.96971],[35.09303,41.94668],[35.09213,41.92805],[35.09864,41.91266],[35.12574,41.87531],[35.15577,41.84569],[35.20948,41.81135],[35.20948,41.80451],[35.19581,41.80451],[35.21176,41.77538],[35.22478,41.76187],[35.25359,41.75064],[35.28256,41.72419],[35.29819,41.71516],[35.35768,41.69685],[35.40105,41.69156],[35.41733,41.68342],[35.44907,41.66055],[35.48585,41.64509],[35.53012,41.63426],[35.57667,41.62971],[35.6198,41.63264],[35.64088,41.63931],[35.67872,41.65693],[35.74057,41.66498],[35.8462,41.69872],[35.87013,41.70148],[35.89381,41.70746],[35.93482,41.73241],[35.9568,41.73627],[35.9568,41.72944],[35.94679,41.71723],[35.93897,41.7121],[35.92897,41.70893],[35.93051,41.69383],[35.91163,41.66279],[35.91529,41.64623],[35.9227,41.64623],[35.92482,41.67023],[35.93434,41.69212],[35.94793,41.71003],[35.97291,41.72858],[35.97787,41.72968],[36.0381,41.68781],[36.0381,41.70148],[36.04493,41.70148],[36.12045,41.62775],[36.13445,41.59907],[36.13445,41.55817],[36.12078,41.52705],[36.11997,41.49433],[36.12379,41.47915],[36.13445,41.4619],[36.17888,41.41999],[36.20476,41.40648],[36.23683,41.35887],[36.25327,41.34882],[36.3034,41.32852],[36.33188,41.32319],[36.33725,41.31855],[36.34376,41.28872],[36.35222,41.28364],[36.37452,41.277],[36.39503,41.25641],[36.40504,41.25361],[36.42384,41.25169],[36.43247,41.24624],[36.45102,41.24042],[36.47608,41.24494],[36.51791,41.26264],[36.57081,41.29792],[36.57936,41.30732],[36.58253,41.31708],[36.6019,41.34374],[36.60865,41.36494],[36.6067,41.36628],[36.61988,41.37507],[36.63356,41.37409],[36.65016,41.36929],[36.67172,41.36628],[36.75807,41.36628],[36.83668,41.35077],[36.98487,41.2945],[37.01531,41.2746],[37.03191,41.24283],[37.03386,41.1988],[37.03972,41.18154],[37.05641,41.17451],[37.07749,41.17084],[37.11573,41.15314],[37.13551,41.14663],[37.26344,41.14785],[37.29933,41.14037],[37.32244,41.12409],[37.33351,41.11933],[37.3545,41.11424],[37.37794,41.11249],[37.39536,41.10847],[37.41944,41.08759],[37.43653,41.0777],[37.47755,41.06778],[37.48129,41.0622],[37.50473,41.04291],[37.52475,41.03718],[37.56471,41.04047],[37.58058,41.03677],[37.58644,41.04222],[37.60043,41.04633],[37.60792,41.05044],[37.61525,41.05854],[37.62827,41.08515],[37.64015,41.10155],[37.65504,41.11762],[37.67205,41.13125],[37.68979,41.14037],[37.6985,41.12409],[37.7151,41.11473],[37.73422,41.11465],[37.75123,41.12613],[37.75807,41.11933],[37.78386,41.12263],[37.78517,41.06],[37.80275,41.04291],[37.85426,41.02367],[37.86793,41.01557],[37.87827,41.0056],[37.89576,40.98212],[37.93474,40.9951],[37.9817,40.99022],[38.10222,40.9597],[38.16131,40.95209],[38.20143,40.94135],[38.22413,40.94115],[38.26832,40.95038],[38.28736,40.94721],[38.3309,40.91787],[38.35125,40.91787],[38.38933,40.92691],[38.42677,40.91865],[38.45232,40.91673],[38.46372,40.92377],[38.5394,40.92691],[38.55486,40.935],[38.59156,40.96255],[38.60475,40.96845],[38.63705,40.97602],[38.64926,40.97529],[38.65545,40.9711],[38.67791,40.94864],[38.68776,40.9527],[38.70704,40.95287],[38.71762,40.95478],[38.74334,40.97248],[38.75514,40.97529],[38.7754,40.99335],[38.77906,40.99921],[38.7837,41.00178],[38.80592,41.00776],[38.87582,41.01895],[38.89234,41.02709],[38.90838,41.03766],[38.9275,41.04263],[39.04176,41.0434],[39.12232,41.05728],[39.15651,41.0777],[39.1683,41.07974],[39.20118,41.0777],[39.21998,41.0729],[39.25074,41.05305],[39.2732,41.05044],[39.29005,41.05484],[39.31723,41.06806],[39.34913,41.07396],[39.40284,41.09813],[39.41822,41.11001],[39.43019,41.11249],[39.49293,41.10102],[39.50717,41.09007],[39.53256,41.06464],[39.59205,41.02509],[39.63006,41.00849],[39.66969,41.00263],[39.68979,41.00747],[39.71013,41.01504],[39.72999,41.01716],[39.75709,41.00235],[39.76832,41.00141],[39.79021,41.00263],[39.79916,41.00031],[39.85874,40.96426],[39.87647,40.95783],[39.89568,40.95478],[39.91188,40.96377],[39.97495,40.98029],[39.99936,40.98212],[40.05681,40.94135],[40.0857,40.92646],[40.12599,40.92064],[40.14275,40.9228],[40.17254,40.9322],[40.19557,40.93635],[40.23146,40.94685],[40.25465,40.95869],[40.30104,40.96845],[40.46485,41.05044],[40.49968,41.03876],[40.52914,41.03628],[40.55738,41.04247],[40.58839,41.05728],[40.62615,41.08218],[40.63966,41.08515],[40.67066,41.08796],[40.68588,41.09199],[40.69825,41.09813],[40.75758,41.15835],[40.82749,41.19794],[40.83888,41.20124],[40.85401,41.19929],[40.89682,41.18757],[40.92205,41.19062],[40.95981,41.21064],[40.97608,41.21552],[40.99708,41.21772],[41.02027,41.2237],[41.04274,41.23249],[41.06137,41.24283],[41.10084,41.27416],[41.12135,41.28555],[41.14666,41.28998],[41.17262,41.29125],[41.19077,41.29572],[41.285,41.35383],[41.31031,41.36078],[41.3318,41.3697],[41.34254,41.3725],[41.37745,41.37604],[41.39039,41.37934],[41.40895,41.39033],[41.42416,41.40786],[41.43434,41.42914],[41.43816,41.45136],[41.44858,41.45624],[41.50709,41.49543],[41.52076,41.51423],[41.62726,41.48052],[41.63997,41.47871],[41.66984,41.48047],[41.69495,41.4891],[41.7026,41.48904],[41.70394,41.48512],[41.7026,41.46946],[41.70684,41.46316],[41.71852,41.45959],[41.74777,41.45685],[41.761,41.45354],[41.80079,41.42569],[41.81298,41.42181],[41.82259,41.426],[41.8627,41.45179],[41.89401,41.48553],[41.90776,41.49349],[41.94796,41.50558],[42.01958,41.48507],[42.05493,41.49349],[42.0694,41.4986],[42.08346,41.5001],[42.09751,41.49835],[42.11178,41.49349],[42.14319,41.50026],[42.15839,41.4999],[42.17265,41.49349],[42.18929,41.48171],[42.21327,41.48021],[42.26246,41.48233],[42.43785,41.43086],[42.46307,41.43184],[42.48385,41.44217],[42.51382,41.47623],[42.53552,41.49349],[42.54555,41.50961],[42.55495,41.55033],[42.56518,41.56713],[42.58523,41.57876],[42.61056,41.58506],[42.66099,41.58826],[42.80093,41.57922],[42.81995,41.57235],[42.8122,41.56299],[42.80682,41.54299],[42.80269,41.53411],[42.79463,41.52682],[42.77489,41.51426],[42.76652,41.50434],[42.79215,41.49287],[42.81116,41.47716],[42.82997,41.47251],[42.85457,41.4938],[42.86801,41.50021],[42.87514,41.4937],[42.88072,41.48124],[42.88899,41.46998],[42.89664,41.46657],[42.92609,41.45907],[42.94108,41.44631],[42.94997,41.44367],[42.95772,41.43701],[42.98759,41.39468],[43.00206,41.38269],[43.07564,41.34487],[43.12391,41.31293],[43.15476,41.30187],[43.18401,41.29898],[43.18535,41.29381],[43.17187,41.27934],[43.15724,41.26973],[43.10314,41.2488],[43.13032,41.24229],[43.15233,41.24415],[43.17202,41.24234],[43.19223,41.22498],[43.2162,41.18054],[43.23062,41.17263],[43.32261,41.19206],[43.35175,41.19361],[43.38327,41.1872],[43.41056,41.17516],[43.43759,41.1562],[43.4518,41.13258],[43.44043,41.10659],[43.43629,41.08323],[43.44456,41.05145],[43.46048,41.02287],[43.4796,41.00913],[43.52239,41.00447],[43.56543,40.98815],[43.60486,40.96334],[43.63618,40.93352],[43.64765,40.91389],[43.65954,40.85198],[43.66977,40.83213],[43.71132,40.78165],[43.72062,40.76289],[43.72413,40.74635],[43.72935,40.6771],[43.7264,40.66899],[43.69953,40.63457],[43.70718,40.61194],[43.66481,40.57406],[43.65147,40.55339],[43.65251,40.52941],[43.64646,40.53303],[43.63148,40.53686],[43.63897,40.52259],[43.6153,40.52042],[43.5937,40.509],[43.55949,40.47789],[43.56363,40.46471],[43.58486,40.44658],[43.62533,40.42017],[43.62533,40.41335],[43.60957,40.37299],[43.60104,40.36183],[43.59422,40.34544],[43.60445,40.32979],[43.63148,40.3103],[43.67597,40.26597],[43.69137,40.23863],[43.67307,40.22773],[43.68372,40.2101],[43.71493,40.18065],[43.72139,40.16938],[43.71163,40.15646],[43.66636,40.14892],[43.65251,40.139],[43.66543,40.11016],[43.71121,40.09073],[43.80278,40.07073],[43.91213,40.02433],[44.03243,40.00862],[44.04835,40.01286],[44.08313,40.03161],[44.10447,40.03596],[44.11429,40.03394],[44.127,40.02448],[44.13548,40.02231],[44.16638,40.02805],[44.19501,40.03079],[44.25526,40.0434],[44.28906,40.0434],[44.32565,40.03466],[44.46435,39.97229],[44.52217,39.93353],[44.54785,39.91147],[44.55912,39.89689],[44.56749,39.87302],[44.57597,39.86635],[44.59106,39.85783],[44.59416,39.84806],[44.59447,39.83679],[44.59819,39.83101],[44.61152,39.83731],[44.64769,39.80512],[44.66619,39.79638],[44.68242,39.79721],[44.68717,39.79638],[44.69203,39.79302],[44.69777,39.78527],[44.75911,39.72311],[44.78433,39.69024],[44.79575,39.65236],[44.80699,39.6399],[44.72572,39.68533],[44.70629,39.69804],[44.6465,39.71954],[44.63281,39.73163],[44.60583,39.76315],[44.59043,39.77153],[44.56573,39.76589],[44.45949,39.69846],[44.45504,39.68714],[44.46021,39.65448],[44.45763,39.63872],[44.45168,39.62585],[44.41856,39.57433],[44.41401,39.56089],[44.41205,39.54446],[44.41742,39.51749],[44.4168,39.50555],[44.40667,39.49366],[44.40171,39.47134],[44.40523,39.45248],[44.40481,39.43439],[44.38797,39.4145],[44.36874,39.40359],[44.31696,39.3853],[44.29495,39.38121],[44.26953,39.38287],[44.20043,39.40948],[44.17651,39.41155],[44.12225,39.40044],[44.0992,39.39847],[44.07698,39.40059],[44.06137,39.40028],[44.04639,39.39605],[44.02602,39.38618],[44.01486,39.37408],[44.02096,39.36199],[44.04721,39.33791],[44.05176,39.32804],[44.05765,39.3068],[44.06943,39.28701],[44.06923,39.27957],[44.06675,39.27295],[44.06716,39.26401],[44.07057,39.25549],[44.08266,39.23567],[44.08349,39.22683],[44.07657,39.20869],[44.0777,39.20006],[44.10354,39.18464],[44.14809,39.16645],[44.18664,39.14513],[44.1948,39.12053],[44.17496,39.09022],[44.16989,39.07436],[44.17914,39.03493],[44.16953,39.02305],[44.15336,39.01255],[44.1392,38.99395],[44.14778,38.98005],[44.15196,38.96462],[44.15801,38.95747],[44.17465,38.94576],[44.17485,38.92837],[44.17816,38.9207],[44.19211,38.89075],[44.20576,38.87566],[44.22198,38.86344],[44.275,38.84357],[44.27981,38.81422],[44.25268,38.74182],[44.24865,38.72182],[44.25051,38.70922],[44.26048,38.67924],[44.25609,38.67196],[44.24741,38.66508],[44.24431,38.65896],[44.25681,38.65392],[44.2749,38.64937],[44.28255,38.64539],[44.28988,38.63888],[44.29702,38.62232],[44.29681,38.60162],[44.29216,38.56204],[44.30136,38.51119],[44.30017,38.49403],[44.28751,38.45373],[44.2874,38.44194],[44.29051,38.4166],[44.28658,38.39099],[44.28952,38.38226],[44.3134,38.37182],[44.36337,38.36461],[44.39634,38.37967],[44.40905,38.38179],[44.42466,38.37704],[44.43882,38.36756],[44.45112,38.35404],[44.45876,38.33833],[44.45918,38.32242],[44.43675,38.29694],[44.40058,38.27467],[44.37241,38.2495],[44.3767,38.20155],[44.37324,38.18212],[44.36709,38.16248],[44.36058,38.14785],[44.35314,38.14],[44.33536,38.13406],[44.32709,38.1284],[44.3257,38.11969],[44.33381,38.10088],[44.32828,38.09463],[44.30901,38.08724],[44.29588,38.07902],[44.28658,38.06631],[44.27831,38.04533],[44.26953,38.03001],[44.24539,38.00838],[44.22756,37.98099],[44.22147,37.96882],[44.21966,37.95608],[44.22467,37.942],[44.2255,37.92931],[44.20638,37.90833],[44.20209,37.89717],[44.21961,37.87531],[44.25444,37.87084],[44.31924,37.87686],[44.33123,37.87397],[44.36714,37.86022],[44.37794,37.85413],[44.38383,37.84498],[44.39324,37.82108],[44.4044,37.80974],[44.4121,37.80772],[44.42548,37.81077],[44.43303,37.80612],[44.43375,37.8011],[44.4291,37.77914],[44.43644,37.7678],[44.4505,37.76664],[44.46652,37.77113],[44.47923,37.77687],[44.50646,37.77935],[44.53442,37.76919],[44.55938,37.75201],[44.59612,37.71638],[44.59839,37.70703],[44.58816,37.69398],[44.55354,37.67181],[44.54527,37.66302],[44.54088,37.63272],[44.56098,37.61466],[44.58351,37.60109],[44.58744,37.58401],[44.57834,37.56391],[44.57183,37.53921],[44.56992,37.5144],[44.57927,37.47696],[44.56594,37.44717],[44.57214,37.43079],[44.58558,37.42467],[44.62279,37.4219],[44.63818,37.4126],[44.65224,37.38402],[44.66165,37.37565],[44.69803,37.38005],[44.70712,37.37095],[44.71301,37.35679],[44.72138,37.34328],[44.77895,37.3138],[44.80159,37.29269],[44.79848,37.26031],[44.78675,37.24811],[44.77296,37.24168],[44.7605,37.23323],[44.75353,37.21533],[44.75673,37.1952],[44.76613,37.17815],[44.77234,37.16125],[44.76613,37.14192],[44.75384,37.15915],[44.73379,37.16724],[44.62893,37.17902],[44.61028,37.17835],[44.57824,37.16642],[44.53938,37.14368],[44.50341,37.11662],[44.47923,37.092],[44.45442,37.07634],[44.42807,37.06477],[44.34311,37.04244],[44.33515,37.03115],[44.33164,37.01547],[44.31588,36.99397],[44.30663,36.97723],[44.29722,36.96994],[44.28482,36.96917],[44.24327,36.97777],[44.23428,36.98366],[44.18746,37.06694],[44.18002,37.08761],[44.18064,37.10892],[44.18922,37.12921],[44.20596,37.14662],[44.21878,37.15262],[44.2302,37.15432],[44.24012,37.15797],[44.24834,37.16967],[44.24963,37.17944],[44.24854,37.19192],[44.24353,37.21383],[44.23501,37.23677],[44.22317,37.25406],[44.20689,37.26752],[44.18447,37.27917],[44.08804,37.31116],[44.03559,37.31824],[43.99037,37.3125],[43.95378,37.28747],[43.92417,37.25308],[43.89363,37.22491],[43.83999,37.21711],[43.82201,37.20238],[43.8094,37.19969],[43.80206,37.20357],[43.78056,37.22037],[43.77064,37.22584],[43.74692,37.23065],[43.72082,37.23261],[43.6183,37.22698],[43.59422,37.22946],[43.5689,37.2377],[43.54244,37.2523],[43.52952,37.2539],[43.51712,37.2523],[43.49242,37.24476],[43.4796,37.24336],[43.46327,37.24868],[43.41676,37.27917],[43.37604,37.29553],[43.33615,37.32023],[43.32416,37.32222],[43.30566,37.31997],[43.29687,37.31674],[43.28752,37.30915],[43.27863,37.30775],[43.27031,37.30868],[43.13197,37.36726],[43.11482,37.37113],[43.08371,37.36883],[43.0435,37.36025],[43.00516,37.34726],[42.97963,37.33183],[42.93705,37.32015],[42.89674,37.32491],[42.81406,37.34682],[42.80548,37.35186],[42.80114,37.36909],[42.79246,37.37434],[42.77158,37.3749],[42.72218,37.35891],[42.71567,37.35529],[42.70947,37.34718],[42.70616,37.33323],[42.70233,37.32535],[42.57697,37.17923],[42.56126,37.14662],[42.54524,37.14089],[42.45914,37.12931],[42.40189,37.11414],[42.35724,37.10998],[42.35652,37.13828],[42.35455,37.15241],[42.3467,37.15843],[42.33533,37.17117],[42.35321,37.22703],[42.3467,37.23977],[42.33987,37.24264],[42.30577,37.26455],[42.29202,37.28506],[42.28582,37.28656],[42.2729,37.27674],[42.26722,37.27452],[42.23683,37.2863],[42.22319,37.28814],[42.22257,37.31395],[42.2112,37.32491],[42.19301,37.31323],[42.17854,37.3063],[42.12831,37.25328],[42.05297,37.19664],[42.00925,37.17561],[41.47977,37.07557],[41.20134,37.06497],[41.17974,37.06963],[41.13509,37.08425],[40.89645,37.1227],[40.70897,37.10048],[40.65946,37.08526],[40.52572,37.02588],[40.47983,37.01516],[40.45699,37.01412],[40.43518,37.01061],[40.41389,37.00402],[40.19014,36.88442],[40.15272,36.87036],[40.11521,36.86473],[40.07924,36.85486],[39.97981,36.80695],[39.76525,36.74215],[39.2396,36.66128],[39.18586,36.65952],[39.03217,36.70117],[38.97998,36.69817],[38.95796,36.6929],[38.79539,36.68665],[38.72501,36.69394],[38.66413,36.71952],[38.52936,36.83372],[38.47996,36.85574],[38.28989,36.9017],[38.22426,36.90839],[38.19005,36.90553],[38.12297,36.88462],[38.00794,36.82576],[37.98004,36.81967],[37.81974,36.76055],[37.65406,36.73213],[37.5934,36.71052],[37.44612,36.6342],[37.40447,36.63446],[37.24189,36.65859],[37.21967,36.65714],[37.15611,36.64391],[37.1374,36.64588],[37.12097,36.64991],[37.10443,36.65099],[37.08562,36.64417],[37.07012,36.63151],[37.06237,36.62211],[37.05307,36.61994],[37.03333,36.62872],[37.01452,36.64226],[37.0108,36.65373],[37.01948,36.68582],[37.01844,36.70665],[37.01059,36.71952],[36.9647,36.75383],[36.94589,36.76267],[36.92594,36.76897],[36.90682,36.77259],[36.84367,36.77584],[36.65857,36.82752],[36.63986,36.82809],[36.64327,36.80365],[36.63201,36.78432],[36.61568,36.76659],[36.60327,36.74696],[36.59893,36.72479],[36.59811,36.70546],[36.5947,36.68582],[36.58281,36.66241],[36.56927,36.62014],[36.56999,36.5757],[36.56534,36.5325],[36.53547,36.494],[36.53124,36.47901],[36.53382,36.46248],[36.55273,36.40817],[36.55801,36.40062],[36.56503,36.39561],[36.5857,36.38703],[36.59335,36.37349],[36.59428,36.35711],[36.58219,36.33308],[36.57764,36.33287],[36.58777,36.32481],[36.62074,36.32202],[36.63707,36.3168],[36.64865,36.3059],[36.65846,36.2905],[36.66549,36.27401],[36.66911,36.25986],[36.67004,36.23732],[36.66425,36.229],[36.59346,36.2181],[36.57444,36.21836],[36.49858,36.22787],[36.48018,36.22554],[36.46892,36.22239],[36.4653,36.21593],[36.46395,36.2088],[36.4592,36.20311],[36.45073,36.19991],[36.41186,36.20446],[36.39812,36.20823],[36.38561,36.21547],[36.373,36.22761],[36.36143,36.21815],[36.37579,36.20451],[36.37445,36.19588],[36.36629,36.18921],[36.3605,36.18167],[36.35864,36.16699],[36.35554,36.0224],[36.35802,35.99398],[36.33673,35.98824],[36.29735,36.00075],[36.27751,35.99419],[36.26903,35.95874],[36.25312,35.95564],[36.22903,35.96117],[36.19689,35.95171],[36.17488,35.92267],[36.16878,35.85208],[36.15762,35.82257],[36.1385,35.81978],[36.08031,35.85419],[36.05075,35.86541],[36.01943,35.86618],[36.00393,35.86918],[35.99236,35.87735],[35.99008,35.88928],[35.99308,35.90236],[35.99277,35.91528],[35.98026,35.92685],[35.96073,35.92437],[35.94058,35.91838],[35.92083,35.91512],[35.9113,35.91775],[35.9227,35.93159],[35.96607,35.99364],[35.97674,36.00096],[35.97543,36.0185],[35.94842,36.08784],[35.87827,36.18207],[35.86451,36.19685],[35.85222,36.21353],[35.84099,36.24453],[35.82691,36.25755],[35.8108,36.2696],[35.79859,36.28168],[35.78736,36.30427],[35.78875,36.32026],[35.81593,36.35301],[35.82447,36.36107],[35.83424,36.36628],[35.84498,36.36896],[35.85678,36.36978],[35.86183,36.37352],[35.87355,36.39769],[35.88185,36.40469],[35.89943,36.4123],[35.90846,36.41816],[35.91326,36.42719],[35.91871,36.44819],[35.93084,36.45458],[35.94239,36.46434],[35.98178,36.47565],[35.99025,36.47964],[36.03745,36.52705],[36.04493,36.53766],[36.05543,36.53827],[36.16293,36.59341],[36.17872,36.59634],[36.18914,36.60399],[36.20118,36.62197],[36.21119,36.6424],[36.21616,36.65778],[36.21559,36.67048],[36.20249,36.69937],[36.20249,36.76919],[36.19874,36.78457],[36.18897,36.80174],[36.12989,36.86929],[36.09547,36.89712],[36.0586,36.91844],[36.02027,36.92634],[35.98504,36.9156],[35.95086,36.89102],[35.89381,36.83491],[35.88014,36.82591],[35.86362,36.82225],[35.85385,36.81582],[35.82065,36.78514],[35.80543,36.77509],[35.7671,36.76773],[35.68409,36.76463],[35.64772,36.75397],[35.63624,36.74462],[35.62452,36.72602],[35.61354,36.71988],[35.61744,36.72679],[35.61818,36.73163],[35.615,36.73566],[35.6067,36.74038],[35.59685,36.72492],[35.58229,36.71279],[35.57301,36.70067],[35.57944,36.68513],[35.59449,36.70173],[35.61687,36.69623],[35.6198,36.71239],[35.62916,36.70824],[35.63404,36.69937],[35.63868,36.70629],[35.64047,36.71337],[35.63917,36.72036],[35.63404,36.72671],[35.64812,36.73322],[35.65382,36.72736],[35.6574,36.71751],[35.66481,36.71239],[35.67579,36.71532],[35.68556,36.72077],[35.69606,36.72394],[35.70916,36.71988],[35.65016,36.69782],[35.62257,36.68073],[35.6067,36.65778],[35.60865,36.64688],[35.62208,36.65424],[35.66676,36.69611],[35.68002,36.70307],[35.69557,36.7062],[35.65797,36.6752],[35.65219,36.66673],[35.64373,36.64887],[35.63746,36.64102],[35.63315,36.63093],[35.63136,36.60716],[35.62355,36.60252],[35.61394,36.60053],[35.59881,36.5915],[35.58937,36.5895],[35.55714,36.58747],[35.54469,36.5895],[35.51336,36.61298],[35.50367,36.61685],[35.49,36.61392],[35.48121,36.60724],[35.47869,36.59854],[35.48854,36.59707],[35.53102,36.58271],[35.48878,36.59203],[35.44549,36.59634],[35.43718,36.59422],[35.41326,36.58369],[35.40805,36.57929],[35.40447,36.57193],[35.39536,36.56761],[35.37403,36.56159],[35.34799,36.54438],[35.34604,36.54108],[35.33579,36.5456],[35.32016,36.56468],[35.29469,36.5725],[35.04184,36.69522],[35.01417,36.70307],[34.98227,36.72077],[34.96241,36.72671],[34.94646,36.72797],[34.92986,36.72736],[34.91391,36.72468],[34.9004,36.71988],[34.90789,36.74038],[34.89357,36.746],[34.85255,36.78132],[34.77076,36.81607],[34.76499,36.80858],[34.73585,36.82168],[34.69288,36.81387],[34.62672,36.78876],[34.59653,36.78506],[34.58513,36.78132],[34.5547,36.76765],[34.54884,36.76337],[34.53907,36.74457],[34.53386,36.74038],[34.50318,36.72671],[34.41521,36.66291],[34.30747,36.60859],[34.27622,36.58698],[34.19044,36.49852],[34.18165,36.48338],[34.17775,36.47337],[34.16822,36.46695],[34.14747,36.45917],[34.11199,36.42959],[34.07732,36.41389],[34.07488,36.38727],[34.07993,36.35554],[34.07789,36.32884],[34.05779,36.3159],[34.02719,36.31078],[33.99977,36.30292],[33.98927,36.28168],[33.9983,36.28604],[33.99586,36.27953],[33.97706,36.25943],[33.96876,36.24689],[33.96518,36.23237],[33.96437,36.22053],[33.959,36.21357],[33.94142,36.21337],[33.94142,36.21963],[33.95094,36.2377],[33.94597,36.2652],[33.93092,36.29047],[33.91041,36.3015],[33.89527,36.30557],[33.88315,36.31249],[33.8711,36.31489],[33.85548,36.30492],[33.83766,36.28042],[33.82789,36.27172],[33.81105,36.2674],[33.8187,36.26577],[33.82472,36.25991],[33.81373,36.25165],[33.79908,36.23066],[33.78688,36.22639],[33.77703,36.22504],[33.74285,36.21337],[33.73561,36.20873],[33.70525,36.18171],[33.70037,36.17113],[33.69386,36.14411],[33.68824,36.13703],[33.68531,36.14321],[33.66033,36.17487],[33.65659,36.18867],[33.64723,36.19257],[33.63412,36.19033],[33.61988,36.18545],[33.59653,36.16877],[33.57407,36.14476],[33.55226,36.12751],[33.53053,36.13081],[33.5442,36.13703],[33.5442,36.14448],[33.52101,36.14663],[33.47828,36.15595],[33.45826,36.15815],[33.4367,36.15469],[33.40113,36.13984],[33.38649,36.13703],[33.34783,36.14789],[33.32683,36.15009],[33.30836,36.13223],[33.28647,36.12995],[33.24195,36.13081],[33.21241,36.12409],[33.20094,36.12336],[33.18865,36.1258],[33.16725,36.13495],[33.15691,36.13703],[33.13404,36.13178],[33.12143,36.11909],[33.11215,36.10342],[33.09864,36.08926],[33.08774,36.08283],[33.08375,36.08275],[33.08041,36.08588],[33.07114,36.08926],[33.05836,36.09064],[33.02687,36.08926],[32.96046,36.10269],[32.94093,36.1035],[32.87672,36.07514],[32.86525,36.07185],[32.8567,36.06098],[32.80372,36.02717],[32.76059,36.02949],[32.67066,36.0467],[32.63233,36.06196],[32.56788,36.0961],[32.53142,36.09882],[32.51344,36.10301],[32.43727,36.13866],[32.42701,36.14761],[32.41961,36.15949],[32.40203,36.16551],[32.38152,36.17015],[32.36549,36.17797],[32.3187,36.22858],[32.31031,36.22948],[32.30592,36.23457],[32.28728,36.24482],[32.28297,36.25064],[32.27898,36.27904],[32.27613,36.28783],[32.2527,36.31533],[32.19215,36.35838],[32.17994,36.38715],[32.1784,36.39533],[32.17433,36.40241],[32.14845,36.43366],[32.13209,36.43867],[32.11451,36.46967],[32.10206,36.48615],[32.08717,36.49331],[32.02605,36.54344],[32.01881,36.54654],[31.9878,36.54995],[31.96827,36.56159],[31.92807,36.56025],[31.90797,36.56265],[31.89943,36.57245],[31.88803,36.58112],[31.86248,36.58869],[31.83465,36.59235],[31.81674,36.5895],[31.80738,36.59683],[31.76905,36.61001],[31.74936,36.63227],[31.73658,36.64228],[31.72429,36.64102],[31.70346,36.64362],[31.62761,36.67084],[31.61069,36.68203],[31.5962,36.6957],[31.40756,36.76341],[31.37859,36.76765],[31.37631,36.79194],[31.34083,36.80858],[30.93971,36.857],[30.77589,36.84956],[30.74806,36.85566],[30.7269,36.86587],[30.68653,36.89118],[30.62859,36.85957],[30.60174,36.83812],[30.58766,36.80707],[30.56984,36.78132],[30.56984,36.75056],[30.56463,36.71796],[30.56577,36.70018],[30.57667,36.68513],[30.57667,36.6789],[30.56267,36.66254],[30.55836,36.65233],[30.55616,36.63788],[30.55787,36.61962],[30.56381,36.60932],[30.57106,36.60114],[30.57667,36.5895],[30.58351,36.59634],[30.58106,36.57518],[30.56723,36.53986],[30.56984,36.52802],[30.53598,36.50519],[30.52084,36.48973],[30.5088,36.45429],[30.48699,36.42695],[30.48797,36.41816],[30.47462,36.4016],[30.47633,36.38422],[30.48715,36.37027],[30.50164,36.36359],[30.49415,36.34931],[30.51987,36.34186],[30.50563,36.32738],[30.47877,36.30858],[30.46681,36.28783],[30.47364,36.28783],[30.4782,36.2923],[30.48064,36.28954],[30.48797,36.28783],[30.45167,36.26179],[30.44077,36.23933],[30.42742,36.22639],[30.39861,36.20596],[30.4004,36.24811],[30.39601,36.26553],[30.38429,36.27424],[30.36052,36.26862],[30.25457,36.3083],[30.23373,36.30891],[30.15854,36.29865],[30.14926,36.28986],[30.14552,36.27513],[30.1447,36.25434],[30.13844,36.25434],[30.13722,36.26065],[30.13103,36.27424],[30.12477,36.25507],[30.12477,36.24689],[30.11061,36.25434],[30.11061,36.24006],[30.07301,36.24689],[30.0656,36.24994],[30.05787,36.2556],[30.04819,36.25877],[30.03484,36.25434],[30.05592,36.25434],[30.05592,36.24689],[29.98845,36.21776],[29.9734,36.21963],[29.96127,36.21385],[29.95004,36.21442],[29.92555,36.21963],[29.91652,36.21906],[29.91163,36.21703],[29.8982,36.20596],[29.88136,36.19843],[29.844,36.19139],[29.83009,36.18545],[29.83758,36.18285],[29.83693,36.17797],[29.82732,36.17805],[29.80258,36.17182],[29.80258,36.16498],[29.82309,36.16498],[29.80958,36.154],[29.79526,36.14521],[29.77955,36.13935],[29.76173,36.13703],[29.76173,36.14448],[29.76726,36.14777],[29.7754,36.15815],[29.76238,36.15656],[29.75489,36.1507],[29.74342,36.16096],[29.73146,36.16425],[29.71925,36.16266],[29.70704,36.15815],[29.69996,36.14614],[29.6893,36.14448],[29.68873,36.14126],[29.67237,36.12336],[29.66822,36.14379],[29.63396,36.15705],[29.62387,36.17797],[29.63738,36.17243],[29.64324,36.17792],[29.6421,36.18696],[29.63453,36.19164],[29.58351,36.18545],[29.58351,36.19164],[29.59254,36.19579],[29.61297,36.19986],[29.62387,36.19912],[29.60222,36.20702],[29.5215,36.20596],[29.49448,36.21101],[29.43214,36.24006],[29.42042,36.23062],[29.41521,36.23973],[29.41163,36.2674],[29.40577,36.26016],[29.40187,36.26179],[29.39812,36.26618],[29.39186,36.2674],[29.3816,36.2639],[29.36997,36.25434],[29.35711,36.23566],[29.34962,36.23261],[29.34083,36.23737],[29.32936,36.2541],[29.32228,36.24689],[29.25668,36.29702],[29.24781,36.31171],[29.23463,36.32429],[29.17498,36.33983],[29.15846,36.35676],[29.1447,36.34931],[29.1408,36.36245],[29.1447,36.36978],[29.1447,36.37718],[29.11687,36.37718],[29.12428,36.38345],[29.1128,36.38939],[29.09636,36.39094],[29.10141,36.40021],[29.10906,36.40648],[29.11891,36.4101],[29.13038,36.41136],[29.12916,36.4169],[29.12428,36.41816],[29.13014,36.43651],[29.1242,36.4536],[29.11134,36.46678],[29.09636,36.47346],[29.09636,36.47964],[29.10955,36.48851],[29.12428,36.49331],[29.12029,36.53563],[29.11492,36.55268],[29.10377,36.54792],[29.09636,36.54792],[29.08432,36.56025],[29.03639,36.54532],[29.01441,36.54792],[29.03272,36.55183],[29.03688,36.56147],[29.03142,36.57477],[29.02052,36.5895],[29.02613,36.59626],[29.035,36.61469],[29.04176,36.62425],[29.05584,36.61424],[29.06821,36.62393],[29.0809,36.63862],[29.09636,36.64411],[29.09636,36.63788],[29.09059,36.6271],[29.09881,36.6236],[29.11061,36.62637],[29.11687,36.63422],[29.11451,36.64313],[29.10922,36.652],[29.09636,36.66523],[29.03419,36.70099],[28.95631,36.72752],[28.94614,36.73696],[28.93897,36.75129],[28.9227,36.74136],[28.90414,36.72305],[28.89088,36.71239],[28.89088,36.7062],[28.89772,36.7062],[28.89772,36.69937],[28.87892,36.69806],[28.86354,36.69257],[28.86004,36.68423],[28.86264,36.67512],[28.86248,36.66791],[28.84995,36.66523],[28.85499,36.65664],[28.86354,36.65095],[28.85678,36.64411],[28.87037,36.63052],[28.87664,36.63052],[28.88803,36.64842],[28.89015,36.65762],[28.88404,36.67145],[28.9017,36.65827],[28.89536,36.64142],[28.87843,36.62592],[28.86354,36.61685],[28.86964,36.60663],[28.85873,36.6013],[28.84156,36.60016],[28.82887,36.60252],[28.81861,36.61172],[28.81861,36.6208],[28.82716,36.62775],[28.84254,36.63052],[28.84254,36.63788],[28.82545,36.64472],[28.8152,36.6518],[28.80502,36.65526],[28.78785,36.65095],[28.78272,36.67739],[28.74635,36.6977],[28.70167,36.70506],[28.67172,36.69257],[28.66489,36.69257],[28.65992,36.71101],[28.64918,36.71833],[28.63592,36.7145],[28.62338,36.69937],[28.61622,36.70596],[28.60353,36.73355],[28.61256,36.74714],[28.61671,36.767],[28.61411,36.78535],[28.60353,36.79499],[28.60304,36.79963],[28.61036,36.80174],[28.60629,36.80687],[28.60621,36.81013],[28.61036,36.81607],[28.60353,36.81607],[28.59742,36.80256],[28.59669,36.79499],[28.59108,36.79902],[28.58855,36.80801],[28.57586,36.81952],[28.54615,36.82343],[28.52443,36.8133],[28.52784,36.78876],[28.51775,36.79564],[28.49789,36.79849],[28.48683,36.80174],[28.5005,36.80858],[28.5005,36.81607],[28.47804,36.81598],[28.46388,36.81875],[28.45606,36.82852],[28.45265,36.84956],[28.46412,36.84992],[28.46632,36.85334],[28.46518,36.85936],[28.46013,36.86376],[28.45883,36.86693],[28.45672,36.87751],[28.452,36.88361],[28.44744,36.88304],[28.44516,36.87376],[28.43621,36.86473],[28.41619,36.85969],[28.38722,36.857],[28.37672,36.85444],[28.37745,36.84837],[28.39064,36.83592],[28.41472,36.8371],[28.42481,36.82909],[28.41424,36.8146],[28.4065,36.79975],[28.39601,36.7895],[28.37696,36.78876],[28.32496,36.81013],[28.31495,36.81607],[28.30877,36.81607],[28.31495,36.79499],[28.28859,36.79369],[28.27817,36.79645],[28.27394,36.80516],[28.27833,36.81415],[28.28891,36.81843],[28.31495,36.82225],[28.31495,36.82909],[28.30275,36.83568],[28.28859,36.84589],[28.27312,36.852],[28.25717,36.84618],[28.24318,36.82978],[28.23666,36.81322],[28.23951,36.79881],[28.25343,36.78876],[28.24887,36.76683],[28.28859,36.74258],[28.29509,36.71988],[28.28305,36.72663],[28.26726,36.7309],[28.2531,36.72785],[28.24659,36.71239],[28.23357,36.71988],[28.23194,36.71186],[28.22543,36.7062],[28.23162,36.70458],[28.23357,36.69937],[28.1819,36.68464],[28.16228,36.67267],[28.1443,36.65095],[28.13071,36.62897],[28.1115,36.60419],[28.08815,36.58906],[28.0617,36.59634],[28.05502,36.58658],[28.04184,36.58271],[28.04802,36.56904],[28.0359,36.56477],[28.02589,36.56371],[28.01832,36.56704],[28.01384,36.57587],[28.00367,36.56192],[27.9909,36.55976],[27.97771,36.56574],[27.96608,36.57587],[27.97291,36.5895],[27.96762,36.5926],[27.95924,36.60252],[28.03443,36.60252],[28.05397,36.60961],[28.08961,36.64411],[28.07594,36.65778],[28.04802,36.63788],[28.04802,36.64411],[28.05779,36.65278],[28.06121,36.66474],[28.05795,36.67666],[28.04802,36.68513],[28.03793,36.69062],[28.03533,36.68757],[28.03443,36.6752],[28.02963,36.67036],[28.01889,36.67133],[28.00017,36.6789],[27.99147,36.67585],[27.98015,36.67585],[27.97022,36.67984],[27.96608,36.68879],[27.9712,36.69253],[28.00701,36.69937],[28.00017,36.7062],[28.02133,36.70506],[28.02752,36.7062],[28.03826,36.71406],[28.04249,36.71845],[28.04184,36.71988],[28.07976,36.72207],[28.08961,36.72671],[28.08595,36.7106],[28.1006,36.70962],[28.11638,36.71882],[28.11687,36.73355],[28.10743,36.7392],[28.08766,36.74087],[28.0822,36.74714],[28.08416,36.75373],[28.10328,36.76765],[28.11004,36.77509],[28.11752,36.76386],[28.13054,36.75397],[28.12525,36.77131],[28.12371,36.7919],[28.11842,36.8006],[28.1067,36.80297],[28.09498,36.80142],[28.08627,36.7967],[28.0691,36.77509],[28.04721,36.76333],[28.03932,36.76447],[28.03443,36.77509],[28.0197,36.76313],[27.98072,36.75381],[27.96608,36.74714],[27.95924,36.74714],[27.95411,36.75959],[27.94467,36.75625],[27.9323,36.74657],[27.91765,36.74038],[27.91245,36.75414],[27.90545,36.75288],[27.89031,36.74038],[27.88315,36.74384],[27.8768,36.7508],[27.87037,36.75259],[27.86305,36.74038],[27.85621,36.74038],[27.84376,36.74893],[27.82618,36.75747],[27.80649,36.76081],[27.78785,36.75397],[27.78785,36.76081],[27.77605,36.75593],[27.73609,36.76081],[27.71941,36.75625],[27.6985,36.7342],[27.68426,36.72671],[27.68426,36.71988],[27.68686,36.71113],[27.67311,36.67963],[27.67115,36.65778],[27.63795,36.67133],[27.61988,36.67646],[27.60304,36.6789],[27.57032,36.67381],[27.55974,36.67463],[27.55454,36.68513],[27.48634,36.66523],[27.47771,36.65347],[27.47267,36.65095],[27.46803,36.65298],[27.45574,36.66291],[27.44842,36.66523],[27.41578,36.66901],[27.40431,36.66523],[27.40203,36.67748],[27.39405,36.68415],[27.38299,36.68476],[27.37029,36.6789],[27.37062,36.68317],[27.36915,36.68447],[27.3628,36.68513],[27.36866,36.69135],[27.36866,36.69741],[27.36402,36.70258],[27.35581,36.7062],[27.35581,36.71239],[27.38478,36.70502],[27.40162,36.70474],[27.41432,36.7093],[27.42311,36.71967],[27.42726,36.73566],[27.43849,36.74714],[27.44956,36.75397],[27.45883,36.75568],[27.48316,36.75397],[27.55665,36.76268],[27.59246,36.76081],[27.6115,36.76533],[27.61695,36.77619],[27.61785,36.78962],[27.62338,36.80174],[27.64536,36.80646],[27.69117,36.78433],[27.70541,36.78876],[27.7212,36.78168],[27.74822,36.78441],[27.76002,36.78132],[27.78565,36.80109],[27.79908,36.80663],[27.88649,36.80882],[27.89715,36.81232],[27.90366,36.80581],[27.91969,36.79971],[27.93995,36.79564],[27.95924,36.79499],[27.99415,36.79841],[28.01051,36.79434],[28.02752,36.78132],[28.03077,36.79173],[28.03688,36.79735],[28.05543,36.80858],[28.04908,36.82062],[28.03956,36.82665],[28.02573,36.8288],[28.00701,36.82909],[28.01384,36.83592],[28.02329,36.83324],[28.02459,36.8391],[28.01873,36.84862],[28.00701,36.857],[28.01157,36.85765],[28.02125,36.86323],[28.02866,36.86017],[28.05543,36.87067],[28.05543,36.8769],[28.03549,36.89338],[28.02125,36.91161],[28.03443,36.9042],[28.04184,36.91161],[28.0359,36.91462],[28.02752,36.92593],[28.0617,36.92593],[28.0617,36.93212],[28.04184,36.93212],[28.04184,36.93891],[28.06544,36.93928],[28.07504,36.9374],[28.0822,36.93212],[28.08855,36.93667],[28.09352,36.93789],[28.10328,36.93212],[28.11004,36.93212],[28.12013,36.93769],[28.14194,36.9287],[28.1517,36.93212],[28.15724,36.93212],[28.16529,36.91161],[28.16847,36.91889],[28.16529,36.92593],[28.16847,36.93016],[28.16814,36.93342],[28.15724,36.93891],[28.15724,36.94579],[28.16652,36.94693],[28.17449,36.94599],[28.18068,36.94331],[28.18523,36.93891],[28.20509,36.9663],[28.21241,36.97309],[28.21241,36.98054],[28.1989,36.98054],[28.20688,36.99018],[28.21241,37.00043],[28.22853,36.99055],[28.24464,36.98819],[28.2531,36.99372],[28.24659,37.00788],[28.30006,37.02497],[28.3296,37.03046],[28.32936,37.03677],[28.32277,37.04385],[28.31495,37.04881],[28.3047,37.05085],[28.17433,37.03514],[28.12623,37.03587],[28.10727,37.03213],[28.11004,37.02147],[28.11004,37.01411],[28.09295,37.02143],[27.98658,37.03514],[27.9756,37.03229],[27.96315,37.02359],[27.95183,37.02147],[27.91139,37.02774],[27.88624,37.02619],[27.8047,37.00458],[27.79412,37.00788],[27.78785,37.00788],[27.78045,36.9936],[27.76287,36.9973],[27.75123,36.99689],[27.73951,36.9936],[27.71974,37.00519],[27.68767,37.00544],[27.65577,36.99653],[27.63649,36.98054],[27.61801,36.98924],[27.59034,36.99828],[27.56715,36.99665],[27.56202,36.97309],[27.52833,36.99128],[27.51417,36.9936],[27.48373,36.99079],[27.47267,36.9936],[27.46274,37.00113],[27.44484,37.02253],[27.43849,37.02774],[27.42351,37.02717],[27.40805,37.01683],[27.40235,37.02387],[27.40431,37.02774],[27.39682,37.02774],[27.39479,37.0183],[27.38331,36.9936],[27.37892,37.00072],[27.38331,37.00788],[27.37794,37.0102],[27.37647,37.01411],[27.38168,37.01895],[27.37647,37.02774],[27.36744,37.02277],[27.34099,37.01846],[27.32862,37.01411],[27.32862,37.00788],[27.33269,36.99706],[27.32651,36.98599],[27.31463,36.97712],[27.30063,36.97309],[27.30812,36.95942],[27.29396,36.96162],[27.28696,36.95942],[27.28093,36.96686],[27.26319,36.96337],[27.2527,36.97834],[27.24741,37.00023],[27.2461,37.01777],[27.24122,37.03437],[27.23243,37.04731],[27.22877,37.06184],[27.23911,37.08295],[27.24773,37.08344],[27.26417,37.08902],[27.28191,37.09833],[27.29444,37.1103],[27.28745,37.11542],[27.27906,37.11758],[27.27003,37.11603],[27.26043,37.1103],[27.25489,37.11652],[27.25294,37.12397],[27.26043,37.11774],[27.27166,37.12885],[27.30299,37.11957],[27.32179,37.12397],[27.3213,37.13109],[27.32472,37.14785],[27.32179,37.15868],[27.33253,37.15619],[27.33961,37.15054],[27.34303,37.14179],[27.3423,37.13011],[27.34897,37.13011],[27.35426,37.14086],[27.36158,37.14863],[27.36931,37.1507],[27.37647,37.14444],[27.38331,37.15184],[27.38299,37.13471],[27.38657,37.13007],[27.40431,37.13011],[27.41822,37.12124],[27.42547,37.11962],[27.43849,37.12397],[27.431,37.11774],[27.44557,37.09699],[27.45981,37.0895],[27.47511,37.09251],[27.50131,37.10749],[27.52223,37.11498],[27.54152,37.12596],[27.56511,37.12564],[27.57553,37.13011],[27.57553,37.1376],[27.56235,37.13581],[27.55454,37.13011],[27.54721,37.16181],[27.53956,37.17829],[27.52784,37.18537],[27.52784,37.19282],[27.57472,37.20116],[27.58766,37.1988],[27.57553,37.17853],[27.58668,37.18146],[27.59474,37.18594],[27.60987,37.19965],[27.59425,37.20429],[27.58855,37.21113],[27.58937,37.2307],[27.59164,37.23505],[27.60426,37.24226],[27.60987,37.24746],[27.6128,37.25462],[27.61598,37.27473],[27.60304,37.28217],[27.59441,37.28384],[27.58937,37.27473],[27.56479,37.27554],[27.55323,37.27293],[27.54835,37.26484],[27.54322,37.24982],[27.53053,37.23631],[27.51466,37.22931],[27.50001,37.23383],[27.51775,37.246],[27.51987,37.2591],[27.5088,37.26805],[27.48634,37.26789],[27.47364,37.25641],[27.46363,37.25202],[27.45883,37.258],[27.46144,37.26752],[27.46795,37.277],[27.48634,37.29523],[27.48512,37.30305],[27.49,37.31379],[27.49138,37.32734],[27.48015,37.34369],[27.47267,37.34369],[27.46852,37.31562],[27.44614,37.30561],[27.41831,37.30947],[27.39682,37.32315],[27.38868,37.34528],[27.39674,37.36563],[27.41521,37.38166],[27.43849,37.39082],[27.42652,37.40595],[27.40724,37.41275],[27.38657,37.41206],[27.37029,37.4051],[27.36118,37.39216],[27.35646,37.37914],[27.3462,37.37059],[27.32179,37.37092],[27.32179,37.36351],[27.33644,37.3557],[27.33033,37.35163],[27.2715,37.34858],[27.25766,37.34455],[27.2461,37.33617],[27.23878,37.3439],[27.2317,37.34809],[27.22495,37.34821],[27.21876,37.34369],[27.21559,37.35415],[27.21193,37.35733],[27.20134,37.35228],[27.19077,37.35733],[27.20069,37.36652],[27.20753,37.37641],[27.20948,37.38695],[27.20509,37.39826],[27.22625,37.4051],[27.22625,37.41193],[27.21746,37.4313],[27.2225,37.47675],[27.20509,37.47272],[27.19939,37.47858],[27.19264,37.47866],[27.18531,37.47411],[27.17775,37.46654],[27.1819,37.48334],[27.18784,37.49828],[27.19044,37.51268],[27.18458,37.52802],[27.18824,37.53449],[27.18043,37.54458],[27.18458,37.55589],[27.20037,37.54755],[27.20932,37.5633],[27.21217,37.5856],[27.20851,37.59687],[27.19386,37.60102],[27.13624,37.63105],[27.04884,37.65013],[27.01149,37.66572],[27.02076,37.68626],[27.03834,37.69013],[27.10548,37.68626],[27.12721,37.68854],[27.21315,37.71345],[27.22641,37.72093],[27.24952,37.74433],[27.2566,37.75951],[27.26051,37.78197],[27.26157,37.80353],[27.26043,37.81598],[27.24334,37.83381],[27.23715,37.84544],[27.23911,37.86441],[27.25554,37.8771],[27.26043,37.88422],[27.26539,37.90168],[27.26466,37.90982],[27.26043,37.91901],[27.27475,37.92902],[27.26629,37.95136],[27.23911,37.98794],[27.21404,37.98094],[27.1775,37.98094],[27.14112,37.98603],[27.11638,37.99409],[27.1019,38.01268],[27.07594,38.01703],[27.07016,38.02001],[27.06471,38.0406],[27.05592,38.04572],[27.02703,38.04938],[26.97543,38.06525],[26.94923,38.06737],[26.91774,38.0624],[26.90008,38.05679],[26.8934,38.05622],[26.88852,38.05288],[26.88152,38.0384],[26.87306,38.0351],[26.86492,38.04035],[26.84205,38.07608],[26.84742,38.08877],[26.84645,38.10342],[26.84156,38.11823],[26.83522,38.13129],[26.82504,38.14496],[26.80299,38.16242],[26.79363,38.17227],[26.77605,38.16523],[26.7715,38.17748],[26.77369,38.20702],[26.76027,38.21674],[26.74464,38.21564],[26.72731,38.21027],[26.70826,38.20702],[26.64576,38.20673],[26.63592,38.2036],[26.62289,38.13874],[26.61549,38.14496],[26.60922,38.14496],[26.61215,38.13076],[26.61215,38.11787],[26.60711,38.1083],[26.59498,38.10395],[26.58863,38.10822],[26.57683,38.13272],[26.56764,38.14496],[26.56715,38.12397],[26.5569,38.1223],[26.54331,38.13052],[26.52377,38.14741],[26.51734,38.15567],[26.51547,38.16572],[26.5193,38.17967],[26.49171,38.17402],[26.46656,38.19062],[26.44223,38.21198],[26.41749,38.22065],[26.42416,38.20018],[26.41749,38.20018],[26.41212,38.20637],[26.39015,38.22382],[26.39454,38.24287],[26.39487,38.25165],[26.39015,38.26166],[26.38331,38.26166],[26.37501,38.23481],[26.35402,38.22826],[26.32862,38.23505],[26.29607,38.25658],[26.28663,38.26105],[26.23463,38.27383],[26.23308,38.28026],[26.23878,38.2958],[26.26539,38.28669],[26.27638,38.30048],[26.2859,38.31867],[26.30763,38.32306],[26.30763,38.33051],[26.28891,38.34064],[26.28614,38.35895],[26.29412,38.36986],[26.30763,38.35786],[26.30934,38.36713],[26.31178,38.37116],[26.32114,38.37767],[26.32521,38.36555],[26.32594,38.35493],[26.32277,38.34553],[26.3143,38.33674],[26.32447,38.33173],[26.34636,38.3288],[26.34978,38.32014],[26.35613,38.31688],[26.37062,38.31607],[26.38502,38.31843],[26.39186,38.32502],[26.38331,38.33674],[26.38331,38.34357],[26.39894,38.33552],[26.41749,38.33674],[26.42921,38.34077],[26.46217,38.35786],[26.47592,38.36689],[26.47706,38.38687],[26.46803,38.40762],[26.45151,38.41869],[26.45151,38.42609],[26.4769,38.41669],[26.48911,38.40619],[26.49789,38.40729],[26.51303,38.43293],[26.49887,38.43964],[26.47429,38.45734],[26.45387,38.4632],[26.44077,38.47281],[26.431,38.47394],[26.42205,38.46971],[26.41424,38.45629],[26.40724,38.45344],[26.38787,38.45425],[26.38819,38.45844],[26.39723,38.46869],[26.40382,38.48754],[26.39991,38.49958],[26.36964,38.53535],[26.37582,38.52855],[26.37306,38.54072],[26.35914,38.57697],[26.36012,38.58356],[26.34864,38.62132],[26.34897,38.63548],[26.35109,38.65021],[26.35629,38.66169],[26.36598,38.66633],[26.38103,38.66836],[26.40301,38.67731],[26.41407,38.67939],[26.4406,38.67768],[26.46559,38.67267],[26.48764,38.66429],[26.50563,38.65266],[26.53956,38.62368],[26.55584,38.60541],[26.5608,38.59003],[26.584,38.56094],[26.60922,38.53535],[26.63038,38.51923],[26.63592,38.50804],[26.63795,38.49702],[26.63803,38.47773],[26.64332,38.46772],[26.62916,38.46088],[26.62135,38.46662],[26.61085,38.46841],[26.59929,38.46638],[26.58815,38.46088],[26.60524,38.4538],[26.60499,38.44477],[26.58815,38.41869],[26.61183,38.41625],[26.62208,38.40534],[26.62827,38.39008],[26.63966,38.37458],[26.65707,38.3288],[26.67311,38.3072],[26.69459,38.31318],[26.69996,38.32575],[26.69361,38.33438],[26.6775,38.34357],[26.67066,38.38516],[26.67595,38.40233],[26.68727,38.41974],[26.7024,38.43016],[26.71909,38.42609],[26.71909,38.43293],[26.72535,38.43293],[26.73666,38.42292],[26.74822,38.40469],[26.76686,38.36408],[26.78736,38.37153],[26.79509,38.35863],[26.80983,38.36005],[26.82765,38.36726],[26.84547,38.37153],[26.92457,38.37767],[26.97381,38.39619],[26.98976,38.39887],[27.01336,38.4125],[27.02361,38.4121],[27.04249,38.40762],[27.05437,38.4125],[27.05584,38.40852],[27.06121,38.4125],[27.08863,38.40225],[27.11183,38.41401],[27.13543,38.43366],[27.16424,38.4466],[27.16424,38.45344],[27.15447,38.45942],[27.15016,38.45873],[27.14308,38.45344],[27.13624,38.46088],[27.11695,38.45392],[27.08334,38.45673],[27.07472,38.45344],[27.04908,38.4632],[27.02231,38.46247],[26.93865,38.43423],[26.93539,38.43488],[26.94508,38.4466],[26.92791,38.45604],[26.89763,38.4947],[26.88404,38.50121],[26.85922,38.50747],[26.84929,38.5124],[26.82691,38.52619],[26.81471,38.54279],[26.82927,38.53132],[26.84702,38.5207],[26.8742,38.50747],[26.88982,38.50804],[26.88982,38.51488],[26.87778,38.52635],[26.86508,38.53555],[26.85125,38.54291],[26.83522,38.54902],[26.84889,38.5974],[26.83424,38.60822],[26.82504,38.6048],[26.81373,38.59764],[26.79363,38.5974],[26.80104,38.61172],[26.77931,38.61774],[26.76694,38.61904],[26.75318,38.61791],[26.75945,38.63841],[26.74643,38.63866],[26.71909,38.65266],[26.73365,38.66364],[26.74244,38.66625],[26.75318,38.66633],[26.73316,38.68964],[26.72584,38.7027],[26.71909,38.72093],[26.73756,38.73078],[26.78891,38.73941],[26.81821,38.75544],[26.82374,38.75373],[26.83058,38.74726],[26.85157,38.74567],[26.88852,38.73404],[26.90349,38.73457],[26.89723,38.74828],[26.91529,38.75995],[26.92302,38.76215],[26.93141,38.75507],[26.93442,38.76288],[26.93507,38.77045],[26.93141,38.78925],[26.92457,38.78172],[26.90447,38.80976],[26.89723,38.81656],[26.93767,38.83023],[26.94386,38.80874],[26.96079,38.80614],[26.97145,38.81916],[26.95875,38.84447],[26.97535,38.84862],[26.9909,38.85505],[27.00392,38.86286],[27.01336,38.87116],[27.03354,38.8605],[27.05502,38.87108],[27.06267,38.88687],[27.04127,38.89167],[27.05787,38.91852],[27.05779,38.92976],[27.04127,38.94009],[27.01287,38.92207],[27.00123,38.91987],[26.98259,38.91962],[26.97755,38.92276],[26.96754,38.93692],[26.96241,38.94009],[26.94996,38.937],[26.94166,38.93187],[26.93426,38.93089],[26.92457,38.94009],[26.91342,38.93195],[26.87916,38.9162],[26.86622,38.9134],[26.85564,38.91755],[26.8401,38.93586],[26.82521,38.94009],[26.80649,38.95014],[26.79721,38.97313],[26.79916,38.99836],[26.81471,39.01512],[26.81471,39.02196],[26.79363,39.02196],[26.80641,39.03388],[26.82911,39.04735],[26.85402,39.05842],[26.87306,39.06293],[26.88315,39.0716],[26.87525,39.09089],[26.8519,39.12128],[26.82374,39.14908],[26.80983,39.15746],[26.77117,39.17308],[26.75164,39.18464],[26.7378,39.19721],[26.73902,39.20759],[26.73097,39.22761],[26.72657,39.2475],[26.71876,39.26288],[26.70143,39.26899],[26.65333,39.26691],[26.62908,39.26838],[26.60922,39.27521],[26.61931,39.28315],[26.62517,39.30329],[26.63258,39.31342],[26.64552,39.31757],[26.6548,39.31322],[26.65382,39.30646],[26.63592,39.30317],[26.63592,39.29694],[26.64674,39.29731],[26.65602,39.29426],[26.67066,39.28266],[26.66481,39.29808],[26.67026,39.30598],[26.69117,39.31623],[26.70875,39.3369],[26.81471,39.39936],[26.80104,39.40619],[26.80275,39.42512],[26.80104,39.43354],[26.83741,39.43561],[26.85084,39.43977],[26.86305,39.44717],[26.85206,39.46182],[26.86793,39.4715],[26.92986,39.48774],[26.93141,39.50178],[26.94508,39.53962],[26.94386,39.56098],[26.93767,39.57477],[26.92221,39.58218],[26.8934,39.58438],[26.87045,39.57685],[26.85206,39.56338],[26.83286,39.55683],[26.80787,39.5707],[26.4568,39.52119],[26.43426,39.51398],[26.42416,39.50519],[26.41391,39.50532],[26.36215,39.48135],[26.35011,39.48135],[26.29737,39.48871],[26.28663,39.48762],[26.27361,39.48241],[26.26295,39.48135],[26.25392,39.47285],[26.24928,39.46564],[26.24252,39.4676],[26.23178,39.47451],[26.15284,39.45922],[26.11297,39.45917],[26.07423,39.47451],[26.07,39.49628]]],[[[26.03321,40.73505],[26.04396,40.73847],[26.08159,40.73555],[26.11229,40.74697],[26.13451,40.76713],[26.14298,40.79379],[26.15828,40.81219],[26.21202,40.84743],[26.2051,40.85839],[26.20582,40.865],[26.20872,40.86841],[26.21864,40.87198],[26.21254,40.87311],[26.2112,40.87472],[26.21192,40.87947],[26.22525,40.8836],[26.22618,40.89931],[26.23238,40.88567],[26.2392,40.88567],[26.24633,40.89146],[26.25223,40.90055],[26.26039,40.92045],[26.26649,40.92045],[26.27517,40.91027],[26.2822,40.90722],[26.29067,40.90613],[26.30401,40.90903],[26.30328,40.91549],[26.2944,40.92665],[26.30649,40.936],[26.33501,40.94624],[26.34907,40.95456],[26.35909,40.96468],[26.3562,40.96815],[26.34648,40.97171],[26.33605,40.98189],[26.33315,40.99073],[26.33594,40.99714],[26.34462,41.00106],[26.35961,41.00241],[26.36809,41.00773],[26.37501,41.01946],[26.37418,41.03114],[26.34762,41.04096],[26.33904,41.05155],[26.32509,41.07408],[26.3224,41.08855],[26.33946,41.11449],[26.33233,41.11904],[26.31734,41.1223],[26.31734,41.13046],[26.33605,41.15258],[26.32416,41.16989],[26.32106,41.18762],[26.3255,41.20699],[26.33605,41.22891],[26.32054,41.24622],[26.3317,41.25412],[26.39506,41.25898],[26.41211,41.2657],[26.43847,41.28358],[26.46637,41.29717],[26.47878,41.30962],[26.48932,41.31086],[26.54017,41.35179],[26.55061,41.34177],[26.56962,41.3336],[26.59112,41.32931],[26.60972,41.33071],[26.62264,41.34037],[26.63174,41.35753],[26.6366,41.37846],[26.63639,41.39959],[26.63215,41.41975],[26.61593,41.46853],[26.61096,41.50574],[26.60611,41.52305],[26.59546,41.53741],[26.60166,41.54734],[26.59784,41.57328],[26.60228,41.58516],[26.59629,41.59754],[26.59546,41.61245],[26.57644,41.591],[26.56652,41.59875],[26.52115,41.61643],[26.46441,41.64852],[26.4732,41.66113],[26.47619,41.67573],[26.46038,41.67878],[26.44281,41.68446],[26.40436,41.69182],[26.37739,41.71063],[26.35961,41.7149],[26.33336,41.71304],[26.32323,41.72368],[26.3163,41.74376],[26.32003,41.76546],[26.33419,41.78954],[26.37553,41.81662],[26.47836,41.81329],[26.52611,41.82424],[26.53955,41.83799],[26.54782,41.85628],[26.55474,41.89295],[26.55898,41.90173],[26.55981,41.90734],[26.55681,41.91075],[26.54472,41.91643],[26.54296,41.92036],[26.54709,41.9269],[26.56063,41.93568],[26.58947,41.95876],[26.60569,41.96741],[26.62357,41.96904],[26.71757,41.95731],[26.73674,41.95896],[26.74698,41.96449],[26.76858,41.98077],[26.78057,41.98343],[26.78992,41.97995],[26.80842,41.96788],[26.81943,41.96566],[26.82769,41.96878],[26.85002,41.98286],[26.86077,41.9879],[26.87172,41.98814],[26.88113,41.98553],[26.89033,41.98542],[26.90108,41.99348],[26.91146,41.99679],[26.93022,41.99452],[26.9389,41.99622],[26.95006,42.00617],[26.96717,42.02849],[26.98107,42.03286],[27.0004,42.04281],[27.02262,42.07389],[27.04654,42.08294],[27.06551,42.0827],[27.0837,42.07841],[27.10065,42.0711],[27.11605,42.06183],[27.14959,42.06183],[27.17382,42.05707],[27.17816,42.05836],[27.18158,42.06588],[27.2038,42.08813],[27.21641,42.09562],[27.23821,42.09792],[27.27335,42.09175],[27.30529,42.07759],[27.33247,42.05743],[27.37485,42.0087],[27.39686,41.98932],[27.42084,41.97372],[27.49432,41.94284],[27.50946,41.93318],[27.53318,41.90806],[27.54641,41.90116],[27.56274,41.90644],[27.54889,41.91088],[27.56067,41.91768],[27.5521,41.92184],[27.55075,41.92421],[27.5722,41.92985],[27.58238,41.93488],[27.59054,41.94289],[27.59809,41.9386],[27.60336,41.93863],[27.60687,41.94351],[27.6093,41.95349],[27.68707,41.9686],[27.72397,41.9676],[27.77616,41.94612],[27.78981,41.94269],[27.80283,41.94307],[27.81534,41.9468],[27.81828,41.95287],[27.80273,41.96005],[27.8049,41.96989],[27.80495,41.98343],[27.808,41.99348],[27.81192,41.9947],[27.82402,41.99348],[27.85223,41.99545],[27.87693,41.99072],[27.90339,41.98106],[27.91703,41.9779],[27.96592,41.98214],[28.01677,41.97256],[28.03061,41.92455],[28.03093,41.91376],[28.0359,41.9112],[28.04233,41.90485],[28.04656,41.89712],[28.04493,41.8902],[28.03582,41.88589],[28.02565,41.88736],[28.00701,41.8933],[27.99057,41.89277],[27.97755,41.88736],[27.96909,41.87376],[27.96608,41.84894],[27.97202,41.82225],[27.98683,41.80402],[28.00489,41.78856],[28.02125,41.77041],[28.04021,41.72541],[28.05177,41.71206],[28.07846,41.69196],[28.08326,41.68154],[28.08839,41.67691],[28.08961,41.6708],[28.08709,41.66706],[28.07667,41.66681],[28.07594,41.66055],[28.08334,41.64492],[28.09718,41.62669],[28.11329,41.61156],[28.14186,41.59894],[28.1565,41.58438],[28.17775,41.55817],[28.23276,41.51899],[28.38429,41.44745],[28.60084,41.37751],[28.90846,41.26655],[29.00758,41.24966],[29.01287,41.24811],[29.01783,41.24372],[29.02426,41.24283],[29.03199,41.24494],[29.03826,41.25434],[29.04518,41.25641],[29.0687,41.25373],[29.09392,41.24641],[29.10922,41.2353],[29.09986,41.21039],[29.08676,41.19188],[29.06935,41.17471],[29.05226,41.16714],[29.04078,41.16429],[29.04331,41.15766],[29.05738,41.14155],[29.06373,41.13447],[29.07065,41.13019],[29.0687,41.12446],[29.06446,41.11957],[29.06227,41.11933],[29.0586,41.0996],[29.05152,41.08177],[29.04217,41.06635],[29.0315,41.05386],[29.02329,41.04881],[29.00554,41.0445],[28.99733,41.03986],[28.98951,41.03107],[28.98854,41.02163],[28.98959,41.01708],[28.99252,41.01366],[28.99236,41.0082],[28.9865,41.00263],[28.98194,41.00165],[28.96046,41.003],[28.95183,41.00861],[28.94614,41.00947],[28.94044,41.00682],[28.9284,40.9958],[28.91749,40.9936],[28.89926,40.98428],[28.84995,40.97529],[28.83375,40.96393],[28.82203,40.96162],[28.79762,40.96255],[28.78598,40.96564],[28.78102,40.97187],[28.77019,40.97931],[28.74529,40.98017],[28.62525,40.96841],[28.59522,40.97797],[28.60353,41.00947],[28.59181,41.01887],[28.58481,41.02204],[28.57553,41.02367],[28.58253,41.04637],[28.57244,41.06647],[28.55193,41.08051],[28.52784,41.08515],[28.53289,41.07062],[28.55454,41.05366],[28.56251,41.03677],[28.56284,41.02668],[28.56031,41.01227],[28.55356,40.99836],[28.54135,40.98957],[28.51246,40.99266],[28.4607,41.03286],[28.43531,41.04291],[28.40219,41.04731],[28.33277,41.06656],[28.29811,41.07087],[28.26401,41.07087],[28.25587,41.07319],[28.24497,41.08295],[28.23666,41.08515],[28.19947,41.07856],[28.18165,41.0777],[28.16529,41.08515],[28.11744,41.07123],[28.11004,41.06778],[28.10027,41.06782],[28.04493,41.05044],[28.03012,41.04759],[28.01303,41.04072],[27.99733,41.03205],[27.98658,41.02367],[27.96437,40.99628],[27.95777,40.9833],[27.95924,40.97529],[27.94125,40.9711],[27.86069,40.97846],[27.83155,40.9951],[27.81528,41.00263],[27.77613,41.01097],[27.7378,41.01264],[27.52418,40.9892],[27.49318,40.97529],[27.47169,40.94184],[27.44654,40.86172],[27.42481,40.83129],[27.33082,40.76097],[27.28793,40.70356],[27.19825,40.65314],[27.17775,40.63264],[27.167,40.62987],[27.14283,40.62739],[27.11525,40.61371],[27.06861,40.61441],[27.04754,40.61221],[27.03061,40.60155],[27.00147,40.5703],[26.98976,40.56379],[26.94988,40.55956],[26.91163,40.55073],[26.85369,40.52314],[26.83863,40.51227],[26.82106,40.50312],[26.75945,40.49616],[26.74073,40.48745],[26.70834,40.46572],[26.69459,40.46137],[26.68336,40.45547],[26.67433,40.42569],[26.66383,40.41356],[26.63152,40.40005],[26.62485,40.39248],[26.62289,40.37572],[26.61671,40.35952],[26.60157,40.34614],[26.53972,40.3037],[26.51043,40.29816],[26.49724,40.28994],[26.47609,40.27338],[26.47584,40.2696],[26.44467,40.24164],[26.42652,40.23029],[26.40366,40.21943],[26.37989,40.21133],[26.35914,40.20816],[26.34555,40.19977],[26.34881,40.18134],[26.36134,40.16258],[26.37582,40.15351],[26.32797,40.11872],[26.313,40.11005],[26.27312,40.0926],[26.24293,40.07079],[26.23064,40.06489],[26.17758,40.05073],[26.167,40.04987],[26.15748,40.05533],[26.16,40.06721],[26.16798,40.07917],[26.17384,40.08462],[26.1902,40.09422],[26.20143,40.1153],[26.20924,40.13642],[26.21469,40.14606],[26.25978,40.19449],[26.27198,40.23041],[26.26694,40.25776],[26.24789,40.27912],[26.21811,40.29686],[26.22853,40.30345],[26.23178,40.31013],[26.22739,40.31533],[26.21469,40.31737],[26.20997,40.32193],[26.21909,40.33145],[26.23219,40.34003],[26.23878,40.34154],[26.25017,40.34951],[26.30144,40.36469],[26.32114,40.36518],[26.33611,40.38532],[26.38575,40.40986],[26.43279,40.43985],[26.49171,40.45653],[26.5359,40.4855],[26.56446,40.49946],[26.59555,40.5104],[26.62289,40.51533],[26.66977,40.51081],[26.68377,40.51533],[26.69728,40.52643],[26.71827,40.5515],[26.73276,40.56379],[26.7562,40.55484],[26.78826,40.56293],[26.81666,40.58096],[26.82895,40.602],[26.79835,40.65156],[26.79038,40.66059],[26.7142,40.65131],[26.69077,40.64256],[26.6775,40.63947],[26.60922,40.63947],[26.58204,40.633],[26.50563,40.59858],[26.47706,40.6131],[26.46119,40.61762],[26.44467,40.61904],[26.431,40.61518],[26.41529,40.60822],[26.39975,40.60415],[26.37306,40.61445],[26.35613,40.61302],[26.30258,40.60114],[26.11736,40.602],[26.09132,40.60541],[26.07691,40.6118],[26.06853,40.6271],[26.06227,40.64541],[26.05372,40.66059],[26.06088,40.67585],[26.05812,40.6977],[26.04811,40.71963],[26.03321,40.73505]]],[[[25.97804,39.83417],[25.98601,39.84223],[26.00424,39.8452],[26.05112,39.84406],[26.05551,39.84272],[26.06056,39.83759],[26.07716,39.84467],[26.08302,39.83495],[26.08172,39.79999],[26.07496,39.7849],[26.05909,39.78608],[26.02654,39.80341],[25.99708,39.81415],[25.98365,39.82209],[25.97804,39.83417]]],[[[25.66326,40.12617],[25.66326,40.13239],[25.68621,40.16083],[25.719,40.1872],[25.75904,40.20673],[25.82691,40.21662],[25.91334,40.24128],[25.92595,40.24283],[25.93824,40.24164],[25.94467,40.23701],[25.95004,40.22964],[25.95786,40.22309],[25.97185,40.22114],[25.97185,40.21434],[25.9673,40.19326],[25.96754,40.18061],[25.97185,40.17276],[25.96306,40.15713],[25.97291,40.15322],[25.99098,40.15746],[26.00587,40.16657],[26.01222,40.16657],[26.01222,40.14606],[25.99025,40.13691],[25.96778,40.13076],[25.9004,40.12275],[25.85629,40.10786],[25.76596,40.09715],[25.74529,40.09829],[25.7212,40.1048],[25.70932,40.10993],[25.70436,40.1153],[25.66326,40.12617]]],[[[27.52638,40.63911],[27.53102,40.65009],[27.53883,40.65693],[27.54591,40.66035],[27.55152,40.6577],[27.55454,40.64692],[27.57944,40.65648],[27.60524,40.66327],[27.63136,40.66348],[27.65756,40.65314],[27.67335,40.65644],[27.7024,40.65302],[27.72779,40.64265],[27.73268,40.62519],[27.7142,40.61469],[27.67644,40.61017],[27.65756,40.60541],[27.62452,40.58308],[27.60475,40.57681],[27.58253,40.5843],[27.57154,40.58466],[27.55177,40.59105],[27.53598,40.602],[27.53891,40.62336],[27.52638,40.63911]]],[[[27.57993,40.47655],[27.59083,40.48387],[27.59913,40.49653],[27.60727,40.50544],[27.64047,40.49413],[27.6421,40.48725],[27.63673,40.47834],[27.6351,40.46678],[27.64519,40.45987],[27.65309,40.46039],[27.65699,40.45751],[27.65659,40.44945],[27.64568,40.44782],[27.63152,40.45376],[27.59636,40.45799],[27.58204,40.46552],[27.57993,40.47655]]]]},"source":"Natural Earth Admin 0 Countries, 1:10m, version 5.1.1","sourceUrl":"https://www.naturalearthdata.com/downloads/10m-cultural-vectors/10m-admin-0-countries/"}
