{"type":"Feature","properties":{"isoA2":"UM","name":"United States Minor Outlying Islands"},"geometry":{"type":"MultiPolygon","coordinates":[[[[-169.53917,16.75446],[-169.53026,16.7602],[-169.5174,16.76244],[-169.52839,16.75605],[-169.53917,16.75446]]],[[[-160.02998,-0.37615],[-160.0089,-0.37249],[-160.01244,-0.38209],[-160.02477,-0.38877],[-160.02998,-0.37615]]],[[[-176.48583,0.19652],[-176.47688,0.19745],[-176.47529,0.1931],[-176.47932,0.19033],[-176.48583,0.19652]]],[[[-176.45954,0.2259],[-176.45918,0.21922],[-176.46394,0.22187],[-176.45954,0.2259]]],[[[-176.64049,0.80199],[-176.63903,0.80695],[-176.6361,0.80341],[-176.63618,0.79019],[-176.64049,0.80199]]],[[[166.61939,19.28164],[166.62973,19.28242],[166.63819,19.28644],[166.64088,19.29401],[166.63478,19.30573],[166.64812,19.29776],[166.65235,19.28425],[166.64422,19.27558],[166.61939,19.28164]]],[[[-177.33528,28.20429],[-177.32893,28.21109],[-177.32116,28.20588],[-177.33528,28.20429]]],[[[-177.3896,28.19766],[-177.38524,28.20698],[-177.378,28.21284],[-177.36864,28.21532],[-177.35765,28.21442],[-177.37218,28.20234],[-177.38073,28.19892],[-177.3896,28.19766]]],[[[-169.54951,16.72346],[-169.54768,16.72736],[-169.53234,16.73306],[-169.52241,16.73216],[-169.5417,16.72191],[-169.54735,16.72102],[-169.54951,16.72346]]],[[[-169.51366,16.74396],[-169.51366,16.74559],[-169.51277,16.74433],[-169.51366,16.74396]]],[[[-75.03083,18.41348],[-75.03026,18.41726],[-75.00699,18.41515],[-75.00263,18.41022],[-75.00316,18.39773],[-75.00805,18.39501],[-75.01781,18.39667],[-75.02375,18.40697],[-75.03083,18.41348]]],[[[-162.10363,5.88858],[-162.10172,5.89025],[-162.07136,5.89016],[-162.06086,5.88719],[-162.05761,5.88247],[-162.06111,5.87344],[-162.07307,5.86937],[-162.09114,5.87165],[-162.09435,5.87535],[-162.09077,5.87482],[-162.07506,5.88553],[-162.08731,5.88386],[-162.10029,5.88642],[-162.10363,5.88858]]],[[[-162.40018,6.44514],[-162.38528,6.44514],[-162.38528,6.43024],[-162.40018,6.43024],[-162.40018,6.44514]]]]},"source":"Natural Earth Admin 0 Countries, 1:10m, version 5.1.1","sourceUrl":"https://www.naturalearthdata.com/downloads/10m-cultural-vectors/10m-admin-0-countries/"}
