{"type":"Feature","properties":{"isoA2":"VI","name":"United States Virgin Islands"},"geometry":{"type":"MultiPolygon","coordinates":[[[[-64.89517,17.68277],[-64.88785,17.6999],[-64.88663,17.71442],[-64.88769,17.75528],[-64.88463,17.76789],[-64.87645,17.77586],[-64.83869,17.76484],[-64.81745,17.77411],[-64.79548,17.78754],[-64.77164,17.79263],[-64.73078,17.76529],[-64.70971,17.75821],[-64.69904,17.75283],[-64.68977,17.74478],[-64.6669,17.76289],[-64.63097,17.77033],[-64.59179,17.7683],[-64.5594,17.75845],[-64.5594,17.75161],[-64.58519,17.74897],[-64.60668,17.74226],[-64.64879,17.7237],[-64.67052,17.71723],[-64.87637,17.68911],[-64.89517,17.68277]]],[[[-64.80128,18.32825],[-64.78637,18.34977],[-64.76965,18.35659],[-64.75174,18.36169],[-64.75591,18.36906],[-64.74695,18.37359],[-64.6974,18.36224],[-64.68247,18.356],[-64.66456,18.34693],[-64.66039,18.33672],[-64.67413,18.33446],[-64.70099,18.34298],[-64.70816,18.34014],[-64.69742,18.32654],[-64.704,18.30331],[-64.73623,18.31975],[-64.78637,18.31522],[-64.80128,18.32825]]],[[[-65.04149,18.35366],[-65.01187,18.3686],[-64.98664,18.37482],[-64.95,18.37355],[-64.93498,18.36332],[-64.92602,18.36615],[-64.94225,18.3781],[-64.95003,18.3866],[-64.92851,18.38037],[-64.85498,18.34013],[-64.84008,18.31749],[-64.85141,18.31578],[-64.86031,18.31859],[-64.87164,18.31462],[-64.87884,18.30444],[-64.9105,18.31576],[-64.92186,18.32256],[-64.93083,18.33955],[-64.93502,18.33049],[-64.94459,18.33671],[-64.96609,18.33273],[-64.98164,18.33556],[-64.99362,18.34802],[-65.02531,18.33893],[-65.04149,18.35366]]]]},"source":"Natural Earth Admin 0 Countries, 1:10m, version 5.1.1","sourceUrl":"https://www.naturalearthdata.com/downloads/10m-cultural-vectors/10m-admin-0-countries/"}
