{"type":"Feature","properties":{"isoA2":"WF","name":"Wallis and Futuna"},"geometry":{"type":"MultiPolygon","coordinates":[[[[-178.18574,-14.24822],[-178.17805,-14.2326],[-178.14232,-14.24358],[-178.10814,-14.27899],[-178.10509,-14.28525],[-178.09248,-14.28899],[-178.04674,-14.31259],[-178.04674,-14.31943],[-178.10005,-14.31601],[-178.10883,-14.31943],[-178.12145,-14.3139],[-178.14692,-14.31015],[-178.15661,-14.30511],[-178.17524,-14.27703],[-178.18574,-14.24822]]],[[[-176.19957,-13.29062],[-176.18281,-13.27793],[-176.19018,-13.25701],[-176.18403,-13.23789],[-176.1704,-13.22145],[-176.15547,-13.20892],[-176.14301,-13.23073],[-176.13056,-13.24765],[-176.1256,-13.26409],[-176.13561,-13.28476],[-176.13056,-13.29119],[-176.12816,-13.29827],[-176.14448,-13.30088],[-176.14765,-13.31048],[-176.14183,-13.33587],[-176.14717,-13.34775],[-176.15949,-13.35027],[-176.17321,-13.34645],[-176.18281,-13.33929],[-176.18391,-13.32383],[-176.19477,-13.30674],[-176.19957,-13.29062]]]]},"source":"Natural Earth Admin 0 Countries, 1:10m, version 5.1.1","sourceUrl":"https://www.naturalearthdata.com/downloads/10m-cultural-vectors/10m-admin-0-countries/"}
